{"type":"FeatureCollection","name":"africa-frontiers","crs":{"type":"name","properties":{"name":"urn:ogc:def:crs:OGC:1.3:CRS84"}},"features":[
{"type":"Feature","properties":{"id":"galicia-portugal","nations":"galicia | portugal","follows":"the Minho, then the Peneda, Gerês and Larouco hills"},"geometry":{"type":"LineString","coordinates":[[-8.95,41.87],[-8.7402,41.9754],[-8.6714,42.0001],[-8.6532,42.0317],[-8.6275,42.0513],[-8.5735,42.0547],[-8.5018,42.0833],[-8.3474,42.102],[-8.296,42.1303],[-8.253,42.1378],[-8.2018,42.1603],[-8.2,42.12],[-8.01,41.9498],[-7.9239,41.8905],[-7.8378,41.8625],[-7.6958,41.8486],[-7.5145,41.8518],[-7.0,41.93]]}},
{"type":"Feature","properties":{"id":"galicia-spain","nations":"galicia | spain","follows":"the Eo, the Ancares and the Montes de León"},"geometry":{"type":"LineString","coordinates":[[-7.03,43.58],[-7.0178,43.3118],[-7.0,43.2],[-6.9738,43.1286],[-6.8811,42.9565],[-6.8558,42.8862],[-6.85,42.85],[-6.8569,42.7714],[-6.9404,42.5267],[-6.95,42.45],[-6.9368,42.386],[-6.8552,42.2052],[-6.85,42.15],[-6.878,42.0801],[-7.0,41.93]]}},
{"type":"Feature","properties":{"id":"portugal-spain","nations":"portugal | spain","follows":"the Douro gorges, the Malcata hills, the Tagus, then the Guadiana to the sea"},"geometry":{"type":"LineString","coordinates":[[-7.0,41.93],[-6.7148,41.9267],[-6.6371,41.9128],[-6.5592,41.881],[-6.4278,41.7973],[-6.3465,41.7293],[-6.2836,41.6609],[-6.2624,41.629],[-6.25,41.6],[-6.2479,41.5688],[-6.2564,41.5386],[-6.3,41.45],[-6.2835,41.4659],[-6.3216,41.4198],[-6.3797,41.3976],[-6.3774,41.3832],[-6.3961,41.3787],[-6.4316,41.3392],[-6.4964,41.2952],[-6.555,41.2759],[-6.6473,41.2679],[-6.7019,41.2027],[-6.7559,41.159],[-6.7571,41.1273],[-6.7654,41.1091],[-6.8186,41.0543],[-6.9075,41.0563],[-6.9285,41.0482],[-6.9212,40.9869],[-6.8604,40.7277],[-6.85,40.6],[-6.8688,40.4808],[-6.9306,40.2839],[-6.95,40.2],[-6.961,40.0947],[-6.9681,39.8672],[-6.9776,39.7579],[-7.0,39.66],[-7.0156,39.6244],[-7.0593,39.5606],[-7.1584,39.4451],[-7.192,39.3837],[-7.2,39.35],[-7.1995,39.3089],[-7.1895,39.2655],[-7.062,38.987],[-7.0513,38.9425],[-7.05,38.9],[-7.0575,38.8627],[-7.0909,38.792],[-7.2144,38.6222],[-7.25,38.55],[-7.2738,38.4355],[-7.2879,38.2345],[-7.3,38.15],[-7.3269,38.0439],[-7.4168,37.7617],[-7.4427,37.6521],[-7.4528,37.5565],[-7.4489,37.4231],[-7.4181,37.1872],[-7.4,37.1]]}},
{"type":"Feature","properties":{"id":"basque-spain","nations":"basque | spain","follows":"the Basque mountains and the upper Ebro, then the Navarrese Pyrenees"},"geometry":{"type":"LineString","coordinates":[[-3.3,43.45],[-3.3869,43.2052],[-3.4039,43.1257],[-3.4051,43.0873],[-3.3877,43.0114],[-3.3466,42.9355],[-3.2878,42.8623],[-3.2169,42.7933],[-3.1395,42.7295],[-3.0508,42.6677],[-2.9403,42.6115],[-2.5,42.45],[-2.1058,42.2669],[-1.9755,42.2208],[-1.912,42.2066],[-1.797,42.2004],[-1.6395,42.2271],[-1.4885,42.2815],[-1.3099,42.3738],[-1.2338,42.4291],[-1.1284,42.5237],[-0.9493,42.6998],[-0.7663,42.8955]]}},
{"type":"Feature","properties":{"id":"basque-aquitaine","nations":"basque | aquitaine","follows":"the Soule, then the Adour to the sea"},"geometry":{"type":"LineString","coordinates":[[-0.7663,42.8955],[-0.8308,43.1437],[-0.8909,43.3087],[-0.9351,43.3838],[-0.9897,43.4326],[-1.0888,43.4847],[-1.2327,43.5264],[-1.3417,43.5341],[-1.7,43.53]]}},
{"type":"Feature","properties":{"id":"spain-aquitaine","nations":"spain | aquitaine","follows":"the Pyrenean crest"},"geometry":{"type":"LineString","coordinates":[[-0.7663,42.8955],[-0.7547,42.8883],[-0.7469,42.8656],[-0.7312,42.8531],[-0.5812,42.8031],[-0.5594,42.7906],[-0.5453,42.768],[-0.5359,42.7664],[-0.4797,42.7758],[-0.3203,42.8242],[-0.2547,42.832],[-0.2406,42.8094],[-0.2187,42.7969],[-0.1156,42.7648],[-0.0812,42.7484],[-0.0531,42.718],[-0.0406,42.6656],[-0.0266,42.6547],[-0.0062,42.65],[0.0188,42.6516],[0.0563,42.6656],[0.1195,42.7172],[0.1641,42.7406],[0.1977,42.7484],[0.2508,42.7492],[0.293,42.7383],[0.3039,42.7164],[0.3234,42.7078],[0.4695,42.6984],[0.5422,42.6844],[0.5789,42.6672],[0.6227,42.6328],[0.6672,42.6156],[0.7633,42.6016],[0.8852,42.6023],[0.9453,42.6141],[0.9836,42.6352],[1.0,42.6656],[1.0094,42.7266],[1.0234,42.743],[1.0563,42.75],[1.0906,42.7422],[1.1039,42.7164],[1.1234,42.7078],[1.3109,42.6953],[1.3383,42.6883],[1.3539,42.6664],[1.3891,42.6547],[1.5766,42.6422],[1.5961,42.6336],[1.6047,42.6117],[1.6156,42.6047],[1.6672,42.5984],[1.6875,42.5875]]}},
{"type":"Feature","properties":{"id":"spain-francia","nations":"spain | francia","follows":"the eastern Pyrenees, from the Cerdanya to the Albères"},"geometry":{"type":"LineString","coordinates":[[1.6875,42.5875],[1.8714,42.5114],[1.9667,42.4786],[2.0755,42.455],[2.1934,42.4402],[2.4483,42.4302],[2.9,42.46],[3.2,42.43],[3.35,42.43]]}},
{"type":"Feature","properties":{"id":"aquitaine-francia","nations":"aquitaine | francia","follows":"the Ariège, the Garonne and the Gironde"},"geometry":{"type":"LineString","coordinates":[[1.6875,42.5875],[1.809,42.627],[1.833,42.67],[1.8369,42.6884],[1.8302,42.715],[1.7874,42.7522],[1.6628,42.7895],[1.6183,42.832],[1.6034,42.8553],[1.5967,42.8808],[1.6293,42.9129],[1.5922,42.9914],[1.6194,43.0532],[1.6168,43.0714],[1.5967,43.1136],[1.5893,43.1545],[1.5988,43.1934],[1.584,43.2379],[1.5336,43.3135],[1.4953,43.3442],[1.4528,43.3941],[1.4403,43.43],[1.4096,43.4768],[1.4014,43.4999],[1.4043,43.5176],[1.4337,43.555],[1.4086,43.6246],[1.3125,43.7478],[1.2987,43.7814],[1.2717,43.8019],[1.22,43.8807],[1.179,43.9291],[1.179,43.9453],[1.1484,43.9886],[1.1045,44.0065],[1.0554,44.0725],[1.0364,44.0811],[0.9717,44.0904],[0.9252,44.0766],[0.8889,44.0812],[0.8188,44.1074],[0.7742,44.1393],[0.7039,44.1622],[0.6435,44.1643],[0.6172,44.1756],[0.5712,44.2264],[0.4181,44.2507],[0.3601,44.2515],[0.3332,44.26],[0.3218,44.2817],[0.3249,44.3242],[0.2932,44.381],[0.2914,44.4031],[0.2529,44.422],[0.2228,44.4254],[0.2009,44.4454],[0.1369,44.4841],[0.1172,44.5052],[0.0959,44.5045],[0.0725,44.536],[0.0316,44.5354],[0.0206,44.557],[-0.0276,44.566],[-0.0413,44.5865],[-0.2295,44.5681],[-0.2604,44.5734],[-0.2843,44.588],[-0.3839,44.6998],[-0.4338,44.7174],[-0.5003,44.7584],[-0.52,44.7783],[-0.535,44.8237],[-0.5757,44.8472],[-0.5735,44.861],[-0.5497,44.882],[-0.5417,44.898],[-0.55,44.92],[-0.7194,45.1944],[-0.8,45.3],[-0.8871,45.3837],[-1.0722,45.5273],[-1.3,45.72]]}},
{"type":"Feature","properties":{"id":"brittany-francia","nations":"brittany | francia","follows":"the marches of Brittany, then the Loire to the sea"},"geometry":{"type":"LineString","coordinates":[[-1.08,48.45],[-1.0453,48.1321],[-1.05,48.0],[-1.0727,47.9158],[-1.1834,47.6722],[-1.2,47.6],[-1.1948,47.5296],[-1.15,47.38],[-1.2232,47.3511],[-1.3042,47.3409],[-1.4605,47.2533],[-1.5005,47.2182],[-1.5319,47.2188],[-1.5883,47.1997],[-1.68,47.2],[-1.9418,47.2674],[-2.05,47.28],[-2.1423,47.2712],[-2.35,47.22]]}},
{"type":"Feature","properties":{"id":"brittany-normandy","nations":"brittany | normandy","follows":"the Couesnon"},"geometry":{"type":"LineString","coordinates":[[-1.55,48.68],[-1.4899,48.5613],[-1.4654,48.5323],[-1.4238,48.5056],[-1.3213,48.4788],[-1.08,48.45]]}},
{"type":"Feature","properties":{"id":"normandy-francia","nations":"normandy | francia","follows":"the Perche hills, the Epte and the Bresle"},"geometry":{"type":"LineString","coordinates":[[-1.08,48.45],[-0.7,48.47],[-0.0625,48.4424],[0.1,48.45],[0.3308,48.4791],[0.5591,48.5245],[0.7794,48.5918],[0.9923,48.6895],[1.2033,48.8192],[1.4496,49.0061],[1.6549,49.1953],[1.7029,49.2543],[1.7381,49.3168],[1.75,49.35],[1.7621,49.4202],[1.7613,49.4957],[1.7494,49.573],[1.715,49.6853],[1.6794,49.7571],[1.5881,49.8673],[1.4,50.05],[1.33,50.14]]}},
{"type":"Feature","properties":{"id":"francia-low-countries","nations":"francia | low_countries","follows":"the Artois ridge and the southern Ardennes"},"geometry":{"type":"LineString","coordinates":[[2.05,51.07],[2.2114,50.8711],[2.2675,50.8216],[2.3473,50.7764],[2.4562,50.742],[2.8374,50.6686],[2.9688,50.6258],[3.1804,50.5411],[3.4634,50.4135],[3.6622,50.3203],[4.0797,50.1042],[4.2596,50.0263],[5.2511,49.6956],[5.75,49.55]]}},
{"type":"Feature","properties":{"id":"luxembourg-low-countries","nations":"luxembourg | low_countries","follows":"the Oesling"},"geometry":{"type":"LineString","coordinates":[[5.75,49.55],[5.8305,49.7227],[5.85,49.8],[5.8447,49.8617],[5.7943,50.0273],[5.7915,50.08],[5.8,50.1],[5.8158,50.1151],[5.8643,50.1334],[6.1,50.15]]}},
{"type":"Feature","properties":{"id":"luxembourg-francia","nations":"luxembourg | francia","follows":"the Minette escarpment"},"geometry":{"type":"LineString","coordinates":[[5.75,49.55],[5.9207,49.4804],[6.0,49.46],[6.105,49.4538],[6.37,49.47]]}},
{"type":"Feature","properties":{"id":"luxembourg-rhenia","nations":"luxembourg | rhenia","follows":"the Our, the Sauer and the Moselle"},"geometry":{"type":"LineString","coordinates":[[6.1,50.15],[6.1242,50.005],[6.1391,49.9673],[6.167,49.9309],[6.2396,49.8811],[6.4876,49.7567],[6.5157,49.7311],[6.5202,49.7015],[6.5027,49.6568],[6.37,49.47]]}},
{"type":"Feature","properties":{"id":"rhenia-low-countries","nations":"rhenia | low_countries","follows":"the High Fens, the Meuse terraces, the Rhine gate and the Bourtanger Moor to the Dollart"},"geometry":{"type":"LineString","coordinates":[[6.1,50.15],[6.3083,50.3203],[6.3434,50.3724],[6.35,50.4],[6.347,50.4319],[6.3129,50.4996],[6.124,50.7151],[6.0012,50.897],[5.9698,50.9561],[5.952,51.0178],[5.95,51.05],[5.957,51.0916],[5.9746,51.1349],[6.0316,51.2252],[6.164,51.4105],[6.1866,51.4558],[6.2,51.5],[6.1981,51.5741],[6.141,51.7583],[6.1388,51.822],[6.15,51.85],[6.1804,51.881],[6.2259,51.9044],[6.3491,51.9364],[6.5675,51.9756],[6.6984,52.0181],[6.75,52.05],[6.8296,52.1307],[6.9257,52.2812],[7.0704,52.5956],[7.143,52.7827],[7.1926,52.96],[7.2161,53.1307],[7.2071,53.2264],[7.1736,53.3022],[7.1353,53.3525],[7.0,53.5]]}},
{"type":"Feature","properties":{"id":"rhenia-francia","nations":"rhenia | francia","follows":"the Saar and the Lauter, then the Rhine"},"geometry":{"type":"LineString","coordinates":[[6.37,49.47],[6.6625,49.2652],[6.7523,49.2183],[6.8546,49.185],[6.9709,49.1684],[7.2798,49.1601],[7.4571,49.1414],[7.8544,49.0624],[8.2,48.97],[8.1997,48.9589],[8.1787,48.9429],[8.1475,48.904],[8.0897,48.8078],[8.036,48.7885],[8.0224,48.7653],[7.9696,48.7575],[7.9631,48.7296],[7.948,48.7122],[7.88,48.6679],[7.8635,48.6644],[7.8097,48.6153],[7.8013,48.5826],[7.8012,48.5478],[7.8129,48.5266],[7.7708,48.4893],[7.7688,48.4703],[7.7502,48.4446],[7.7378,48.4068],[7.7502,48.3416],[7.7363,48.3269],[7.7019,48.3115],[7.6865,48.2532],[7.6128,48.1795],[7.5991,48.145],[7.5851,48.13],[7.572,48.0952],[7.5752,48.0539],[7.6184,48.0029],[7.6206,47.9717],[7.5845,47.9407],[7.5784,47.9066],[7.5614,47.8874],[7.5614,47.8395],[7.5424,47.8297],[7.5254,47.7834],[7.5377,47.7484],[7.5315,47.7255],[7.5112,47.7076],[7.5141,47.6861],[7.5897,47.6082],[7.5854,47.5842],[7.59,47.585]]}},
{"type":"Feature","properties":{"id":"francia-switzerland","nations":"francia | switzerland","follows":"the Jura crest and Lake Geneva"},"geometry":{"type":"LineString","coordinates":[[7.59,47.585],[7.3082,47.5144],[7.2342,47.4869],[7.1715,47.4526],[7.121,47.4131],[6.95,47.25],[6.5437,46.9742],[6.3738,46.8333],[6.2636,46.7305],[6.1997,46.6598],[6.149,46.5872],[6.1167,46.5162],[6.0863,46.3977],[6.0775,46.2852],[6.0884,46.234],[6.1,46.22],[6.1187,46.2161],[6.175,46.2392],[6.3722,46.3682],[6.45,46.4],[6.5579,46.4179],[6.669,46.4205],[6.7385,46.408],[6.8,46.38],[6.8328,46.3523],[6.8883,46.2726],[7.0422,45.898]]}},
{"type":"Feature","properties":{"id":"francia-italy","nations":"francia | italy","follows":"the Alpine crest, the Po's western rim"},"geometry":{"type":"LineString","coordinates":[[7.0422,45.898],[6.9625,45.8844],[6.9063,45.8562],[6.8656,45.8062],[6.8516,45.7688],[6.85,45.7437],[6.8547,45.7234],[6.8656,45.7094],[6.918,45.6969],[6.9484,45.6688],[6.9859,45.5648],[7.0187,45.5109],[7.0484,45.4867],[7.1,45.4633],[7.1219,45.4391],[7.1312,45.3852],[7.107,45.2992],[7.0789,45.2711],[7.0305,45.2812],[6.9859,45.2719],[6.8953,45.1992],[6.825,45.1641],[6.7703,45.1523],[6.6344,45.1453],[6.5875,45.1336],[6.5672,45.1148],[6.5641,45.0789],[6.5781,45.0437],[6.6063,45.0156],[6.6484,45.0016],[6.7008,44.9977],[6.7266,44.9859],[6.7477,44.9508],[6.7539,44.8992],[6.7734,44.8734],[6.832,44.8523],[6.9414,44.843],[6.9766,44.8266],[6.9961,44.8008],[7.0,44.7656],[6.9859,44.7094],[6.9508,44.6531],[6.8852,44.5758],[6.857,44.5102],[6.85,44.4625],[6.8523,44.4156],[6.8734,44.3687],[6.8992,44.3531],[6.9742,44.3406],[7.0172,44.3187],[7.1648,44.1945],[7.2203,44.1609],[7.2789,44.1367],[7.368,44.1172],[7.4266,44.1125],[7.4461,44.1172],[7.4539,44.1336],[7.4734,44.1422],[7.5994,44.1503],[7.55,43.95],[7.52,43.72]]}},
{"type":"Feature","properties":{"id":"switzerland-italy","nations":"switzerland | italy","follows":"the Alpine crest, the Po's northern rim"},"geometry":{"type":"LineString","coordinates":[[7.0422,45.898],[7.2219,45.9078],[7.2453,45.9164],[7.2547,45.9336],[7.2641,45.9383],[7.2969,45.9453],[7.5219,45.9578],[7.5453,45.9664],[7.5547,45.9828],[7.5781,45.9875],[7.7797,45.9664],[7.8359,45.9758],[7.85,45.9937],[7.857,46.0266],[7.8734,46.0406],[7.9508,46.0523],[7.9859,46.0734],[7.9977,46.0992],[8.0094,46.1766],[8.0328,46.1977],[8.0844,46.2094],[8.0953,46.2234],[8.1055,46.2695],[8.1328,46.2984],[8.182,46.3305],[8.3352,46.4031],[8.3953,46.4406],[8.4336,46.4781],[8.4445,46.4969],[8.45,46.5344],[8.4586,46.5508],[8.5016,46.5766],[8.5359,46.5859],[8.6906,46.6],[8.8734,46.5953],[8.9859,46.5766],[9.0219,46.5562],[9.0477,46.5258],[9.0766,46.5172],[9.1148,46.518],[9.2031,46.5359],[9.2406,46.5359],[9.2531,46.5164],[9.2688,46.5078],[9.4188,46.4906],[9.4469,46.4672],[9.4547,46.4344],[9.4781,46.425],[9.5484,46.4344],[9.6516,46.4648],[9.7219,46.4672],[9.7453,46.4492],[9.7547,46.3852],[9.7656,46.3641],[9.7828,46.3523],[9.8063,46.35],[9.8484,46.3641],[9.8805,46.3852],[10.0679,46.5404],[10.1816,46.6201],[10.4917,46.7847]]}},
{"type":"Feature","properties":{"id":"switzerland-rhenia","nations":"switzerland | rhenia","follows":"the High Rhine and Lake Constance"},"geometry":{"type":"LineString","coordinates":[[7.59,47.585],[7.5854,47.5842],[7.5885,47.5676],[7.6829,47.5445],[7.7661,47.5562],[7.7849,47.5634],[7.8191,47.5955],[7.8976,47.5881],[7.9116,47.5608],[8.0417,47.5608],[8.0867,47.5676],[8.1133,47.5881],[8.1616,47.604],[8.1732,47.6138],[8.2505,47.6223],[8.2934,47.6117],[8.3157,47.5881],[8.3535,47.5812],[8.4175,47.5811],[8.4801,47.5881],[8.5051,47.585],[8.5596,47.5608],[8.5944,47.6005],[8.6067,47.6566],[8.6143,47.6427],[8.6248,47.6506],[8.6073,47.6707],[8.6315,47.6905],[8.7765,47.6937],[8.8931,47.6563],[8.9289,47.6596],[9.0281,47.6949],[9.0521,47.6955],[9.1276,47.6707],[9.1829,47.6707],[9.17,47.66],[9.35,47.6],[9.52,47.53]]}},
{"type":"Feature","properties":{"id":"switzerland-austria","nations":"switzerland | austria","follows":"the Alpine Rhine, the Rätikon and the Silvretta"},"geometry":{"type":"LineString","coordinates":[[9.52,47.53],[9.5493,47.5338],[9.5543,47.5112],[9.584,47.481],[9.6211,47.4695],[9.6498,47.4523],[9.6489,47.41],[9.6005,47.3615],[9.5868,47.3281],[9.5527,47.3001],[9.5039,47.244],[9.4868,47.2103],[9.4844,47.1766],[9.5112,47.1297],[9.5119,47.1083],[9.487,47.0842],[9.477,47.0599],[9.4846,47.0432],[9.5,47.05],[9.7819,46.9705],[10.15,46.85],[10.4917,46.7848]]}},
{"type":"Feature","properties":{"id":"rhenia-austria","nations":"rhenia | austria","follows":"Lake Constance"},"geometry":{"type":"LineString","coordinates":[[9.52,47.53],[9.7,47.54]]}},
{"type":"Feature","properties":{"id":"italy-austria","nations":"italy | austria","follows":"the Alpine crest from the Reschen to the Tarvisio, the Danube's southern rim"},"geometry":{"type":"LineString","coordinates":[[10.4917,46.7847],[10.5633,46.7977],[10.7672,46.8078],[10.7945,46.8164],[10.8031,46.8328],[10.8188,46.8375],[10.9352,46.8187],[10.9734,46.8219],[11.0133,46.85],[11.0359,46.9008],[11.0688,46.9359],[11.0984,46.9477],[11.1859,46.9578],[11.1977,46.9664],[11.2047,46.9875],[11.2375,46.9672],[11.2656,46.9625],[11.3313,46.9672],[11.4414,46.9859],[11.4883,46.9859],[11.5,46.9781],[11.507,46.9594],[11.5352,46.9406],[11.5844,46.9219],[11.6312,46.9172],[11.6641,46.9336],[11.6859,46.9672],[11.7063,46.9844],[11.7328,46.9953],[11.8023,47.0016],[11.8516,47.0156],[11.9203,47.0672],[11.9531,47.0844],[12.0141,47.0984],[12.1055,47.0977],[12.1523,47.0883],[12.1781,47.0719],[12.1875,47.0391],[12.1703,46.9805],[12.1812,46.9516],[12.2109,46.9195],[12.318,46.8469],[12.3609,46.8094],[12.3961,46.7531],[12.4047,46.7],[12.4281,46.6781],[12.4984,46.6687],[12.6297,46.6859],[12.6859,46.6859],[12.7,46.6781],[12.7094,46.6617],[12.7313,46.6547],[12.8812,46.6422],[12.8969,46.6336],[12.9047,46.6164],[12.9281,46.6078],[13.1719,46.5922],[13.1953,46.5836],[13.2031,46.5664],[13.2188,46.5578],[13.3352,46.5477],[13.3891,46.5266],[13.4133,46.5008],[13.4406,46.4375],[13.4594,46.4187],[13.4883,46.4328],[13.5422,46.4375],[13.6997,46.4158]]}},
{"type":"Feature","properties":{"id":"italy-slovenia","nations":"italy | slovenia","follows":"the Julian Alps and the lower Isonzo"},"geometry":{"type":"LineString","coordinates":[[13.6997,46.4158],[13.5631,46.3874],[13.525,46.373],[13.5,46.35],[13.4912,46.3108],[13.4977,46.26],[13.5135,46.2038],[13.5561,46.0833],[13.6145,45.966],[13.6387,45.8718],[13.649,45.7895],[13.6492,45.7324],[13.62,45.58]]}},
{"type":"Feature","properties":{"id":"bavaria-rhenia","nations":"bavaria | rhenia","follows":"the Iller, the Ries, the Spessart's edge, the Rhön and the Thuringian and Franconian Forests"},"geometry":{"type":"LineString","coordinates":[[9.7,47.54],[9.9241,47.5987],[10.0084,47.6269],[10.0756,47.6702],[10.1,47.7],[10.1189,47.7481],[10.1246,47.8068],[10.1202,47.8738],[10.0477,48.2606],[10.0437,48.3335],[10.05,48.4],[10.0663,48.4549],[10.0914,48.5079],[10.2583,48.7553],[10.2822,48.8032],[10.2969,48.8514],[10.3,48.9],[10.2912,48.9517],[10.2733,49.0041],[10.2148,49.1096],[10.0898,49.263],[9.95,49.4],[9.8949,49.4417],[9.8288,49.4785],[9.4629,49.6346],[9.4089,49.6688],[9.37,49.7068],[9.35,49.75],[9.3494,49.8028],[9.3655,49.8635],[9.3958,49.9299],[9.4379,49.9994],[9.5475,50.1386],[9.6747,50.2618],[9.7388,50.3115],[9.8,50.35],[9.8597,50.3761],[9.9242,50.3933],[10.0639,50.4074],[10.3593,50.3981],[10.5,50.4],[10.8641,50.4373],[11.0413,50.4492],[11.3803,50.441],[11.5442,50.4218],[11.65,50.4],[11.7962,50.3508],[12.1236,50.1995]]}},
{"type":"Feature","properties":{"id":"bavaria-austria","nations":"bavaria | austria","follows":"the Northern Limestone Alps, the Salzach and the Inn"},"geometry":{"type":"LineString","coordinates":[[9.7,47.54],[9.9766,47.4645],[10.1,47.45],[10.1974,47.4609],[10.5033,47.5443],[10.6,47.55],[10.682,47.532],[10.8747,47.4394],[10.9563,47.4089],[11.0,47.4],[11.1117,47.3925],[11.2314,47.3973],[11.3552,47.4108],[11.6586,47.4614],[12.1192,47.5884],[12.4014,47.6446],[12.4661,47.6496],[12.5398,47.6465],[12.8012,47.5757],[12.8722,47.5713],[12.9,47.58],[12.9336,47.6075],[12.9589,47.6471],[12.9846,47.7207],[13.0,47.8],[12.9963,47.8756],[12.9408,48.0942],[12.9391,48.1695],[12.95,48.2],[12.9699,48.224],[13.032,48.2584],[13.2356,48.3159],[13.3,48.35],[13.3502,48.4097],[13.4299,48.5477],[13.4848,48.6019],[13.616,48.6974],[13.9184,48.8878]]}},
{"type":"Feature","properties":{"id":"bavaria-czechia","nations":"bavaria | czechia","follows":"the Upper Palatine and Bohemian Forests, the Elbe's western rim"},"geometry":{"type":"LineString","coordinates":[[12.1236,50.1995],[12.2031,50.2023],[12.2406,50.2117],[12.2531,50.2344],[12.2687,50.2469],[12.4188,50.3016],[12.4406,50.3211],[12.45,50.3562],[12.4594,50.3672],[12.5063,50.3844],[12.5438,50.3906],[12.7125,50.4],[12.8539,50.3961],[12.9609,50.3766],[13.0336,50.3414],[13.057,50.318],[13.0719,50.2906],[13.0781,50.2594],[13.0805,50.2312],[13.0734,50.1844],[13.0508,50.15],[13.0125,50.1281],[12.9312,50.0984],[12.9031,50.068],[12.8961,50.0336],[12.8766,50.0203],[12.818,50.018],[12.7062,50.0336],[12.6656,50.0297],[12.6375,50.0164],[12.607,49.9734],[12.5891,49.9594],[12.5234,49.9406],[12.5047,49.9031],[12.4977,49.8148],[12.4859,49.7766],[12.4648,49.7477],[12.3992,49.7141],[12.3641,49.6813],[12.35,49.6344],[12.3555,49.5984],[12.3828,49.5687],[12.432,49.5453],[12.5859,49.5141],[12.675,49.4812],[12.7109,49.4516],[12.7406,49.3875],[12.7594,49.3687],[12.8,49.3859],[12.8344,49.3875],[12.9406,49.3719],[12.9938,49.3523],[13.05,49.3055],[13.0867,49.2164],[13.1109,49.1859],[13.1445,49.1711],[13.2578,49.1836],[13.2969,49.1797],[13.3297,49.1664],[13.3563,49.1438],[13.3844,49.1062],[13.3953,49.0812],[13.4,49.0437],[13.4188,49.0234],[13.4938,49.0047],[13.6711,48.9977],[13.7516,48.9859],[13.843,48.9508],[13.9184,48.8878]]}},
{"type":"Feature","properties":{"id":"czechia-rhenia","nations":"czechia | rhenia","follows":"the Ore Mountains and the Lusatian hills"},"geometry":{"type":"LineString","coordinates":[[12.1236,50.1995],[12.4981,50.3618],[12.7315,50.4433],[13.3,50.6],[13.7317,50.6993],[13.9,50.75],[13.9853,50.7899],[14.1776,50.9072],[14.2574,50.9403],[14.3484,50.9545],[14.4494,50.9487],[14.82,50.87]]}},
{"type":"Feature","properties":{"id":"rhenia-poland","nations":"rhenia | poland","follows":"the Neisse and the Oder"},"geometry":{"type":"LineString","coordinates":[[14.82,50.87],[14.9373,51.2434],[14.9515,51.3483],[14.95,51.4],[14.9405,51.4524],[14.8997,51.5603],[14.7558,51.8166],[14.72,51.9],[14.7083,51.9567],[14.6958,52.107],[14.6858,52.1213],[14.7067,52.1798],[14.692,52.1936],[14.7116,52.2158],[14.7119,52.2362],[14.6964,52.2537],[14.6061,52.2761],[14.5836,52.2914],[14.5686,52.3387],[14.5449,52.3824],[14.5393,52.4221],[14.5911,52.4501],[14.6317,52.497],[14.6272,52.5077],[14.6085,52.5181],[14.6164,52.5413],[14.6442,52.5772],[14.5496,52.6364],[14.4896,52.6509],[14.4608,52.6748],[14.4419,52.6802],[14.3817,52.7385],[14.2482,52.7949],[14.2155,52.8183],[14.1522,52.8286],[14.1349,52.8369],[14.1235,52.8509],[14.1499,52.8649],[14.1603,52.877],[14.1645,52.8959],[14.1439,52.954],[14.1924,52.9819],[14.2532,53.0012],[14.3429,53.0489],[14.3891,53.132],[14.3773,53.1768],[14.3801,53.1901],[14.4412,53.2521],[14.4564,53.3013],[14.45,53.3],[14.3277,53.6235],[14.2,54.0]]}},
{"type":"Feature","properties":{"id":"czechia-poland","nations":"czechia | poland","follows":"the Sudetes, the Jeseníky and the Moravian Gate"},"geometry":{"type":"LineString","coordinates":[[14.82,50.87],[14.9395,50.8966],[15.0396,50.8966],[15.129,50.8794],[15.5,50.78],[15.6379,50.7579],[15.9395,50.7224],[16.0806,50.6945],[16.1437,50.6748],[16.238,50.6261],[16.302,50.5665],[16.4365,50.4],[16.5,50.35],[16.5733,50.3151],[16.6523,50.2887],[16.7347,50.2698],[16.9,50.25],[16.9792,50.2538],[17.218,50.3009],[17.3,50.3],[17.3969,50.2768],[17.8,50.1],[17.9084,50.0691],[18.1869,50.0056],[18.35,49.95],[18.514,49.8613],[18.8853,49.6084]]}},
{"type":"Feature","properties":{"id":"czechia-austria","nations":"czechia | austria","follows":"the Šumava and the Novohradské hills, then the Thaya"},"geometry":{"type":"LineString","coordinates":[[13.9184,48.8878],[13.9781,48.857],[14.0508,48.8477],[14.0766,48.8359],[14.0977,48.8008],[14.1016,48.7492],[14.1156,48.7141],[14.1328,48.7023],[14.1906,48.6922],[14.2,48.6719],[14.2211,48.6594],[14.3055,48.6406],[14.5797,48.6031],[14.643,48.5844],[14.6594,48.5625],[14.718,48.582],[14.7391,48.5828],[14.7648,48.5664],[14.7977,48.5234],[14.8266,48.5094],[14.8648,48.5016],[14.9344,48.5023],[14.9813,48.5234],[14.9969,48.5492],[15.0094,48.6172],[15.0475,48.655],[14.95,48.85],[15.1916,48.9331],[15.3,48.95],[15.3862,48.9444],[15.4757,48.9262],[16.0239,48.7779],[16.1572,48.7532],[16.2367,48.7507],[16.3079,48.762],[16.446,48.7959],[16.515,48.8026],[16.55,48.8],[16.6667,48.7641],[16.94,48.62]]}},
{"type":"Feature","properties":{"id":"czechia-slovakia","nations":"czechia | slovakia","follows":"the White Carpathians and the Javorníky"},"geometry":{"type":"LineString","coordinates":[[16.94,48.62],[17.1425,48.8072],[17.2353,48.8725],[17.3104,48.9141],[17.6,49.05],[17.9516,49.2303],[18.1,49.3],[18.5,49.45],[18.8853,49.6084]]}},
{"type":"Feature","properties":{"id":"poland-slovakia","nations":"poland | slovakia","follows":"the Carpathian crest, the Vistula's southern rim"},"geometry":{"type":"LineString","coordinates":[[18.8853,49.6084],[18.95,49.5969],[18.9719,49.5812],[18.9813,49.5344],[18.9711,49.4469],[18.9859,49.4187],[19.0164,49.4031],[19.0625,49.4],[19.0852,49.3914],[19.1234,49.3484],[19.1391,49.3141],[19.1633,49.2195],[19.1859,49.0312],[19.2063,48.9406],[19.2328,48.8875],[19.2484,48.875],[19.2656,48.8719],[19.3359,48.9031],[19.3555,48.9336],[19.4047,48.9453],[19.5031,48.95],[19.6453,48.9453],[19.6945,48.9336],[19.7078,48.9125],[19.7383,48.9336],[19.7703,48.9422],[19.9188,48.95],[19.9797,48.9617],[20.0219,48.9891],[20.0359,49.0086],[20.05,49.0594],[20.057,49.1414],[20.0734,49.1766],[20.0992,49.1961],[20.1859,49.2078],[20.2094,49.2375],[20.2563,49.2219],[20.2844,49.1984],[20.2984,49.168],[20.3031,49.132],[20.3313,49.1016],[20.4125,49.0719],[20.4578,49.0664],[20.4969,49.0703],[20.5297,49.0836],[20.5695,49.1172],[20.6141,49.1406],[20.7016,49.1516],[20.7437,49.1656],[20.7641,49.1828],[20.7953,49.2266],[20.8188,49.2406],[20.9008,49.2523],[20.9266,49.2641],[20.943,49.2852],[20.9563,49.3523],[20.9688,49.3695],[21.0125,49.4016],[21.125,49.4437],[21.3125,49.4828],[21.3438,49.482],[21.3594,49.4656],[21.4438,49.4469],[21.8094,49.4094],[21.9219,49.3906],[21.95,49.3781],[21.9547,49.3617],[21.9656,49.3547],[22.0172,49.3484],[22.0344,49.3406],[22.0453,49.3266],[22.0555,49.282],[22.0828,49.2609],[22.132,49.243],[22.2859,49.2148],[22.375,49.1891],[22.4109,49.168],[22.4352,49.1336],[22.4609,49.1172],[22.482,49.118],[22.5406,49.1375],[22.5664,49.1094]]}},
{"type":"Feature","properties":{"id":"austria-slovakia","nations":"austria | slovakia","follows":"the Morava"},"geometry":{"type":"LineString","coordinates":[[16.94,48.62],[16.947,48.6234],[16.9446,48.6044],[16.9539,48.5576],[16.9464,48.5401],[16.906,48.5102],[16.9006,48.4968],[16.8644,48.4583],[16.844,48.3658],[16.8549,48.3568],[16.8913,48.3472],[16.9115,48.3015],[16.9237,48.2878],[16.9502,48.2768],[16.9741,48.1988],[16.97,48.17],[17.1461,48.108]]}},
{"type":"Feature","properties":{"id":"austria-hungary","nations":"austria | hungary","follows":"Lake Neusiedl and the Alpine foothills"},"geometry":{"type":"LineString","coordinates":[[17.1461,48.108],[17.084,47.9954],[17.05,47.95],[17.0153,47.9185],[16.8684,47.8169],[16.817,47.7639],[16.5495,47.3941],[16.514,47.3314],[16.4909,47.2702],[16.479,47.078],[16.4644,47.0231],[16.45,47.0],[16.4286,46.9788],[16.3721,46.9462],[16.12,46.87]]}},
{"type":"Feature","properties":{"id":"austria-slovenia","nations":"austria | slovenia","follows":"the Karawanks and the Mur"},"geometry":{"type":"LineString","coordinates":[[13.6997,46.4158],[13.9766,46.4606],[14.1,46.47],[14.1976,46.4634],[14.4537,46.4202],[14.5528,46.4154],[14.6,46.42],[14.6423,46.4297],[14.7227,46.462],[14.8773,46.5486],[14.9577,46.5862],[15.0471,46.6111],[15.1959,46.6315],[15.5,46.65],[15.7895,46.6505],[15.8767,46.658],[15.95,46.68],[15.9932,46.7088],[16.0284,46.7457],[16.12,46.87]]}},
{"type":"Feature","properties":{"id":"slovenia-hungary","nations":"slovenia | hungary","follows":"the Goričko hills"},"geometry":{"type":"LineString","coordinates":[[16.12,46.87],[16.35,46.72],[16.4257,46.6536],[16.6,46.48]]}},
{"type":"Feature","properties":{"id":"hungary-slovakia","nations":"hungary | slovakia","follows":"the Danube, then the Ipeľ and the Slovak Karst"},"geometry":{"type":"LineString","coordinates":[[17.1461,48.108],[17.1579,48.0857],[17.1802,48.0698],[17.2429,48.0413],[17.2565,48.0281],[17.2617,48.0093],[17.3374,47.999],[17.369,47.9815],[17.4714,47.8891],[17.5168,47.8765],[17.572,47.8298],[17.6186,47.8295],[17.6579,47.8076],[17.676,47.7894],[17.7415,47.7656],[17.8252,47.7503],[18.1122,47.7627],[18.2354,47.7542],[18.2725,47.7565],[18.3473,47.777],[18.552,47.7932],[18.5969,47.7909],[18.6631,47.7762],[18.6924,47.7782],[18.7167,47.7883],[18.7671,47.8226],[18.8822,47.8259],[18.9,47.82],[19.1716,47.9908],[19.3,48.05],[19.411,48.0777],[19.78,48.1187],[19.9,48.15],[20.0212,48.2095],[20.255,48.3731],[20.3745,48.4483],[20.4363,48.478],[20.5666,48.5148],[20.7067,48.5299],[20.9242,48.526],[21.2537,48.4933],[21.6028,48.4149],[21.7,48.4],[21.8364,48.3933],[22.15,48.4]]}},
{"type":"Feature","properties":{"id":"slovakia-ukraine","nations":"slovakia | ukraine","follows":"the Uzh and the Carpathian foothills"},"geometry":{"type":"LineString","coordinates":[[22.15,48.4],[22.4359,48.8758],[22.5664,49.1094]]}},
{"type":"Feature","properties":{"id":"hungary-ukraine","nations":"hungary | ukraine","follows":"the Tisza"},"geometry":{"type":"LineString","coordinates":[[22.9,47.95],[22.9019,48.0816],[22.8601,48.0944],[22.8403,48.089],[22.8014,48.1157],[22.7798,48.1215],[22.7648,48.1082],[22.7451,48.1165],[22.6926,48.102],[22.6206,48.102],[22.5791,48.0952],[22.5527,48.0699],[22.4885,48.0621],[22.4201,48.0744],[22.3948,48.089],[22.3787,48.1064],[22.3396,48.1225],[22.3237,48.1445],[22.3259,48.1634],[22.2891,48.1818],[22.2769,48.1999],[22.2838,48.2247],[22.2778,48.2449],[22.2433,48.2665],[22.2559,48.2888],[22.2565,48.3735],[22.2712,48.4037],[22.2357,48.4155],[22.2014,48.4184],[22.1687,48.4098],[22.1372,48.3869],[22.15,48.4]]}},
{"type":"Feature","properties":{"id":"slovenia-croatia","nations":"slovenia | croatia","follows":"the Dragonja, the Snežnik, the Kupa and the Sotla"},"geometry":{"type":"LineString","coordinates":[[13.55,45.49],[13.8255,45.4618],[13.95,45.46],[14.055,45.472],[14.3903,45.5406],[14.5515,45.549],[14.7077,45.5312],[15.0333,45.4749],[15.1873,45.4408],[15.2445,45.4377],[15.3,45.45],[15.3682,45.4914],[15.4352,45.5556],[15.4981,45.6341],[15.5784,45.76],[15.6157,45.8383],[15.6259,45.8793],[15.6436,46.0532],[15.6607,46.1335],[15.6768,46.1689],[15.7,46.2],[15.7396,46.2322],[15.8479,46.2809],[15.9801,46.3145],[16.246,46.3654],[16.6,46.48]]}},
{"type":"Feature","properties":{"id":"hungary-croatia","nations":"hungary | croatia","follows":"the Drava"},"geometry":{"type":"LineString","coordinates":[[16.6,46.48],[16.8648,46.2728],[17.0041,46.1871],[17.1809,46.09],[17.4359,45.9738],[17.635,45.9055],[17.7747,45.866],[17.9169,45.8337],[18.0594,45.811],[18.2674,45.8002],[18.4688,45.8225],[18.87,45.9]]}},
{"type":"Feature","properties":{"id":"croatia-serbia","nations":"croatia | serbia","follows":"the Danube, then the Fruška Gora"},"geometry":{"type":"LineString","coordinates":[[18.87,45.9],[18.852,45.8682],[18.8481,45.8098],[18.8997,45.7652],[18.9084,45.7197],[18.9167,45.7069],[18.9621,45.6833],[18.968,45.669],[18.9238,45.628],[18.9077,45.6007],[18.9115,45.5684],[18.9315,45.5458],[18.9596,45.5394],[19.0176,45.5676],[19.0505,45.5393],[19.0945,45.5263],[19.0766,45.4919],[19.009,45.4989],[18.9958,45.4741],[19.0024,45.4556],[19.031,45.4342],[19.0368,45.4226],[19.0281,45.4124],[18.9753,45.3952],[18.9883,45.3795],[19.0205,45.3575],[19.0913,45.3503],[19.0957,45.3294],[19.1243,45.2984],[19.1615,45.2853],[19.3627,45.2485],[19.4067,45.249],[19.4,45.2],[19.2535,45.0978],[19.1869,45.0348],[19.0969,44.8859]]}},
{"type":"Feature","properties":{"id":"croatia-bosnia","nations":"croatia | bosnia","follows":"the Sava and the Una, then the Dinaric watershed to the coastal ranges"},"geometry":{"type":"LineString","coordinates":[[19.0969,44.8859],[19.0044,44.8636],[18.8892,44.8614],[18.8582,44.8688],[18.8171,44.8878],[18.7829,44.914],[18.7721,44.9427],[18.801,44.9642],[18.7844,45.0088],[18.7378,45.0161],[18.6708,45.0871],[18.6575,45.0666],[18.64,45.0656],[18.6161,45.098],[18.5344,45.0907],[18.5405,45.0555],[18.5165,45.0561],[18.4655,45.0743],[18.4115,45.1127],[18.3218,45.1231],[18.2373,45.1577],[18.2128,45.1541],[18.1919,45.1088],[18.1531,45.0978],[18.0897,45.1082],[18.0344,45.1436],[18.0029,45.1496],[17.9879,45.1441],[17.9106,45.0814],[17.8352,45.0648],[17.797,45.0822],[17.7409,45.1335],[17.6843,45.1643],[17.651,45.1656],[17.6294,45.1576],[17.5925,45.1298],[17.5608,45.1196],[17.4865,45.1211],[17.4958,45.142],[17.4717,45.133],[17.4575,45.1464],[17.4336,45.1488],[17.382,45.1398],[17.2686,45.1898],[17.2449,45.1556],[17.1865,45.1488],[17.0978,45.1779],[17.0552,45.2007],[17.0358,45.2307],[17.0121,45.2247],[17.0115,45.2367],[16.998,45.2316],[16.9607,45.2512],[16.9674,45.2376],[16.9409,45.2415],[16.9402,45.2581],[16.95,45.27],[16.5578,45.1644],[16.451,45.1244],[16.3499,45.072],[16.2001,44.9702],[16.0212,44.8192],[15.8477,44.6528],[15.8178,44.6144],[15.8015,44.5727],[15.8,44.55],[15.8086,44.5111],[15.8299,44.468],[15.9019,44.3737],[16.0517,44.2273],[16.238,44.0694],[16.3546,43.9909],[17.0036,43.612],[17.1863,43.4907],[17.3539,43.3682],[17.5,43.25],[17.7,43.05],[17.8093,42.9747],[18.0607,42.8254],[18.3316,42.642],[18.45,42.55],[18.52,42.47]]}},
{"type":"Feature","properties":{"id":"croatia-montenegro","nations":"croatia | montenegro","follows":"the Prevlaka"},"geometry":{"type":"LineString","coordinates":[[18.52,42.47],[18.52,42.38]]}},
{"type":"Feature","properties":{"id":"bosnia-serbia","nations":"bosnia | serbia","follows":"the Sava, then the Drina"},"geometry":{"type":"LineString","coordinates":[[19.0969,44.8859],[19.084,44.8792],[19.1737,44.9257],[19.1925,44.9218],[19.2013,44.9086],[19.2389,44.9154],[19.2833,44.9086],[19.3007,44.9126],[19.3396,44.8965],[19.3589,44.9011],[19.3751,44.8734],[19.3726,44.8605],[19.3633,44.8549],[19.3279,44.7342],[19.3175,44.7157],[19.2771,44.6851],[19.2551,44.6459],[19.1877,44.5764],[19.1868,44.5535],[19.1726,44.5318],[19.1294,44.5186],[19.1267,44.5028],[19.1428,44.4584],[19.1408,44.4311],[19.1152,44.4038],[19.1067,44.3829],[19.1162,44.3439],[19.1383,44.3095],[19.1565,44.2938],[19.2489,44.271],[19.307,44.2745],[19.3239,44.2642],[19.3534,44.2246],[19.3618,44.1915],[19.4479,44.1447],[19.4652,44.1531],[19.4822,44.1209],[19.5215,44.0853],[19.5894,44.0606],[19.5984,44.0628],[19.6108,44.0548],[19.6184,44.036],[19.6098,44.0195],[19.5928,44.0058],[19.5281,43.9775],[19.4465,43.98],[19.3786,43.9742],[19.3511,43.9794],[19.3,44.0098],[19.2722,44.0126],[19.2516,44.0078],[19.2375,43.9928],[19.2401,43.966],[19.2141,43.9529],[19.2024,43.9337],[19.2147,43.9149],[19.2145,43.8625],[19.2248,43.8469],[19.2711,43.8102],[19.2812,43.7939],[19.283,43.7786],[19.2753,43.7667],[19.2563,43.7603],[19.3,43.62],[19.25,43.5]]}},
{"type":"Feature","properties":{"id":"bosnia-montenegro","nations":"bosnia | montenegro","follows":"the Piva and the Orjen"},"geometry":{"type":"LineString","coordinates":[[19.25,43.5],[19.0056,43.3069],[18.95,43.25],[18.8937,43.1784],[18.816,43.0584],[18.6798,42.8121],[18.52,42.47]]}},
{"type":"Feature","properties":{"id":"serbia-montenegro","nations":"serbia | montenegro","follows":"the Lim and the Sandžak hills"},"geometry":{"type":"LineString","coordinates":[[19.25,43.5],[19.4863,43.2366],[19.5602,43.1748],[19.6,43.15],[19.6848,43.1172],[19.9658,43.0748],[20.05,43.05],[20.1468,42.9977],[20.35,42.85]]}},
{"type":"Feature","properties":{"id":"montenegro-kosovo","nations":"montenegro | kosovo","follows":"the Mokra Gora"},"geometry":{"type":"LineString","coordinates":[[20.35,42.85],[20.1227,42.6669],[19.95,42.55]]}},
{"type":"Feature","properties":{"id":"montenegro-albania","nations":"montenegro | albania","follows":"the Prokletije, Lake Skadar and the Bojana"},"geometry":{"type":"LineString","coordinates":[[19.95,42.55],[19.7928,42.4743],[19.5992,42.3635],[19.4818,42.2855],[19.4211,42.2291],[19.4,42.2],[19.3813,42.1519],[19.37,41.95],[19.33,41.82]]}},
{"type":"Feature","properties":{"id":"kosovo-serbia","nations":"kosovo | serbia","follows":"the Kopaonik and the Goljak"},"geometry":{"type":"LineString","coordinates":[[20.35,42.85],[20.4386,42.9301],[20.6136,43.1057],[20.7043,43.1706],[20.7514,43.1907],[20.8,43.2],[20.8572,43.1974],[20.9186,43.1834],[20.9829,43.1596],[21.1147,43.0888],[21.2418,42.9976],[21.3534,42.8985],[21.4371,42.8037],[21.4691,42.7538],[21.5215,42.6455],[21.65,42.3]]}},
{"type":"Feature","properties":{"id":"kosovo-albania","nations":"kosovo | albania","follows":"the White Drin and the Koritnik"},"geometry":{"type":"LineString","coordinates":[[19.95,42.55],[20.2388,42.3781],[20.35,42.3],[20.4316,42.2273],[20.6,42.05]]}},
{"type":"Feature","properties":{"id":"kosovo-macedonia","nations":"kosovo | macedonia","follows":"the Šar"},"geometry":{"type":"LineString","coordinates":[[20.6,42.05],[20.9477,42.1589],[21.1,42.2],[21.2626,42.2341],[21.65,42.3]]}},
{"type":"Feature","properties":{"id":"serbia-macedonia","nations":"serbia | macedonia","follows":"the Preševo valley's southern hills"},"geometry":{"type":"LineString","coordinates":[[21.65,42.3],[22.0,42.3],[22.35,42.32]]}},
{"type":"Feature","properties":{"id":"serbia-bulgaria","nations":"serbia | bulgaria","follows":"the Vlasina, the Stara Planina and the Timok"},"geometry":{"type":"LineString","coordinates":[[22.35,42.32],[22.5594,42.7856],[22.6489,43.0538],[22.689,43.2064],[22.7036,43.3531],[22.6898,43.4426],[22.6489,43.5243],[22.541,43.6807],[22.5059,43.7595],[22.5,43.8],[22.5028,43.8421],[22.5276,43.9273],[22.6901,44.2292]]}},
{"type":"Feature","properties":{"id":"serbia-romania","nations":"serbia | romania","follows":"the Danube through the Iron Gates, then the Banat"},"geometry":{"type":"LineString","coordinates":[[22.6901,44.2292],[22.6811,44.3055],[22.5823,44.3287],[22.5487,44.3492],[22.5222,44.3753],[22.5046,44.4043],[22.5005,44.4422],[22.4765,44.4642],[22.4766,44.4772],[22.4835,44.5],[22.5479,44.512],[22.5562,44.5217],[22.5651,44.5557],[22.5798,44.5657],[22.6206,44.5694],[22.6995,44.5421],[22.7411,44.5521],[22.7588,44.5649],[22.7648,44.5831],[22.6995,44.6309],[22.6206,44.6377],[22.5869,44.6496],[22.4832,44.7242],[22.4255,44.7339],[22.38,44.7008],[22.3044,44.6776],[22.2985,44.6619],[22.1846,44.5154],[22.1716,44.5056],[22.1477,44.5012],[22.1038,44.5099],[22.0864,44.522],[22.0757,44.551],[22.0393,44.5771],[22.0316,44.6036],[21.9938,44.6588],[21.9618,44.6625],[21.855,44.6987],[21.7563,44.6775],[21.7046,44.6773],[21.6557,44.6879],[21.6191,44.7142],[21.595,44.7662],[21.5775,44.7779],[21.4966,44.7783],[21.4116,44.7851],[21.3953,44.7905],[21.4,44.78],[21.386,44.8223],[21.3735,44.8651],[21.3387,44.9944],[21.3111,45.0791],[21.2739,45.1608],[21.2167,45.2439],[21.0881,45.3675],[20.8,45.6],[20.45,45.95],[20.26,46.12]]}},
{"type":"Feature","properties":{"id":"serbia-hungary","nations":"serbia | hungary","follows":"the Bačka loess"},"geometry":{"type":"LineString","coordinates":[[20.26,46.12],[19.9755,46.1688],[19.9,46.17],[19.8052,46.1589],[19.6556,46.1237],[18.87,45.9]]}},
{"type":"Feature","properties":{"id":"hungary-romania","nations":"hungary | romania","follows":"the edge of the Great Plain below the Apuseni"},"geometry":{"type":"LineString","coordinates":[[20.26,46.12],[20.4349,46.1788],[20.7071,46.2569],[20.8799,46.318],[20.9598,46.3552],[21.0336,46.3988],[21.1,46.45],[21.1559,46.5088],[21.2037,46.5763],[21.2452,46.6505],[21.4166,47.0567],[21.4556,47.1316],[21.5,47.2],[21.6381,47.372],[21.7371,47.4791],[21.893,47.6213],[22.0,47.7],[22.0968,47.7565],[22.1977,47.8032],[22.3001,47.8416],[22.4514,47.8872],[22.6222,47.9234],[22.9,47.95]]}},
{"type":"Feature","properties":{"id":"romania-bulgaria","nations":"romania | bulgaria","follows":"the Danube, then the Dobruja plateau"},"geometry":{"type":"LineString","coordinates":[[22.6901,44.2292],[22.9059,44.1231],[23.0305,44.0933],[23.0396,44.0626],[23.0225,44.0319],[22.9875,44.0179],[22.9053,44.0042],[22.8854,43.9947],[22.8742,43.9723],[22.85,43.8972],[22.8505,43.8746],[22.8629,43.8557],[22.8882,43.8398],[22.9191,43.8345],[23.1313,43.8482],[23.2339,43.8775],[23.3246,43.8868],[23.4841,43.8808],[23.592,43.8377],[23.6355,43.8324],[23.7202,43.8461],[23.7422,43.843],[23.7995,43.8187],[24.1588,43.7532],[24.3577,43.7603],[24.4306,43.7944],[24.4657,43.8027],[24.4997,43.7998],[24.7051,43.744],[24.7521,43.7391],[24.9631,43.7499],[25.0811,43.7192],[25.2519,43.7049],[25.359,43.6545],[25.4026,43.6503],[25.4669,43.668],[25.5561,43.6707],[25.616,43.688],[25.6709,43.7176],[25.739,43.7192],[25.7805,43.7322],[25.8388,43.7886],[25.8688,43.8011],[25.916,43.8446],[25.9335,43.8706],[26.0537,43.9346],[26.0789,43.9693],[26.1157,43.9991],[26.1501,44.0127],[26.2309,44.0278],[26.31,44.0529],[26.6137,44.0852],[26.6968,44.1063],[26.7532,44.1083],[26.789,44.1162],[26.8835,44.1568],[27.0011,44.1654],[27.027,44.1773],[27.0996,44.1447],[27.205,44.1295],[27.2262,44.1209],[27.2666,44.1378],[27.28,44.12],[27.7,43.95],[27.9021,43.8385],[28.0,43.8],[28.1681,43.7698],[28.62,43.74]]}},
{"type":"Feature","properties":{"id":"bulgaria-macedonia","nations":"bulgaria | macedonia","follows":"the Osogovo and the Maleševo"},"geometry":{"type":"LineString","coordinates":[[22.35,42.32],[22.6868,42.0687],[22.767,41.9912],[22.8246,41.9126],[22.8665,41.8319],[22.8996,41.7474],[22.9431,41.5856],[22.9564,41.4827],[22.95,41.34]]}},
{"type":"Feature","properties":{"id":"macedonia-greece","nations":"macedonia | greece","follows":"the Belasica, the Kožuf and the Nidže"},"geometry":{"type":"LineString","coordinates":[[22.95,41.34],[22.3,41.15],[21.7973,40.9612],[21.6,40.9],[21.4699,40.8749],[21.3101,40.8573],[21.1463,40.8478],[20.95,40.85]]}},
{"type":"Feature","properties":{"id":"macedonia-albania","nations":"macedonia | albania","follows":"the Korab and Lake Ohrid"},"geometry":{"type":"LineString","coordinates":[[20.6,42.05],[20.5228,41.8423],[20.4948,41.7162],[20.4807,41.5378],[20.4858,41.4671],[20.5,41.4],[20.5435,41.3044],[20.6298,41.1847],[20.7467,41.047],[20.95,40.85]]}},
{"type":"Feature","properties":{"id":"albania-greece","nations":"albania | greece","follows":"the Gramos and the Epirus mountains"},"geometry":{"type":"LineString","coordinates":[[20.95,40.85],[20.9349,40.6072],[20.9134,40.4884],[20.8582,40.3664],[20.7727,40.2449],[20.5159,39.961],[20.3744,39.8226],[20.2789,39.7395],[20.19,39.6737],[20.1281,39.6395],[20.0666,39.6202],[19.95,39.6]]}},
{"type":"Feature","properties":{"id":"bulgaria-greece","nations":"bulgaria | greece","follows":"the Rhodopes"},"geometry":{"type":"LineString","coordinates":[[22.95,41.34],[23.3305,41.3771],[23.5,41.4],[23.633,41.4296],[23.9786,41.5262],[24.1247,41.5478],[24.2,41.55],[24.2931,41.5426],[24.4884,41.4996],[24.8974,41.3667],[25.1008,41.3144],[25.2942,41.2914],[25.5931,41.2737],[25.7876,41.277],[25.878,41.2857],[25.9614,41.3002],[26.036,41.3214],[26.1,41.35],[26.1377,41.3755],[26.1701,41.4055],[26.2227,41.4763],[26.3504,41.7145]]}},
{"type":"Feature","properties":{"id":"greece-turkey","nations":"greece | turkey","follows":"the Evros"},"geometry":{"type":"LineString","coordinates":[[26.3504,41.7145],[26.377,41.7109],[26.4039,41.6922],[26.4757,41.676],[26.4919,41.681],[26.4971,41.6694],[26.5343,41.6666],[26.5608,41.6548],[26.5805,41.6357],[26.5949,41.6127],[26.6018,41.5854],[26.6012,41.5476],[26.6155,41.4688],[26.6358,41.3998],[26.6313,41.3577],[26.6093,41.331],[26.5907,41.3295],[26.569,41.3338],[26.5396,41.3521],[26.4889,41.3111],[26.4783,41.3098],[26.4115,41.2659],[26.3945,41.2592],[26.3312,41.2544],[26.3201,41.2465],[26.3354,41.2292],[26.3206,41.1879],[26.3354,41.1528],[26.3168,41.1307],[26.3168,41.1225],[26.3317,41.1193],[26.3219,41.0888],[26.3472,41.0412],[26.3736,41.0314],[26.3676,41.0079],[26.3441,41.0013],[26.3354,40.9821],[26.3557,40.9684],[26.3486,40.9548],[26.2939,40.9269],[26.3035,40.9093],[26.2816,40.9075],[26.2695,40.9151],[26.2458,40.8917],[26.2256,40.8996],[26.2258,40.889],[26.2083,40.8686],[26.2114,40.8477],[26.1577,40.8124],[26.1425,40.794],[26.134,40.7674],[26.1118,40.7473],[26.0811,40.7358],[26.0439,40.7385],[26.05,40.75],[26.0,40.65]]}},
{"type":"Feature","properties":{"id":"bulgaria-turkey","nations":"bulgaria | turkey","follows":"the Strandzha"},"geometry":{"type":"LineString","coordinates":[[26.3504,41.7145],[26.548,41.8682],[26.6193,41.9139],[26.7,41.95],[26.8252,41.9804],[27.0447,42.0011],[27.4,42.0],[27.4887,41.9933],[27.7278,41.9549],[27.8,41.95],[27.8793,41.9545],[28.05,41.98]]}},
{"type":"Feature","properties":{"id":"moldova-romania","nations":"moldova | romania","follows":"the Prut, then the Danube and its Chilia arm"},"geometry":{"type":"LineString","coordinates":[[26.62,48.2601],[26.5869,48.2496],[26.6653,48.2745],[26.6881,48.275],[26.711,48.2615],[26.7325,48.271],[26.7437,48.2559],[26.7632,48.253],[26.8044,48.2586],[26.8213,48.2528],[26.8442,48.2335],[26.855,48.2381],[26.8972,48.2092],[26.9075,48.1848],[26.9376,48.2051],[26.9501,48.1978],[26.9552,48.1862],[26.9971,48.1668],[26.9856,48.1507],[26.9661,48.1498],[26.9934,48.1327],[27.0122,48.1284],[27.0245,48.1353],[27.0422,48.1276],[27.0362,48.1076],[27.0411,48.0775],[27.0587,48.0583],[27.1089,48.0338],[27.1089,48.0263],[27.0928,48.0087],[27.121,48.0134],[27.1432,47.9871],[27.1567,47.9922],[27.1684,47.9833],[27.1624,47.9653],[27.1715,47.9467],[27.1602,47.922],[27.2119,47.8898],[27.2119,47.8482],[27.2529,47.8283],[27.2188,47.814],[27.2905,47.7427],[27.2944,47.7247],[27.2715,47.7152],[27.2807,47.6932],[27.3035,47.6668],[27.3687,47.6085],[27.3966,47.5894],[27.4278,47.5812],[27.4396,47.5412],[27.4563,47.5341],[27.4727,47.492],[27.5754,47.4606],[27.5649,47.4285],[27.5798,47.4063],[27.5718,47.3754],[27.5995,47.361],[27.6365,47.307],[27.6711,47.3001],[27.7328,47.2759],[27.7532,47.2517],[27.752,47.2392],[27.7878,47.2045],[27.8043,47.1688],[27.8059,47.1448],[27.8494,47.1288],[27.8572,47.1096],[27.9379,47.0613],[27.9381,47.0468],[28.0078,47.0266],[28.0274,47.0332],[28.0365,47.0167],[28.0821,46.9717],[28.1018,46.9354],[28.105,46.9179],[28.0964,46.9029],[28.1132,46.895],[28.1236,46.8619],[28.1211,46.8345],[28.1777,46.7589],[28.1774,46.7401],[28.2335,46.6627],[28.2437,46.6356],[28.2466,46.6074],[28.2249,46.5698],[28.2335,46.5534],[28.2242,46.5489],[28.2185,46.504],[28.2466,46.4675],[28.2467,46.4365],[28.2455,46.4281],[28.2255,46.4156],[28.2327,46.402],[28.2124,46.389],[28.2066,46.3584],[28.1898,46.3514],[28.1908,46.3081],[28.1772,46.2873],[28.1347,46.2696],[28.1339,46.2456],[28.1085,46.2344],[28.1442,46.1835],[28.1003,46.0822],[28.0896,46.0736],[28.0959,46.0653],[28.0839,46.0248],[28.0857,46.0008],[28.1202,45.9265],[28.1196,45.8881],[28.1305,45.8716],[28.11,45.8545],[28.1128,45.8256],[28.1545,45.762],[28.1632,45.6617],[28.1532,45.6278],[28.1072,45.6246],[28.0616,45.5939],[28.1404,45.5605],[28.1649,45.5285],[28.1654,45.4948],[28.2124,45.4505],[28.2371,45.4523],[28.2664,45.4407],[28.2858,45.422],[28.2808,45.402],[28.3297,45.3231],[28.4047,45.2954],[28.4937,45.2791],[28.5766,45.2484],[28.7095,45.2272],[28.7782,45.2313],[28.8021,45.2444],[28.7738,45.2535],[28.762,45.2653],[28.7611,45.2821],[28.7881,45.3074],[28.7893,45.3216],[28.8157,45.3264],[28.8313,45.3225],[28.8577,45.3093],[28.8804,45.3065],[28.9293,45.2794],[28.9524,45.2853],[28.9661,45.3201],[29.0176,45.3311],[29.069,45.3611],[29.1271,45.3748],[29.1497,45.3881],[29.1738,45.3892],[29.1912,45.4065],[29.2275,45.424],[29.2899,45.4249],[29.3217,45.4441],[29.4301,45.4306],[29.5693,45.3952],[29.6497,45.3464],[29.85,45.35]]}},
{"type":"Feature","properties":{"id":"moldova-ukraine","nations":"moldova | ukraine","follows":"the Dniester to its liman"},"geometry":{"type":"LineString","coordinates":[[26.62,48.2601],[26.8069,48.3624],[26.9494,48.4142],[27.1189,48.4466],[27.4895,48.4962],[27.4941,48.4821],[27.5445,48.4726],[27.5825,48.4863],[27.6042,48.4844],[27.6064,48.4581],[27.6266,48.4515],[27.7514,48.4522],[27.7848,48.4418],[27.8644,48.3992],[27.9259,48.3397],[28.0759,48.3152],[28.0923,48.3023],[28.0979,48.2844],[28.0781,48.2452],[28.0927,48.2377],[28.1305,48.2398],[28.1616,48.2574],[28.178,48.2591],[28.1889,48.2233],[28.1993,48.212],[28.2166,48.2084],[28.2397,48.2119],[28.2939,48.2368],[28.3572,48.2388],[28.3695,48.2119],[28.3629,48.1913],[28.3217,48.1634],[28.315,48.1496],[28.3281,48.1273],[28.349,48.13],[28.3751,48.1569],[28.4111,48.171],[28.4268,48.1636],[28.4364,48.1501],[28.4352,48.135],[28.4186,48.1225],[28.4469,48.083],[28.4791,48.0653],[28.4932,48.0751],[28.5005,48.1131],[28.5172,48.1209],[28.5375,48.1201],[28.583,48.102],[28.6202,48.0952],[28.6322,48.0845],[28.6271,48.0633],[28.6066,48.0673],[28.5894,48.0626],[28.5432,48.0292],[28.5278,48.0093],[28.5375,47.994],[28.5593,47.9985],[28.6188,48.0328],[28.6309,48.0338],[28.6515,48.0194],[28.6814,48.031],[28.6979,48.0227],[28.719,47.999],[28.7537,47.9791],[28.7847,47.9828],[28.8129,47.9654],[28.8302,47.941],[28.8289,47.9171],[28.8608,47.8997],[28.9802,47.8755],[29.0181,47.8535],[29.0175,47.8269],[28.9802,47.7656],[28.9755,47.7435],[28.9802,47.6874],[28.9936,47.6389],[28.989,47.6271],[28.9929,47.6048],[29.0156,47.582],[29.0247,47.5331],[29.033,47.5186],[29.0928,47.4874],[29.1104,47.464],[29.09,47.4373],[29.0824,47.4064],[29.1389,47.376],[29.1646,47.3479],[29.1391,47.3294],[29.1226,47.3293],[29.088,47.3516],[29.0786,47.3479],[29.0933,47.3107],[29.1632,47.2308],[29.179,47.1971],[29.1631,47.1919],[29.1444,47.1629],[29.1119,47.1499],[29.0941,47.1349],[29.069,47.1015],[29.0985,47.0922],[29.1243,47.0742],[29.1479,47.0966],[29.156,47.1136],[29.1892,47.1118],[29.1938,47.1238],[29.179,47.1561],[29.2002,47.1632],[29.2205,47.1492],[29.2364,47.1624],[29.2907,47.1404],[29.2909,47.1287],[29.3712,47.0787],[29.3819,47.0418],[29.3725,47.0043],[29.3408,46.992],[29.3088,46.9883],[29.3159,46.9588],[29.332,46.9454],[29.3756,46.9352],[29.4355,46.9575],[29.4595,46.9534],[29.4706,46.9416],[29.4762,46.8897],[29.4937,46.8619],[29.4977,46.8016],[29.5116,46.7872],[29.5304,46.7828],[29.542,46.7936],[29.5623,46.7872],[29.5897,46.8239],[29.6144,46.8408],[29.6162,46.8272],[29.6519,46.8135],[29.6643,46.8012],[29.6977,46.7279],[29.6661,46.6763],[29.6953,46.6759],[29.703,46.6649],[29.7276,46.6701],[29.7583,46.6588],[29.7754,46.6292],[29.7351,46.6076],[29.7754,46.5808],[29.8231,46.6013],[29.8301,46.5886],[29.8702,46.5767],[29.8901,46.5584],[29.9014,46.5311],[29.9155,46.5191],[29.9597,46.5063],[29.9765,46.4935],[29.9945,46.4988],[30.0211,46.4709],[30.0134,46.4623],[30.0764,46.4231],[30.1016,46.431],[30.1523,46.4224],[30.1903,46.4392],[30.2193,46.442],[30.2361,46.4369],[30.2493,46.4273],[30.2573,46.3942],[30.2825,46.3685],[30.2891,46.3361],[30.2831,46.3241],[30.2539,46.307],[30.2493,46.293],[30.2555,46.2776],[30.2803,46.2606],[30.3081,46.2543],[30.3,46.25],[30.55,46.1]]}},
{"type":"Feature","properties":{"id":"romania-ukraine","nations":"romania | ukraine","follows":"the Bukovinian foothills and the Maramureș mountains"},"geometry":{"type":"LineString","coordinates":[[26.62,48.2601],[26.0438,48.0884],[25.6144,47.9751],[25.4016,47.9265],[25.2,47.9],[25.0442,47.9048],[24.7497,47.9463],[24.6014,47.9532],[22.9,47.95]]}},
{"type":"Feature","properties":{"id":"poland-ukraine","nations":"poland | ukraine","follows":"the San country, the Roztocze, then the Bug"},"geometry":{"type":"LineString","coordinates":[[22.5664,49.1094],[22.74,49.3035],[22.8,49.4],[22.8258,49.4906],[22.8415,49.6989],[22.8585,49.8036],[22.8754,49.8533],[22.9,49.9],[22.9444,49.9573],[23.0006,50.0123],[23.1392,50.1166],[23.5318,50.3545],[23.6,50.4],[23.756,50.5098],[23.8551,50.5791],[24.0013,50.681],[24.0504,50.7153],[24.1,50.75],[24.0806,50.7133],[24.0537,50.7174],[24.0264,50.7283],[24.0124,50.7436],[24.0254,50.7611],[23.9738,50.7764],[23.9589,50.7891],[23.957,50.8082],[23.9694,50.8254],[23.9923,50.8365],[24.0199,50.8387],[24.0464,50.8294],[24.1,50.8352],[24.1304,50.8393],[24.1426,50.8566],[24.1298,50.8693],[24.0464,50.8983],[23.9788,50.9378],[23.9639,50.9535],[23.9573,50.9757],[23.9434,50.9945],[23.9186,51.003],[23.9037,51.0629],[23.8539,51.1218],[23.8577,51.131],[23.8156,51.1791],[23.7646,51.1993],[23.7421,51.2165],[23.6868,51.2927],[23.6345,51.305],[23.6281,51.3262],[23.6335,51.3396],[23.665,51.3661],[23.6833,51.3706],[23.6784,51.3944],[23.697,51.4047],[23.6482,51.4542],[23.6623,51.4804],[23.6299,51.4907],[23.6076,51.5115],[23.6018,51.5311]]}},
{"type":"Feature","properties":{"id":"poland-belarus","nations":"poland | belarus","follows":"the Bug, then the Białowieża forest and the Biebrza marshes"},"geometry":{"type":"LineString","coordinates":[[23.6018,51.5311],[23.5598,51.5555],[23.5735,51.5555],[23.5427,51.593],[23.5447,51.6343],[23.5319,51.6517],[23.5598,51.6722],[23.5488,51.6835],[23.5461,51.7138],[23.5598,51.7548],[23.6169,51.7867],[23.6281,51.81],[23.594,51.8436],[23.6052,51.8519],[23.6094,51.8736],[23.6212,51.8777],[23.6216,51.9282],[23.6281,51.9466],[23.647,51.9743],[23.6759,51.9944],[23.6409,52.0732],[23.5977,52.1148],[23.5789,52.1218],[23.512,52.1247],[23.4841,52.1589],[23.4911,52.1744],[23.4871,52.1819],[23.4638,52.1766],[23.45,52.1862],[23.4267,52.1771],[23.4053,52.1862],[23.3879,52.1844],[23.3953,52.1936],[23.2991,52.2237],[23.2837,52.22],[23.2117,52.232],[23.1892,52.2408],[23.1972,52.2586],[23.1938,52.2717],[23.183,52.2816],[23.2,52.3],[23.2634,52.3385],[23.5475,52.479],[23.6759,52.5553],[23.7287,52.5985],[23.7708,52.6464],[23.8,52.7],[23.8149,52.7654],[23.8145,52.839],[23.8015,52.9189],[23.7496,53.0901],[23.6208,53.4275],[23.5883,53.5501],[23.5,53.95]]}},
{"type":"Feature","properties":{"id":"poland-lithuania","nations":"poland | lithuania","follows":"the Suwałki lakes, then the Pregolya to the Vistula Lagoon"},"geometry":{"type":"LineString","coordinates":[[23.5,53.95],[23.1442,54.1199],[23.0,54.2],[22.9176,54.259],[22.7277,54.4214],[22.6452,54.4771],[22.5469,54.5214],[22.4338,54.5552],[22.2517,54.5891],[21.8646,54.6323],[21.3,54.65],[20.5,54.7],[20.05,54.72]]}},
{"type":"Feature","properties":{"id":"lithuania-belarus","nations":"lithuania | belarus","follows":"the Nemunas and Neris watersheds"},"geometry":{"type":"LineString","coordinates":[[23.5,53.95],[24.1299,53.943],[24.9088,53.9716],[25.1603,53.9992],[25.2804,54.0233],[25.3943,54.0564],[25.5,54.1],[25.5964,54.1545],[25.6898,54.2207],[25.8669,54.3794],[25.95,54.4673],[26.1039,54.6486],[26.4183,55.0591],[26.5439,55.2625],[26.6,55.4],[26.6114,55.4795],[26.6,55.65]]}},
{"type":"Feature","properties":{"id":"lithuania-latvia","nations":"lithuania | latvia","follows":"the Venta and the Lielupe watersheds"},"geometry":{"type":"LineString","coordinates":[[21.02,56.07],[21.7039,56.2904],[21.9008,56.3354],[22.0984,56.358],[22.1967,56.3601],[22.3935,56.3512],[22.7937,56.3122],[23.0,56.3],[23.2339,56.2997],[23.8411,56.3137],[24.2,56.3],[24.4255,56.2729],[24.6496,56.2352],[25.3,56.1],[25.8731,55.9934],[26.0469,55.9514],[26.2,55.9],[26.293,55.8557],[26.3746,55.8064],[26.6,55.65]]}},
{"type":"Feature","properties":{"id":"latvia-belarus","nations":"latvia | belarus","follows":"the Daugava"},"geometry":{"type":"LineString","coordinates":[[26.6,55.65],[27.2895,55.8197],[28.2,56.0]]}},
{"type":"Feature","properties":{"id":"latvia-russia","nations":"latvia | russia","follows":"the Latgale uplands"},"geometry":{"type":"LineString","coordinates":[[28.2,56.0],[28.1384,56.3424],[28.1,56.5],[27.9791,56.9225],[27.9162,57.0937],[27.8806,57.1713],[27.8419,57.2408],[27.8,57.3],[27.7297,57.3688],[27.6509,57.4211],[27.4,57.55]]}},
{"type":"Feature","properties":{"id":"latvia-estonia","nations":"latvia | estonia","follows":"the Gauja and the Haanja uplands"},"geometry":{"type":"LineString","coordinates":[[24.3,57.87],[24.7137,57.9294],[24.9264,57.9484],[25.175,57.9468],[25.4518,57.9275],[25.7273,57.8884],[25.9,57.85],[25.9745,57.8267],[26.1163,57.7653],[26.3879,57.6245],[26.5273,57.5689],[26.6,57.55],[26.6766,57.5374],[26.8339,57.5271],[27.4,57.55]]}},
{"type":"Feature","properties":{"id":"estonia-russia","nations":"estonia | russia","follows":"Lake Peipus and the Narva"},"geometry":{"type":"LineString","coordinates":[[27.4,57.55],[27.562,57.7565],[27.5921,57.818],[27.6022,57.883],[27.5817,57.9865],[27.5114,58.1648],[27.4824,58.2689],[27.4936,58.3198],[27.5195,58.3373],[27.5417,58.367],[27.5461,58.4129],[27.5224,58.493],[27.4984,58.5349],[27.4186,58.7363],[27.4126,58.7837],[27.4482,58.8282],[27.561,58.9127],[27.734,58.9935],[27.7446,59.0208],[27.7738,59.0455],[27.7945,59.102],[27.8102,59.1195],[27.8542,59.1441],[27.8673,59.1602],[27.8726,59.2108],[27.8953,59.255],[27.9208,59.2777],[27.9604,59.2884],[28.0298,59.2799],[28.1174,59.3031],[28.1455,59.314],[28.1643,59.3299],[28.1812,59.3561],[28.1749,59.3821],[28.1373,59.4007],[28.1044,59.4395],[28.0829,59.4512],[28.05,59.4],[28.05,59.48]]}},
{"type":"Feature","properties":{"id":"belarus-russia","nations":"belarus | russia","follows":"the Smolensk upland and the Sozh"},"geometry":{"type":"LineString","coordinates":[[28.2,56.0],[29.0674,55.9285],[29.9465,55.8221],[30.2872,55.7715],[30.6119,55.7005],[30.7618,55.6545],[30.9,55.6],[31.1245,55.4912],[31.3455,55.3647],[31.4489,55.2954],[31.5443,55.2224],[31.6295,55.1462],[31.702,55.0668],[31.7597,54.9847],[31.8,54.9],[31.8144,54.8189],[31.806,54.7313],[31.7804,54.6388],[31.6204,54.2547],[31.5946,54.1638],[31.5859,54.0783],[31.6,54.0],[31.6437,53.9281],[31.7131,53.8651],[31.8017,53.8087],[32.2147,53.6017],[32.2994,53.5428],[32.3634,53.4764],[32.4,53.4],[32.4087,53.2957],[32.3886,53.1806],[32.3447,53.0566],[32.2822,52.9257],[32.206,52.7896],[31.9471,52.3701],[31.8676,52.2329],[31.8,52.1]]}},
{"type":"Feature","properties":{"id":"belarus-ukraine","nations":"belarus | ukraine","follows":"the Pripyat marshes, then the Dnieper"},"geometry":{"type":"LineString","coordinates":[[23.6018,51.5311],[24.3267,51.7805],[24.5657,51.8512],[24.6835,51.8789],[24.8,51.9],[25.003,51.924],[25.2012,51.9346],[25.3978,51.9333],[25.6973,51.9117],[25.916,51.8817],[26.1511,51.8254],[26.7542,51.6492],[27.0,51.6],[27.2573,51.5752],[27.5204,51.5668],[28.0461,51.5633],[28.4138,51.5388],[29.518,51.3832],[30.0315,51.2824],[30.1558,51.2634],[30.2727,51.2528],[30.3793,51.2534],[30.4727,51.2681],[30.55,51.3],[30.5941,51.3383],[30.6258,51.3892],[30.6483,51.4498],[30.7058,51.7305],[30.7272,51.7958],[30.7576,51.8532],[30.8,51.9],[30.8691,51.9448],[30.9511,51.9793],[31.0439,52.0051],[31.145,52.0242],[31.5878,52.0698],[31.8,52.1]]}},
{"type":"Feature","properties":{"id":"russia-ukraine","nations":"russia | ukraine","follows":"the Desna woods, the Seym, the Oskil and the Donets ridge"},"geometry":{"type":"LineString","coordinates":[[31.8,52.1],[32.1296,52.1535],[32.6377,52.2528],[32.9643,52.3021],[33.1186,52.3141],[33.2644,52.3142],[33.4,52.3],[33.4931,52.2797],[33.5798,52.2526],[33.6614,52.2196],[33.8146,52.1395],[34.1174,51.9487],[34.5199,51.71],[34.8546,51.4973],[35.4105,51.1213],[35.9535,50.6886],[36.1736,50.5298],[36.2858,50.4604],[36.4,50.4],[36.5069,50.3529],[36.616,50.3122],[36.8386,50.2463],[37.7722,50.0369],[38.5167,49.8758],[39.168,49.7687],[39.292,49.7384],[39.4072,49.7013],[39.5108,49.6557],[39.6,49.6],[39.722,49.4876],[39.7761,49.4229],[39.8689,49.2812],[39.9397,49.1295],[39.9864,48.9755],[40.0,48.9],[40.0046,48.7416],[39.9807,48.5737],[39.9346,48.405],[39.9051,48.3231],[39.837,48.1695],[39.7634,48.0403],[39.7235,47.9839],[39.6342,47.8796],[39.4785,47.737],[39.3,47.6],[39.2167,47.543],[39.0302,47.4349],[38.3,47.08]]}},
{"type":"Feature","properties":{"id":"ukraine-crimea","nations":"ukraine | crimea","follows":"the Perekop and the Chonhar"},"geometry":{"type":"LineString","coordinates":[[33.35,46.18],[33.6317,46.1179],[33.75,46.1],[33.8211,46.0975],[34.0296,46.1071],[34.1392,46.0915],[34.2569,46.0526],[34.5483,45.9292],[34.8051,45.797],[34.906,45.7598],[34.9541,45.7507],[35.0,45.75],[35.0765,45.7732],[35.1497,45.8198],[35.2863,45.9313],[35.35,45.97],[35.4129,45.9914],[35.55,46.02]]}},
{"type":"Feature","properties":{"id":"rhenia-denmark","nations":"rhenia | denmark","follows":"the Eider"},"geometry":{"type":"LineString","coordinates":[[8.8,54.28],[9.7565,54.3186],[9.9244,54.3442],[10.2,54.42]]}},
{"type":"Feature","properties":{"id":"norway-sweden","nations":"norway | sweden","follows":"the Scandinavian watershed"},"geometry":{"type":"LineString","coordinates":[[11.35,59.08],[11.6,59.35],[11.7065,59.446],[11.9646,59.6596],[12.1487,59.8375],[12.2956,60.0305],[12.3883,60.1706],[12.4684,60.3155],[12.5256,60.4602],[12.5425,60.531],[12.55,60.6],[12.5463,60.661],[12.5323,60.7205],[12.4818,60.8372],[12.3809,61.0129],[12.3213,61.1356],[12.3,61.2],[12.2671,61.3503],[12.235,61.5882],[12.1894,62.0877],[12.1264,62.4464],[12.1102,62.6281],[12.113,62.719],[12.1256,62.8097],[12.15,62.9],[12.2023,63.0208],[12.2747,63.1432],[12.3641,63.2664],[12.4672,63.39],[12.7022,63.6351],[13.3212,64.2083],[13.578,64.4119],[14.1152,64.7972],[14.3759,64.9957],[14.6171,65.2045],[14.8453,65.4178],[15.1752,65.747],[15.6,66.2],[15.8013,66.4376],[16.2793,67.0546],[16.4873,67.2893],[16.9811,67.7502],[17.2527,67.9776],[17.3941,68.083],[17.5394,68.18],[17.6888,68.2667],[17.8423,68.3407],[18.0,68.4],[18.1773,68.4386],[18.3701,68.4511],[18.5737,68.4441],[19.4,68.3521],[19.586,68.346],[19.7542,68.3598],[19.9,68.4],[19.9875,68.444],[20.0656,68.4973],[20.1359,68.5581],[20.2598,68.6961],[20.4289,68.9193],[20.55,69.06]]}},
{"type":"Feature","properties":{"id":"sweden-finland","nations":"sweden | finland","follows":"the Tornio and the Muonio"},"geometry":{"type":"LineString","coordinates":[[24.15,65.75],[24.1628,65.8411],[24.1239,65.8692],[24.1018,65.9089],[24.0542,65.9482],[24.0547,65.9855],[24.0192,66.0493],[23.9741,66.0732],[23.9109,66.1489],[23.8888,66.1613],[23.7849,66.1771],[23.7236,66.2069],[23.6889,66.2573],[23.6654,66.3058],[23.664,66.3267],[23.6765,66.364],[23.6653,66.4059],[23.646,66.4244],[23.6417,66.4366],[23.6519,66.4592],[23.6762,66.4743],[23.7305,66.4875],[23.7306,66.5034],[23.7854,66.5187],[23.8057,66.5284],[23.8073,66.5396],[23.8813,66.5638],[23.891,66.5792],[23.8926,66.5964],[23.8813,66.6321],[23.9026,66.6867],[23.8918,66.7512],[23.9242,66.7733],[23.9386,66.7914],[23.9839,66.7933],[24.0034,66.8055],[23.9329,66.889],[23.873,66.925],[23.8162,66.9758],[23.7915,66.9892],[23.7432,67.0013],[23.7199,67.0172],[23.6833,67.0498],[23.6575,67.1043],[23.5807,67.1534],[23.5735,67.1733],[23.6144,67.2143],[23.5908,67.2254],[23.6022,67.2606],[23.6217,67.2693],[23.7349,67.29],[23.7627,67.3068],[23.7852,67.3378],[23.7509,67.3465],[23.7507,67.3698],[23.7627,67.3978],[23.752,67.4276],[23.6621,67.4365],[23.594,67.4539],[23.4766,67.4441],[23.4431,67.4613],[23.4308,67.4859],[23.4429,67.505],[23.4841,67.5433],[23.4728,67.5553],[23.553,67.5873],[23.542,67.627],[23.5103,67.6695],[23.484,67.7375],[23.4841,67.7965],[23.4761,67.8416],[23.4807,67.8649],[23.4983,67.8824],[23.532,67.8935],[23.6355,67.9138],[23.6606,67.9332],[23.6616,67.9508],[23.6426,67.9635],[23.5731,67.9737],[23.3706,68.0687],[23.3303,68.128],[23.3059,68.1459],[23.2715,68.1453],[23.1868,68.1225],[23.1541,68.1286],[23.1493,68.1451],[23.158,68.187],[23.1489,68.1944],[23.1547,68.2178],[23.1396,68.2344],[23.0944,68.2558],[23.0517,68.2985],[22.9032,68.3369],[22.8747,68.3514],[22.8329,68.3851],[22.8076,68.3952],[22.748,68.3858],[22.6616,68.4278],[22.6072,68.4252],[22.5647,68.4366],[22.5208,68.4385],[22.3706,68.4687],[22.3025,68.4764],[22.0717,68.4772],[22.0378,68.4886],[22.0355,68.5069],[21.9186,68.5685],[21.7365,68.5882],[21.7163,68.6195],[21.5718,68.6677],[21.495,68.6757],[21.4631,68.6872],[21.4059,68.7492],[21.3142,68.7543],[21.2161,68.8175],[21.0715,68.8697],[20.9052,68.8948],[20.884,68.907],[20.8871,68.9274],[20.55,69.06]]}},
{"type":"Feature","properties":{"id":"finland-norway","nations":"finland | norway","follows":"the Käsivarsi fells, then the Tana"},"geometry":{"type":"LineString","coordinates":[[20.55,69.06],[20.7621,69.0978],[21.083,69.1681],[21.2944,69.2028],[21.3982,69.211],[21.5002,69.2107],[21.6,69.2],[21.6936,69.1771],[21.7831,69.1423],[21.8697,69.0983],[22.2123,68.8816],[22.3987,68.7857],[22.5,68.75],[22.7707,68.6837],[23.0648,68.6341],[23.2178,68.616],[23.5306,68.5942],[23.8449,68.5927],[24.0,68.6],[24.3411,68.6333],[24.6938,68.6896],[25.046,68.7694],[25.3855,68.8727],[25.5466,68.9334],[25.7,69.0],[25.8336,69.0753],[25.9596,69.1685],[26.0795,69.274],[26.4213,69.6103],[26.535,69.7107],[26.6515,69.7961],[26.7726,69.861],[26.9,69.9],[27.034,69.9129],[27.1761,69.9058],[27.3236,69.8818],[27.4742,69.844],[27.7743,69.7394],[28.0562,69.6165],[28.3,69.5],[28.4471,69.4185],[28.5757,69.3296],[28.93,69.05]]}},
{"type":"Feature","properties":{"id":"norway-russia","nations":"norway | russia","follows":"the Pasvik"},"geometry":{"type":"LineString","coordinates":[[28.93,69.05],[29.6522,69.4274],[29.8927,69.5605],[30.0443,69.6298],[30.1713,69.6717],[30.3242,69.7072],[30.9,69.8]]}},
{"type":"Feature","properties":{"id":"finland-russia","nations":"finland | russia","follows":"the Karelian ridges, the Maanselkä and Salla"},"geometry":{"type":"LineString","coordinates":[[27.8,60.52],[28.4217,60.9278],[28.8045,61.1609],[29.9213,61.7655],[30.5659,62.0899],[30.8019,62.2351],[30.9068,62.3146],[31.0,62.4],[31.2297,62.6532],[31.3671,62.8397],[31.4231,62.9347],[31.467,63.0294],[31.4963,63.1227],[31.5081,63.2132],[31.5,63.3],[31.4476,63.4063],[31.3469,63.5076],[31.2086,63.6052],[31.0437,63.7006],[30.4971,63.9863],[30.3337,64.086],[30.1977,64.1901],[30.1,64.3],[30.0524,64.3839],[30.0177,64.4698],[29.9933,64.5573],[29.9655,64.7366],[29.9382,65.0131],[29.9,65.2],[29.8286,65.413],[29.57,66.0737],[29.5,66.3],[29.4543,66.5403],[29.389,67.162],[29.3676,67.2801],[29.3387,67.3931],[29.3,67.5],[29.252,67.5909],[29.1909,67.6767],[29.1205,67.7586],[28.8255,68.065],[28.768,68.1412],[28.7249,68.2192],[28.7,68.3],[28.694,68.3734],[28.7002,68.4475],[28.7164,68.5221],[28.7703,68.6726],[28.8726,68.8994],[28.93,69.05]]}},
{"type":"Feature","properties":{"id":"russia-caucasus","nations":"russia | (outside the swap)","follows":"the Kuma-Manych depression"},"geometry":{"type":"LineString","coordinates":[[39.25,47.05],[39.9046,46.9521],[40.2,46.9],[40.5725,46.8192],[41.5,46.6],[41.7986,46.5435],[42.4203,46.4411],[42.721,46.3793],[42.8639,46.3423],[43.0,46.3],[43.2131,46.2144],[43.4079,46.1161],[43.7898,45.9035],[44.1381,45.7388],[44.7474,45.4842],[45.36,45.2498],[45.8149,45.0952],[46.3057,44.9516],[46.6825,44.8549],[47.4,44.7]]}},
{"type":"Feature","properties":{"id":"russia-asia","nations":"russia | (outside the swap)","follows":"the Urals, the Mugodzhar and the Ural river"},"geometry":{"type":"LineString","coordinates":[[66.8,69.4],[66.4886,68.8722],[66.3632,68.6909],[66.2,68.5],[66.0185,68.3185],[65.8069,68.1237],[65.5691,67.919],[65.3091,67.7078],[65.0308,67.4937],[64.738,67.28],[64.4346,67.0704],[64.1245,66.8682],[63.8117,66.6769],[63.5,66.5],[63.1226,66.3277],[62.6994,66.1849],[62.2456,66.0623],[61.3076,65.8411],[60.8541,65.7241],[60.4312,65.5907],[60.0544,65.4317],[59.7389,65.2378],[59.5,65.0],[59.3625,64.7644],[59.2725,64.5018],[59.2221,64.2169],[59.2031,63.9146],[59.2075,63.5995],[59.2274,63.2765],[59.2811,62.6256],[59.2989,62.3073],[59.3,62.0],[59.2727,61.0807],[59.2615,60.1556],[59.2711,59.5604],[59.3,59.0],[59.3242,58.7837],[59.3611,58.5755],[59.55,57.79],[59.5862,57.5971],[59.6095,57.4023],[59.6155,57.2038],[59.6,57.0],[59.548,56.7598],[59.4615,56.5197],[59.3487,56.2789],[59.2177,56.0365],[58.9331,55.5435],[58.7957,55.2911],[58.6723,55.0336],[58.5711,54.7702],[58.5,54.5],[58.4672,54.1759],[58.4775,53.8147],[58.5183,53.4299],[58.6978,52.2676],[58.7347,51.9222],[58.739,51.6202],[58.6984,51.375],[58.6,51.2],[58.4959,51.1213],[58.3693,51.0712],[58.2238,51.0454],[58.0633,51.0398],[57.8917,51.0504],[57.5303,51.1032],[56.8155,51.2379],[56.63,51.292],[56.4433,51.3581],[55.684,51.6576],[55.4908,51.72],[55.2962,51.7689],[55.1,51.8],[54.8946,51.8148],[54.6845,51.8173],[54.4711,51.8094],[54.0399,51.7686],[53.612,51.7058],[52.8222,51.5741],[52.0737,51.4916],[51.9003,51.4605],[51.7416,51.419],[51.6022,51.3638],[51.4868,51.2918],[51.4,51.2],[51.345,51.0841],[51.321,50.9482],[51.3227,50.7951],[51.3447,50.6279],[51.3816,50.4498],[51.5274,49.8795],[51.5697,49.6877],[51.6,49.5],[51.8662,47.4577],[51.9029,47.0465],[51.9,46.7]]}},
{"type":"Feature","properties":{"id":"turkey-caucasus","nations":"turkey | (outside the swap)","follows":"the Pontic and Kars highlands to Ararat"},"geometry":{"type":"LineString","coordinates":[[41.55,41.55],[42.132,41.504],[42.4117,41.4679],[42.8786,41.3654],[43.0182,41.3161],[43.1439,41.2457],[43.2,41.2],[43.256,41.1348],[43.302,41.0559],[43.3739,40.8691],[43.4672,40.5629],[43.5039,40.4663],[43.5473,40.3777],[43.6,40.3],[43.6601,40.2385],[43.7299,40.1855],[43.8066,40.1387],[44.0502,40.0138],[44.1952,39.921],[44.2541,39.8652],[44.3,39.8],[44.335,39.72],[44.3582,39.6327],[44.3716,39.5393],[44.3769,39.4407],[44.3714,39.2324],[44.3518,38.9075],[44.3414,38.3991],[44.3029,37.6006],[44.3,37.1]]}},
{"type":"Feature","properties":{"id":"turkey-mashriq","nations":"turkey | (outside the swap)","follows":"the Taurus foothills and the edge of the Jazira"},"geometry":{"type":"LineString","coordinates":[[44.3,37.1],[42.97,37.1847],[42.59,37.1981],[42.2102,37.1985],[41.8314,37.1876],[41.4528,37.1683],[40.5,37.1],[40.1023,37.0631],[39.0981,36.9482],[38.5,36.9],[38.3021,36.8971],[38.0955,36.905],[37.2604,36.9687],[37.0691,36.9735],[36.8926,36.9662],[36.735,36.943],[36.6,36.9],[36.5278,36.862],[36.4635,36.8167],[36.406,36.7653],[36.3542,36.7093],[36.263,36.5886],[36.1411,36.4059],[36.0014,36.2137],[35.8,35.9]]}}]}
