{"type":"FeatureCollection","name":"north-america-frontiers","crs":{"type":"name","properties":{"name":"urn:ogc:def:crs:OGC:1.3:CRS84"}},"features":[
{"type":"Feature","properties":{"id":"solms-mississippi-north","nations":"solms | mississippi","follows":"the northern rim of the Kansas River's basin, the divide between the Republican and the Platte, to the Missouri at the Kaw's mouth"},"geometry":{"type":"LineString","coordinates":[[-103.0594,40.4726],[-102.9906,40.5594],[-102.875,40.6609],[-102.8047,40.6961],[-102.7305,40.7047],[-102.6984,40.7156],[-102.6016,40.7844],[-102.5523,40.7984],[-102.4734,40.8047],[-102.4523,40.8164],[-102.4461,40.8336],[-102.4266,40.8422],[-102.2297,40.8594],[-102.1711,40.8828],[-102.1297,40.9172],[-102.0969,40.9344],[-102.0359,40.9484],[-101.9313,40.9547],[-101.9031,40.9664],[-101.8977,40.9836],[-101.8859,40.9922],[-101.8156,41.0],[-101.7641,40.9922],[-101.743,40.9672],[-101.7078,40.9625],[-101.3422,40.9875],[-101.307,40.9828],[-101.3,40.9719],[-101.2695,40.9617],[-101.1984,40.9547],[-100.7109,40.9422],[-100.6602,40.9336],[-100.6406,40.9117],[-100.6188,40.9047],[-100.4945,40.8953],[-100.4477,40.8766],[-100.4133,40.8328],[-100.3891,40.8156],[-100.3352,40.8016],[-100.2445,40.7953],[-100.2109,40.7844],[-100.1867,40.7672],[-100.1641,40.7328],[-100.1438,40.7156],[-100.1016,40.7016],[-100.0141,40.6922],[-99.9812,40.6531],[-99.8312,40.6031],[-99.8094,40.5906],[-99.7969,40.5664],[-99.7812,40.5578],[-99.6641,40.5477],[-99.6219,40.5359],[-99.5703,40.5008],[-99.5164,40.4375],[-99.4859,40.4219],[-99.4523,40.4187],[-99.3734,40.4469],[-99.357,40.4594],[-99.35,40.4781],[-99.3359,40.4859],[-99.2797,40.4859],[-99.118,40.4664],[-99.0523,40.4758],[-99.0281,40.4937],[-99.0109,40.518],[-98.975,40.5391],[-98.8859,40.5648],[-98.6953,40.6016],[-98.6227,40.632],[-98.5789,40.668],[-98.5203,40.6984],[-98.3344,40.7516],[-98.2875,40.782],[-98.2648,40.8172],[-98.2391,40.8406],[-98.182,40.8516],[-98.1516,40.8656],[-98.1141,40.9172],[-98.0812,40.9406],[-97.9734,40.9547],[-97.9523,40.9664],[-97.9461,40.9836],[-97.9109,40.9953],[-97.8406,41.0],[-97.7563,40.9953],[-97.7,40.9766],[-97.6602,40.9328],[-97.6203,40.9156],[-97.5195,40.9016],[-97.3797,40.8977],[-97.2719,40.8766],[-97.2234,40.8508],[-97.1688,40.7875],[-97.1438,40.7719],[-97.1188,40.7687],[-97.0664,40.7812],[-97.0359,40.7719],[-97.0023,40.75],[-96.9188,40.6594],[-96.8859,40.6031],[-96.8641,40.5492],[-96.8437,40.5234],[-96.8172,40.507],[-96.7477,40.4977],[-96.6984,40.4766],[-96.6695,40.4508],[-96.6062,40.3734],[-96.5812,40.357],[-96.5328,40.3484],[-96.5094,40.3344],[-96.4953,40.2734],[-96.4844,40.2594],[-96.4437,40.25],[-96.4211,40.2336],[-96.393,40.168],[-96.3641,40.0141],[-96.3312,39.925],[-96.3016,39.8891],[-96.2477,39.8633],[-96.1984,39.8234],[-96.1695,39.7852],[-96.1305,39.7156],[-96.0859,39.6687],[-96.0344,39.65],[-95.9992,39.6523],[-95.9734,39.6641],[-95.9523,39.6992],[-95.943,39.7695],[-95.9148,39.8164],[-95.8484,39.8656],[-95.8187,39.875],[-95.7953,39.8719],[-95.7438,39.8156],[-95.7016,39.8016],[-95.6187,39.7906],[-95.5953,39.7766],[-95.5633,39.732],[-95.5391,39.7109],[-95.4852,39.6852],[-95.4164,39.6641],[-95.3859,39.6437],[-95.3766,39.6312],[-95.3695,39.6016],[-95.382,39.5484],[-95.3797,39.5063],[-95.3664,39.4859],[-95.3156,39.4484],[-95.3016,39.418],[-95.3,39.3938],[-95.2883,39.3758],[-95.2414,39.3664],[-95.1086,39.3836],[-95.0617,39.3742],[-95.05,39.3562],[-95.0406,39.3109],[-95.0266,39.293],[-94.982,39.2594],[-94.9609,39.2156],[-94.943,39.1469],[-94.9261,39.0349],[-94.8404,39.0837],[-94.8,39.1],[-94.7464,39.1105],[-94.6098,39.1206]]}},
{"type":"Feature","properties":{"id":"solms-mississippi-east","nations":"solms | mississippi","follows":"the Flint Hills and the Ozark front (the eastern rim of the Arkansas above its narrows), the Ouachita crest, the Great Bend of the Red, and the Sabine"},"geometry":{"type":"LineString","coordinates":[[-94.6098,39.1206],[-94.765,39.0409],[-94.8401,38.9918],[-94.9252,38.9236],[-94.9406,38.8656],[-94.9594,38.8344],[-94.9844,38.8094],[-95.0156,38.7906],[-95.0531,38.7781],[-95.2172,38.7625],[-95.2445,38.7672],[-95.2531,38.7836],[-95.2812,38.7953],[-95.3844,38.7992],[-95.4406,38.7883],[-95.4547,38.7617],[-95.4656,38.7547],[-95.5172,38.7508],[-95.5453,38.7617],[-95.5555,38.7836],[-95.5828,38.7922],[-95.818,38.8023],[-95.8836,38.8117],[-95.8945,38.8164],[-95.9023,38.8336],[-95.9141,38.8422],[-96.0266,38.8547],[-96.0477,38.8664],[-96.0523,38.8828],[-96.0734,38.8875],[-96.1156,38.8781],[-96.1766,38.8531],[-96.193,38.8406],[-96.2,38.8219],[-96.2562,38.768],[-96.2406,38.7109],[-96.2172,38.6852],[-96.1656,38.6484],[-96.1547,38.6289],[-96.1484,38.5812],[-96.1344,38.5437],[-96.1063,38.5063],[-96.0789,38.482],[-95.9961,38.443],[-95.8234,38.3969],[-95.8039,38.3844],[-95.7969,38.3664],[-95.7812,38.3578],[-95.6445,38.3406],[-95.5977,38.3031],[-95.5617,38.2148],[-95.5297,38.1766],[-95.4523,38.1367],[-95.3469,38.1117],[-95.3156,38.0977],[-95.2625,38.0578],[-95.2219,38.0023],[-95.1688,37.868],[-95.1438,37.8203],[-95.1188,37.7883],[-95.0828,37.7648],[-95.0594,37.7391],[-95.0477,37.6828],[-95.0359,37.6656],[-95.0148,37.6547],[-94.9484,37.6484],[-94.9063,37.6344],[-94.8391,37.5609],[-94.7852,37.5352],[-94.6813,37.5031],[-94.6594,37.4906],[-94.6422,37.4672],[-94.5719,37.4625],[-94.3117,37.4797],[-94.2141,37.4688],[-94.1734,37.4562],[-94.1086,37.4172],[-94.0258,37.3063],[-93.9828,37.2656],[-93.9367,37.2375],[-93.8656,37.2148],[-93.8187,37.1891],[-93.8031,37.168],[-93.7977,37.132],[-93.7859,37.1109],[-93.7508,37.0852],[-93.7,37.0641],[-93.6719,37.0312],[-93.6688,37.0016],[-93.6781,36.9656],[-93.7109,36.9234],[-93.7445,36.907],[-93.8352,36.893],[-93.8734,36.8578],[-93.9023,36.7945],[-93.9359,36.5977],[-93.9687,36.4922],[-93.9984,36.457],[-94.0648,36.4453],[-94.0859,36.4344],[-94.0977,36.4172],[-94.1078,36.3594],[-94.1281,36.35],[-94.1359,36.3383],[-94.1359,36.2914],[-94.1125,36.1234],[-94.1172,36.1039],[-94.1336,36.0969],[-94.1422,36.0812],[-94.15,35.9875],[-94.1422,35.9109],[-94.1219,35.8719],[-94.1234,35.8617],[-94.1609,35.8523],[-94.2695,35.8484],[-94.3203,35.8406],[-94.3789,35.8172],[-94.4359,35.7758],[-94.4719,35.7672],[-94.5141,35.768],[-94.6234,35.7875],[-94.6633,35.7828],[-94.6781,35.7719],[-94.6922,35.7437],[-94.7,35.6656],[-94.693,35.6305],[-94.6766,35.5984],[-94.5828,35.5094],[-94.5453,35.4344],[-94.5214,35.3296],[-94.5177,35.1299],[-94.5073,35.0319],[-94.49,34.968],[-94.4482,34.8745],[-94.3465,34.6912],[-94.3266,34.6813],[-94.2977,34.6531],[-94.2617,34.5641],[-94.2297,34.5219],[-94.1523,34.4703],[-94.0477,34.4273],[-94.018,34.407],[-93.9703,34.3547],[-93.9383,34.2867],[-93.907,34.1297],[-93.8891,34.075],[-93.868,34.0391],[-93.8328,34.0109],[-93.8156,33.975],[-93.8047,33.9203],[-93.8,33.8469],[-93.807,33.7273],[-93.8234,33.6672],[-93.8609,33.6109],[-93.96,33.2838],[-94.0052,33.067],[-94.0342,32.8405],[-94.0399,32.613],[-94.0026,31.9672],[-93.9776,31.93],[-93.9325,31.9067],[-93.9043,31.8831],[-93.8401,31.7903],[-93.827,31.7309],[-93.8135,31.708],[-93.822,31.6492],[-93.833,31.6178],[-93.827,31.5878],[-93.7842,31.5416],[-93.73,31.519],[-93.7264,31.5096],[-93.7477,31.4854],[-93.7403,31.4686],[-93.707,31.4498],[-93.7017,31.4254],[-93.6856,31.3986],[-93.6563,31.3763],[-93.675,31.3435],[-93.676,31.3199],[-93.6286,31.2766],[-93.6092,31.2333],[-93.6053,31.2067],[-93.5895,31.1921],[-93.5486,31.1925],[-93.5431,31.1761],[-93.546,31.1315],[-93.5449,31.1484]]}},
{"type":"Feature","properties":{"id":"solms-ludwigsland","nations":"solms | ludwigsland","follows":"the Sabine to the sea"},"geometry":{"type":"LineString","coordinates":[[-93.5449,31.1484],[-93.5481,31.1216],[-93.5597,31.097],[-93.5187,31.0319],[-93.5631,31.0188],[-93.5777,31.0083],[-93.5397,30.9393],[-93.574,30.8985],[-93.5683,30.8364],[-93.6101,30.7618],[-93.6183,30.7141],[-93.6279,30.6998],[-93.6621,30.6762],[-93.6869,30.6005],[-93.7066,30.5956],[-93.7218,30.5831],[-93.7306,30.5655],[-93.731,30.5458],[-93.7173,30.5316],[-93.7173,30.5111],[-93.7037,30.4733],[-93.7065,30.4547],[-93.7525,30.3926],[-93.7559,30.3733],[-93.7521,30.3293],[-93.745,30.3139],[-93.7153,30.2872],[-93.7134,30.2547],[-93.7229,30.2351],[-93.7224,30.2137],[-93.7105,30.1924],[-93.7041,30.1437],[-93.725,30.0917],[-93.74,30.1],[-93.7827,29.9976],[-93.8295,29.8617],[-93.8541,29.7667],[-93.8595,29.6759],[-93.83,29.5]]}},
{"type":"Feature","properties":{"id":"solms-karankawa","nations":"solms | karankawa","follows":"the hills that rim the San Jacinto, then the Trinity to its bay and out by the Bolivar Roads"},"geometry":{"type":"LineString","coordinates":[[-96.1982,30.3732],[-95.9631,30.6617],[-95.9,30.72],[-95.7814,30.8037],[-95.6587,30.864],[-95.5772,30.8828],[-95.5106,30.8783],[-95.38,30.85],[-95.1702,30.6701],[-95.0658,30.561],[-94.9342,30.3997],[-94.8894,30.3331],[-94.8398,30.2404],[-94.8026,30.1485],[-94.7743,30.0578],[-94.7463,29.932],[-94.7371,29.8451],[-94.7446,29.7569],[-94.8132,29.5948],[-94.82,29.55],[-94.8144,29.5088],[-94.7925,29.4483],[-94.7283,29.3295],[-94.6,29.15]]}},
{"type":"Feature","properties":{"id":"solms-counties","nations":"solms | counties","follows":"the Brazos, then the Balcones Escarpment above the coastal plain to the head of the Nueces"},"geometry":{"type":"LineString","coordinates":[[-96.1982,30.3732],[-96.2611,30.369],[-96.2801,30.3876],[-96.2809,30.4041],[-96.2672,30.4276],[-96.2665,30.4422],[-96.3196,30.4862],[-96.3344,30.522],[-96.39,30.5384],[-96.4537,30.6085],[-96.5204,30.6278],[-96.5599,30.6312],[-96.571,30.6395],[-96.5769,30.7092],[-96.6375,30.8045],[-96.6575,30.8605],[-96.654,30.8507],[-97.0711,30.9068],[-97.1903,30.907],[-97.25,30.9],[-97.3836,30.8699],[-97.5892,30.7962],[-97.7846,30.6963],[-97.9,30.62],[-97.9476,30.5806],[-98.0314,30.4901],[-98.2166,30.2396],[-98.3,30.15],[-98.5421,29.9403],[-98.645,29.8691],[-98.7486,29.8167],[-98.8,29.8],[-98.8896,29.7881],[-99.027,29.8003],[-99.3273,29.8679],[-99.6228,29.9588]]}},
{"type":"Feature","properties":{"id":"solms-riogrande","nations":"solms | riogrande","follows":"the rim of the Nueces above the Balcones, the canyons of the Devils River, and the Rio Grande through the Big Bend"},"geometry":{"type":"LineString","coordinates":[[-99.6228,29.9588],[-99.8078,30.0016],[-99.8617,30.032],[-99.8781,30.0562],[-99.9023,30.0766],[-99.9422,30.0906],[-99.9977,30.0984],[-100.1016,30.0984],[-100.1719,30.0844],[-100.1953,30.0672],[-100.2016,30.0344],[-100.2094,30.025],[-100.2328,30.0344],[-100.2688,30.0672],[-100.3062,30.0906],[-100.3438,30.1],[-100.3836,30.093],[-100.4305,30.0648],[-100.4844,30.0156],[-100.5125,29.9734],[-100.53,29.9094],[-100.7504,30.0108],[-100.8246,30.037],[-100.9,30.05],[-101.0284,30.0449],[-101.1186,30.029],[-101.2028,30.0037],[-101.2728,29.9699],[-101.3,29.95],[-101.33,29.9135],[-101.3496,29.87],[-101.3753,29.7737],[-101.3822,29.7499],[-101.3903,29.7271],[-101.3842,29.7187],[-101.4005,29.7409],[-101.4074,29.7531],[-101.4059,29.7787],[-101.4469,29.7713],[-101.4717,29.7917],[-101.5226,29.7662],[-101.5405,29.7794],[-101.5295,29.8017],[-101.5473,29.8204],[-101.5548,29.7969],[-101.5658,29.7867],[-101.6331,29.7758],[-101.8038,29.8017],[-101.8068,29.8121],[-101.825,29.8054],[-101.8584,29.8054],[-101.8882,29.8125],[-101.921,29.7984],[-101.9731,29.8184],[-101.9888,29.8054],[-102.0154,29.8112],[-102.1102,29.8023],[-102.2045,29.8463],[-102.2406,29.8493],[-102.2542,29.8555],[-102.2591,29.8737],[-102.277,29.8697],[-102.303,29.8897],[-102.3218,29.8941],[-102.3406,29.8709],[-102.3716,29.858],[-102.3809,29.8116],[-102.4069,29.7775],[-102.5239,29.7825],[-102.5474,29.7581],[-102.5676,29.7713],[-102.6221,29.7475],[-102.6843,29.744],[-102.6919,29.737],[-102.6986,29.7098],[-102.7321,29.6508],[-102.7684,29.5975],[-102.7805,29.5925],[-102.7874,29.5507],[-102.7963,29.5445],[-102.8399,29.4522],[-102.8358,29.4159],[-102.8454,29.3907],[-102.8389,29.3707],[-102.8778,29.3511],[-102.886,29.3336],[-102.8863,29.315],[-102.9002,29.2763],[-102.8929,29.2547],[-102.8596,29.2294],[-102.9088,29.2132]]}},
{"type":"Feature","properties":{"id":"solms-nuevoleon","nations":"solms | nuevoleon","follows":"the Sierra del Carmen and the eastern rim of the Bolson de Mapimi"},"geometry":{"type":"LineString","coordinates":[[-102.9088,29.2132],[-103.35,28.75],[-103.8364,28.2737],[-104.0004,28.0915],[-104.1941,27.854],[-104.3243,27.6724],[-104.4304,27.4941],[-104.5072,27.3242],[-104.6391,26.9813]]}},
{"type":"Feature","properties":{"id":"solms-mexico","nations":"solms | mexico","follows":"the southern and western rim of the Conchos, then the crest between the Yaqui and the Mayo down to the Gulf of California"},"geometry":{"type":"LineString","coordinates":[[-104.6391,26.9813],[-104.6648,26.9344],[-104.7031,26.8187],[-104.7359,26.7883],[-104.7359,26.7414],[-104.7211,26.632],[-104.7359,26.5891],[-104.7516,26.5734],[-104.7992,26.5539],[-104.9625,26.5406],[-105.0094,26.5266],[-105.0438,26.5062],[-105.0906,26.4437],[-105.1078,26.3594],[-105.1328,26.3484],[-105.1375,26.3406],[-105.1188,26.2805],[-105.1281,26.2359],[-105.1844,26.1656],[-105.2406,26.1234],[-105.2781,26.107],[-105.3156,26.1],[-105.3531,26.1039],[-105.3906,26.1234],[-105.4469,26.182],[-105.5023,26.268],[-105.5516,26.3266],[-105.5805,26.3461],[-105.6484,26.3641],[-105.6977,26.3992],[-105.7516,26.4492],[-105.7937,26.4703],[-105.8141,26.4648],[-105.8367,26.4328],[-105.8766,26.4094],[-105.9844,26.3977],[-106.0312,26.3766],[-106.0469,26.3508],[-106.057,26.2828],[-106.0734,26.2563],[-106.0992,26.2359],[-106.1516,26.2141],[-106.1813,26.1937],[-106.2141,26.1516],[-106.2516,26.0734],[-106.282,26.0523],[-106.3063,26.05],[-106.3312,26.0711],[-106.3562,26.1203],[-106.4438,26.4391],[-106.4688,26.5023],[-106.4937,26.5437],[-106.5437,26.5844],[-106.5687,26.5953],[-106.6336,26.607],[-106.6977,26.6492],[-106.7766,26.7359],[-106.793,26.7664],[-106.8039,26.818],[-106.8234,26.8391],[-106.8586,26.857],[-106.9664,26.8883],[-107.0016,26.9203],[-107.0109,26.9422],[-107.0133,26.9977],[-106.9781,27.1297],[-106.975,27.1719],[-106.9844,27.1953],[-107.0172,27.2039],[-107.0344,27.2234],[-107.0453,27.2586],[-107.0539,27.368],[-107.0734,27.4109],[-107.0891,27.4266],[-107.132,27.4461],[-107.2414,27.4523],[-107.2883,27.4617],[-107.3187,27.4969],[-107.4391,27.5383],[-107.4969,27.5703],[-107.5609,27.618],[-107.6313,27.6812],[-107.7297,27.7844],[-107.7859,27.8594],[-107.8,27.9062],[-107.793,27.9289],[-107.7766,27.9484],[-107.6641,28.0031],[-107.6523,28.0156],[-107.65,28.0219],[-107.65,28.0281],[-107.6484,28.0336],[-107.6453,28.0383],[-107.6344,28.0453],[-107.5828,28.0484],[-107.5594,28.0344],[-107.5516,28.0172],[-107.55,28.0062],[-107.55,28.0],[-107.5617,28.0242],[-107.5891,28.0328],[-107.632,28.032],[-107.6594,28.0281],[-107.6906,28.0219],[-107.7414,28.0164],[-107.7883,28.0258],[-107.7961,28.0336],[-107.8117,28.0812],[-107.8391,28.1063],[-107.9914,28.1812],[-108.0266,28.2062],[-108.0461,28.2312],[-108.0516,28.2672],[-108.0656,28.2906],[-108.1391,28.3094],[-108.1648,28.3328],[-108.1781,28.3562],[-108.2094,28.3742],[-108.3031,28.3836],[-108.4531,28.3719],[-108.5797,28.3484],[-108.6289,28.3289],[-108.643,28.318],[-108.6563,28.2836],[-108.6875,28.2703],[-108.7438,28.2664],[-108.918,28.2789],[-108.9828,28.2641],[-109.0047,28.2484],[-109.0195,28.2273],[-109.0273,28.2008],[-109.0219,28.1312],[-109.0234,28.0977],[-109.0328,28.068],[-109.05,28.0422],[-109.075,28.0203],[-109.1484,27.9883],[-109.3469,27.9547],[-109.4406,27.9172],[-109.4719,27.8844],[-109.4859,27.8328],[-109.4859,27.7953],[-109.4711,27.7617],[-109.4992,27.7523],[-109.5852,27.7461],[-109.6234,27.7266],[-109.6523,27.6914],[-109.6883,27.582],[-109.7203,27.5391],[-109.7422,27.5234],[-109.7977,27.5039],[-109.9047,27.4961],[-109.9719,27.4766],[-110.0031,27.4609],[-110.0609,27.418],[-110.1531,27.3227],[-110.1688,27.3172],[-110.1813,27.3203],[-110.1965,27.3511],[-110.4,27.15],[-110.7,26.9]]}},
{"type":"Feature","properties":{"id":"solms-mexico-delta","nations":"solms | mexico","follows":"the Colorado through its delta to the head of the Gulf of California"},"geometry":{"type":"LineString","coordinates":[[-115.0001,32.3231],[-115.0371,32.2917],[-115.0431,32.259],[-115.0574,32.2316],[-115.1803,32.1907],[-115.2,32.1571],[-115.2131,32.1091],[-115.2132,32.0607],[-115.1946,32.0256],[-115.1946,32.0467],[-115.1753,32.0479],[-115.1666,32.0604],[-115.123,32.0376],[-115.1121,32.0135],[-115.1167,31.9864],[-115.0919,31.967],[-115.0552,31.9781],[-115.0352,31.9661],[-114.8,31.95],[-114.78,31.75],[-114.7,31.5]]}},
{"type":"Feature","properties":{"id":"solms-aztlan","nations":"solms | aztlan","follows":"the Colorado below the mouth of the Gila"},"geometry":{"type":"LineString","coordinates":[[-114.5471,32.7307],[-114.5359,32.7381],[-114.5783,32.73],[-114.683,32.7481],[-114.7209,32.7245],[-114.7403,32.6693],[-114.7877,32.6213],[-114.8035,32.5947],[-114.795,32.5743],[-114.7964,32.5525],[-114.8104,32.5116],[-114.8328,32.492],[-114.9059,32.4918],[-114.9263,32.4825],[-114.9602,32.4387],[-114.9686,32.416],[-114.9717,32.3635],[-114.9817,32.3415],[-115.0001,32.3231]]}},
{"type":"Feature","properties":{"id":"solms-colorado","nations":"solms | colorado","follows":"the Gila to its springs, the Continental Divide, the Sangre de Cristo as the rim of the Rio Grande, Raton Mesa, the scarp of the High Plains above the Arkansas, and the divide between the Republican and the South Platte"},"geometry":{"type":"LineString","coordinates":[[-114.5471,32.7307],[-114.5046,32.7175],[-114.4779,32.7213],[-114.4546,32.7358],[-114.4197,32.7739],[-114.3848,32.7901],[-114.3663,32.7859],[-114.327,32.7178],[-114.308,32.7047],[-114.22,32.6813],[-114.2022,32.6844],[-114.1651,32.715],[-114.1176,32.697],[-114.117,32.7127],[-114.1004,32.7397],[-114.0723,32.7259],[-113.9884,32.717],[-113.9662,32.7343],[-113.9704,32.7516],[-113.9495,32.7517],[-113.8672,32.7791],[-113.8433,32.7722],[-113.8434,32.7635],[-113.7235,32.8268],[-113.6822,32.8302],[-113.6471,32.8605],[-113.526,32.8856],[-113.4273,32.9331],[-113.3763,32.9682],[-113.3089,32.9708],[-113.254,33.0067],[-113.23,33.0118],[-113.1375,33.0118],[-113.0832,33.0523],[-113.0658,33.0861],[-113.0435,33.0839],[-113.001,33.0595],[-112.9666,33.0556],[-112.9212,33.0322],[-112.8628,33.0358],[-112.8089,33.0108],[-112.766,33.0049],[-112.7236,33.0111],[-112.6919,33.0322],[-112.6861,33.0654],[-112.6969,33.1118],[-112.7328,33.1831],[-112.7858,33.2435],[-112.7903,33.28],[-112.754,33.3128],[-112.7134,33.3265],[-112.5001,33.3578],[-112.4899,33.3731],[-112.4662,33.3872],[-112.4182,33.4022],[-112.3254,33.3823],[-112.2804,33.3271],[-112.252,33.3378],[-112.2302,33.3189],[-112.1991,33.2656],[-112.135,33.2338],[-112.1099,33.2289],[-112.1029,33.2098],[-112.0237,33.1617],[-111.993,33.1558],[-111.9482,33.1683],[-111.9134,33.1632],[-111.8795,33.146],[-111.8633,33.1489],[-111.7653,33.099],[-111.5902,33.0516],[-111.5685,33.036],[-111.5232,33.0183],[-111.4217,33.0445],[-111.2556,33.1117],[-111.1995,33.0951],[-111.177,33.097],[-111.117,33.1298],[-111.0548,33.1314],[-111.0217,33.1216],[-110.9742,33.1254],[-110.9536,33.1177],[-110.8928,33.0632],[-110.8229,33.0421],[-110.7837,33.0152],[-110.7635,33.0095],[-110.7405,33.0174],[-110.727,33.0311],[-110.7033,33.0822],[-110.6917,33.0921],[-110.6456,33.1114],[-110.5799,33.1595],[-110.5332,33.1817],[-110.4836,33.1961],[-110.2953,33.2062],[-110.1405,33.1824],[-110.1221,33.1716],[-110.0911,33.1452],[-109.9756,33.0778],[-109.9402,33.0496],[-109.8801,32.9725],[-109.8553,32.9155],[-109.7473,32.8491],[-109.7044,32.8336],[-109.631,32.8276],[-109.579,32.8568],[-109.532,32.8613],[-109.5052,32.878],[-109.4847,32.9087],[-109.4373,32.9519],[-109.4101,32.9675],[-109.3585,32.9752],[-109.2359,32.9291],[-109.2261,32.9149],[-109.2172,32.8615],[-109.1827,32.7932],[-109.1292,32.7381],[-109.0616,32.6932],[-108.9275,32.6313],[-108.9056,32.6282],[-108.8642,32.6358],[-108.7517,32.6862],[-108.7335,32.7085],[-108.6712,32.7302],[-108.6204,32.7933],[-108.6165,32.819],[-108.6009,32.8541],[-108.6077,32.9329],[-108.6021,32.9551],[-108.5599,33.0049],[-108.5272,33.0672],[-108.5151,33.0779],[-108.3445,33.0683],[-108.3088,33.0819],[-108.2731,33.1155],[-108.243,33.1641],[-108.2486,33.1575],[-108.2288,33.172],[-108.2091,33.1867],[-108.1302,33.2458],[-108.0904,33.274],[-108.0297,33.3106],[-107.9186,33.3488],[-107.8796,33.3691],[-107.85,33.4],[-107.8249,33.4688],[-107.8147,33.5598],[-107.817,33.6614],[-107.839,33.8083],[-107.8625,33.884],[-107.9182,33.9775],[-108.05,34.15],[-108.2094,34.4344],[-108.2328,34.4484],[-108.268,34.4539],[-108.2891,34.4734],[-108.307,34.5086],[-108.3281,34.5906],[-108.3375,34.6609],[-108.3328,34.6961],[-108.3156,34.7031],[-108.3031,34.7188],[-108.2648,34.8344],[-108.2391,34.8812],[-108.218,34.8969],[-108.182,34.9031],[-108.1516,34.9312],[-108.1281,34.9875],[-108.1188,35.0352],[-108.1219,35.0734],[-108.1375,35.1023],[-108.1656,35.1219],[-108.2195,35.1453],[-108.2664,35.1828],[-108.3063,35.2344],[-108.325,35.2812],[-108.3156,35.3141],[-108.282,35.3375],[-108.2516,35.3844],[-108.2031,35.5562],[-108.1844,35.5797],[-108.1297,35.5578],[-108.0187,35.55],[-107.918,35.557],[-107.8703,35.5734],[-107.8383,35.5992],[-107.8047,35.6672],[-107.7812,35.6938],[-107.7516,35.7141],[-107.6852,35.743],[-107.6641,35.7609],[-107.6523,35.782],[-107.6469,35.8172],[-107.6313,35.8344],[-107.5844,35.8484],[-107.5148,35.8531],[-107.4609,35.8812],[-107.4367,35.9156],[-107.4133,35.9844],[-107.3734,36.0312],[-107.3352,36.0469],[-107.2188,36.0578],[-107.2031,36.0664],[-107.1984,36.0828],[-107.1906,36.0875],[-107.132,36.0687],[-107.1016,36.0781],[-107.0852,36.1],[-107.0484,36.1766],[-107.0289,36.193],[-106.9828,36.2063],[-106.9656,36.2375],[-106.9516,36.3312],[-106.9422,36.5625],[-106.9336,36.5937],[-106.9172,36.6031],[-106.9125,36.6187],[-106.9305,36.7344],[-106.9234,36.7687],[-106.9141,36.7812],[-106.8836,36.7969],[-106.8164,36.8023],[-106.7859,36.8141],[-106.7711,36.8352],[-106.7812,36.9008],[-106.7719,36.9359],[-106.75,36.9477],[-106.6992,36.9516],[-106.6641,36.9656],[-106.6523,36.9828],[-106.6453,37.0344],[-106.6383,37.0453],[-106.6219,37.05],[-106.6141,37.0687],[-106.6172,37.1812],[-106.6367,37.3195],[-106.6609,37.3922],[-106.6945,37.443],[-106.7375,37.4719],[-106.7852,37.4852],[-106.8391,37.5109],[-106.8633,37.532],[-106.8859,37.5664],[-106.9063,37.5797],[-106.9484,37.582],[-107.0016,37.568],[-107.0312,37.5672],[-107.0641,37.5836],[-107.0891,37.6172],[-107.125,37.6344],[-107.2141,37.6484],[-107.3727,37.6547],[-107.4328,37.6656],[-107.4773,37.6828],[-107.5164,37.7172],[-107.5336,37.7453],[-107.5078,37.7594],[-107.4961,37.8172],[-107.4766,37.8344],[-107.4414,37.8453],[-107.3312,37.8516],[-107.2656,37.8656],[-107.2375,37.8828],[-107.2102,37.9172],[-107.1703,37.9344],[-107.0695,37.9484],[-106.8937,37.9547],[-106.8375,37.9656],[-106.8062,37.9828],[-106.7969,38.018],[-106.7688,38.0484],[-106.6656,38.0867],[-106.6312,38.1109],[-106.6031,38.1648],[-106.5945,38.2344],[-106.5672,38.2687],[-106.5453,38.2812],[-106.4852,38.2969],[-106.332,38.307],[-106.2828,38.3234],[-106.2664,38.3352],[-106.25,38.3656],[-106.2546,38.4192],[-106.2406,38.3375],[-106.182,38.3188],[-106.1609,38.3219],[-106.143,38.3375],[-106.1219,38.3844],[-106.1,38.4102],[-106.0656,38.4203],[-106.0187,38.4148],[-105.9297,38.3805],[-105.85,38.3359],[-105.7844,38.2844],[-105.7352,38.2305],[-105.707,38.1836],[-105.6977,38.1313],[-105.6859,38.1063],[-105.6648,38.0813],[-105.5734,38.0063],[-105.5523,37.9688],[-105.5406,37.9109],[-105.4734,37.85],[-105.4547,37.7937],[-105.443,37.6586],[-105.4266,37.6234],[-105.4008,37.6039],[-105.3492,37.6008],[-105.307,37.6117],[-105.2984,37.6328],[-105.2844,37.6375],[-105.2437,37.6219],[-105.2211,37.5906],[-105.2016,37.5344],[-105.1852,37.4531],[-105.1664,37.2508],[-105.1758,37.1477],[-105.1937,37.1062],[-105.2266,37.0594],[-105.2406,37.0125],[-105.2201,36.9828],[-105.1797,37.0062],[-105.1445,37.0125],[-105.0531,37.0063],[-104.8422,36.9516],[-104.807,36.9352],[-104.7906,36.9078],[-104.7437,36.9],[-104.6938,36.9156],[-104.6281,36.9672],[-104.5875,36.9844],[-104.5031,36.9984],[-104.3703,36.9953],[-104.3141,36.9766],[-104.3,36.9563],[-104.293,36.9234],[-104.2766,36.9094],[-104.1781,36.8906],[-104.1406,36.8687],[-104.1094,36.8406],[-103.807,37.2689],[-103.7181,37.4105],[-103.65,37.55],[-103.6118,37.6604],[-103.585,37.7684],[-103.561,37.9306],[-103.5496,38.1668],[-103.5599,38.3062],[-103.6161,38.733],[-103.6197,38.9698],[-103.6,39.35],[-103.6297,39.3937],[-103.632,39.4312],[-103.6148,39.4672],[-103.5891,39.4906],[-103.5141,39.5094],[-103.4578,39.5469],[-103.3875,39.6125],[-103.3469,39.6695],[-103.3094,39.7727],[-103.2969,39.9383],[-103.2812,40.0141],[-103.2344,40.1102],[-103.1656,40.1875],[-103.1187,40.2625],[-103.1031,40.3125],[-103.0961,40.3883],[-103.0594,40.4726]]}},
{"type":"Feature","properties":{"id":"ludwigsland-mississippi","nations":"ludwigsland | mississippi","follows":"the Kisatchie Wold, the Red below Alexandria, and the Mississippi to the Head of Passes"},"geometry":{"type":"LineString","coordinates":[[-93.5449,31.1484],[-93.271,31.248],[-93.082,31.3043],[-92.9197,31.3444],[-92.8,31.36],[-92.6917,31.3567],[-92.4431,31.3195],[-92.3848,31.2606],[-92.3713,31.2276],[-92.3626,31.2203],[-92.2995,31.1868],[-92.2822,31.1708],[-92.2712,31.148],[-92.249,31.1531],[-92.2458,31.1442],[-92.2134,31.1298],[-92.2078,31.1292],[-92.204,31.1564],[-92.1583,31.2032],[-92.1189,31.2321],[-92.0569,31.2094],[-91.9719,31.2502],[-91.9456,31.2422],[-91.9217,31.2442],[-91.946,31.279],[-91.948,31.2979],[-91.9109,31.3036],[-91.7912,31.2473],[-91.7609,31.2267],[-91.7027,31.2069],[-91.689,31.1964],[-91.69,31.1897],[-91.7163,31.1349],[-91.737,31.0477],[-91.7231,31.025],[-91.6841,31.0183],[-91.6617,30.9971],[-91.6521,30.9483],[-91.6263,30.9342],[-91.5893,30.9311],[-91.5457,30.9152],[-91.5293,30.9],[-91.5212,30.8823],[-91.5183,30.8367],[-91.5252,30.8174],[-91.5792,30.7849],[-91.5823,30.7573],[-91.546,30.7426],[-91.4955,30.7373],[-91.4556,30.7377],[-91.3839,30.7581],[-91.3694,30.752],[-91.3353,30.6857],[-91.2986,30.6483],[-91.2674,30.5882],[-91.2449,30.5687],[-91.2818,30.5111],[-91.2092,30.5179],[-91.1933,30.4883],[-91.1921,30.4445],[-91.2038,30.4049],[-91.2317,30.3851],[-91.2439,30.364],[-91.157,30.3435],[-91.1478,30.3261],[-91.2132,30.3116],[-91.2228,30.2914],[-91.1607,30.2893],[-91.1168,30.2673],[-91.1509,30.224],[-91.1543,30.2048],[-91.1478,30.1958],[-91.1279,30.1985],[-91.1099,30.2094],[-91.0455,30.2098],[-91.0248,30.1958],[-91.0135,30.1793],[-91.0248,30.1375],[-91.013,30.1262],[-90.9491,30.1207],[-90.939,30.1305],[-90.9212,30.1269],[-90.8911,30.0831],[-90.8563,30.0695],[-90.8252,30.0115],[-90.8126,30.0086],[-90.7351,30.0215],[-90.668,30.0587],[-90.6233,30.045],[-90.5892,30.066],[-90.5444,30.0587],[-90.5007,30.0595],[-90.4828,30.0555],[-90.4656,30.0095],[-90.4083,29.9968],[-90.3769,29.9596],[-90.3536,29.9481],[-90.3279,29.9483],[-90.246,29.972],[-90.1942,29.9379],[-90.1592,29.9518],[-90.1404,29.9488],[-90.1221,29.9259],[-90.1063,29.9221],[-90.0684,29.9351],[-90.0571,29.9529],[-90.0479,29.9562],[-89.9592,29.9371],[-89.9374,29.9266],[-89.9138,29.8836],[-89.9486,29.8799],[-89.9743,29.8842],[-90.024,29.7864],[-90.0237,29.7644],[-89.9708,29.7044],[-89.9558,29.6563],[-89.9383,29.6448],[-89.8608,29.6211],[-89.79,29.5793],[-89.6894,29.4901],[-89.61,29.4639],[-89.5991,29.4491],[-89.6053,29.4273],[-89.6025,29.4081],[-89.5074,29.3601],[-89.4651,29.3529],[-89.4265,29.3548],[-89.3862,29.3331],[-89.2702,29.2021],[-89.2571,29.1549],[-89.2812,29.1002],[-89.4,29.15],[-89.15,28.95]]}},
{"type":"Feature","properties":{"id":"karankawa-counties","nations":"karankawa | counties","follows":"the Brazos to the sea"},"geometry":{"type":"LineString","coordinates":[[-96.1982,30.3732],[-96.1728,30.3817],[-96.1505,30.3813],[-96.1293,30.3603],[-96.137,30.3419],[-96.129,30.3268],[-96.0733,30.3056],[-96.0688,30.2874],[-96.0733,30.2647],[-96.0906,30.2316],[-96.1061,30.2183],[-96.1521,30.1977],[-96.1429,30.1651],[-96.1451,30.1498],[-96.1743,30.121],[-96.1709,30.107],[-96.1417,30.0823],[-96.0884,30.0176],[-96.0882,29.9968],[-96.1089,29.9388],[-96.1045,29.84],[-96.0879,29.8112],[-96.0464,29.7886],[-96.0201,29.7303],[-96.0194,29.7062],[-96.0415,29.6888],[-96.0401,29.6555],[-96.0,29.6456],[-95.9175,29.6573],[-95.9027,29.6272],[-95.8481,29.6061],[-95.8188,29.5862],[-95.8072,29.5856],[-95.7901,29.6136],[-95.7636,29.6141],[-95.747,29.5893],[-95.7253,29.5795],[-95.6843,29.5856],[-95.6017,29.518],[-95.5708,29.4784],[-95.5597,29.4534],[-95.5713,29.4423],[-95.567,29.4315],[-95.6001,29.3567],[-95.6017,29.2945],[-95.595,29.2695],[-95.574,29.2377],[-95.5819,29.2164],[-95.6154,29.1959],[-95.6229,29.1512],[-95.6344,29.134],[-95.6344,29.1092],[-95.5542,29.0467],[-95.5334,29.0376],[-95.4885,29.0345],[-95.4646,29.0041],[-95.3758,28.9693],[-95.373,28.9473],[-95.4,28.95],[-95.3,28.75]]}},
{"type":"Feature","properties":{"id":"counties-riogrande","nations":"counties | riogrande","follows":"the eastern rim of the Nueces to its bay, and out by the Aransas Pass"},"geometry":{"type":"LineString","coordinates":[[-99.6228,29.9588],[-99.5625,29.9391],[-99.5063,29.9062],[-99.4656,29.8563],[-99.4547,29.8312],[-99.4461,29.7828],[-99.4266,29.7656],[-99.3914,29.7547],[-99.282,29.7484],[-99.2234,29.7344],[-99.2039,29.7172],[-99.1961,29.6812],[-99.1766,29.6562],[-99.1414,29.6312],[-99.0594,29.5937],[-99.0063,29.5594],[-98.9656,29.5125],[-98.95,29.4844],[-98.9281,29.4187],[-98.907,29.3203],[-98.8891,29.2781],[-98.868,29.2547],[-98.8062,29.2406],[-98.7289,29.1836],[-98.6922,29.1703],[-98.6461,29.1664],[-98.5312,29.182],[-98.4656,29.1797],[-98.4375,29.1664],[-98.3984,29.1203],[-98.3789,29.1164],[-98.3305,29.1312],[-98.3016,29.1281],[-98.2695,29.1125],[-98.2156,29.0656],[-98.1641,28.9906],[-98.1523,28.9531],[-98.1477,28.8992],[-98.1359,28.8734],[-98.1008,28.8523],[-98.0492,28.8484],[-98.0141,28.8344],[-98.0023,28.8172],[-97.9906,28.7656],[-97.9766,28.7547],[-97.9336,28.7461],[-97.9203,28.7266],[-97.918,28.668],[-97.9336,28.5562],[-97.9297,28.5156],[-97.9164,28.4875],[-97.8836,28.4648],[-97.8672,28.4391],[-97.868,28.418],[-97.8859,28.3734],[-97.8859,28.3547],[-97.8656,28.3469],[-97.8531,28.3312],[-97.8148,28.2148],[-97.7891,28.1609],[-97.7258,28.1],[-97.7164,28.0437],[-97.7269,27.9654],[-97.5325,27.8938],[-97.45,27.87],[-97.2,27.84],[-96.95,27.8]]}},
{"type":"Feature","properties":{"id":"riogrande-nuevoleon","nations":"riogrande | nuevoleon","follows":"the sierras south of the Sabinas valley, then the Rio Grande from Falcon to the sea"},"geometry":{"type":"LineString","coordinates":[[-102.9088,29.2132],[-102.3979,28.4716],[-102.1378,28.0502],[-102.0245,27.8903],[-101.9639,27.8171],[-101.8378,27.6932],[-101.706,27.5911],[-101.5665,27.5008],[-101.4217,27.4183],[-101.1243,27.2602],[-100.8953,27.1492],[-100.6569,27.0473],[-100.4,26.95],[-100.1735,26.8754],[-99.9313,26.8053],[-99.1777,26.6032],[-99.1792,26.6139],[-99.1657,26.5406],[-99.1159,26.5259],[-99.1038,26.5123],[-99.0902,26.4714],[-99.1097,26.4344],[-99.1072,26.4232],[-99.0863,26.4078],[-99.0484,26.4072],[-99.0113,26.3928],[-98.9878,26.4003],[-98.9549,26.3942],[-98.9461,26.3785],[-98.9307,26.3925],[-98.8938,26.3681],[-98.8711,26.3724],[-98.8517,26.3643],[-98.8369,26.3724],[-98.8022,26.3724],[-98.7817,26.3519],[-98.7472,26.3324],[-98.7367,26.3203],[-98.7407,26.3035],[-98.714,26.3036],[-98.6923,26.2904],[-98.6941,26.2708],[-98.6545,26.2445],[-98.6414,26.242],[-98.5824,26.2625],[-98.4938,26.2308],[-98.4732,26.2079],[-98.4574,26.2261],[-98.4297,26.218],[-98.3702,26.1942],[-98.3781,26.1638],[-98.3338,26.1532],[-98.3013,26.1116],[-98.2235,26.0756],[-98.151,26.0639],[-98.1039,26.0752],[-98.0841,26.0711],[-98.076,26.0468],[-98.0663,26.0424],[-98.0139,26.0639],[-97.9425,26.0571],[-97.8028,26.0639],[-97.7831,26.0589],[-97.7811,26.0434],[-97.7677,26.0399],[-97.6607,26.0309],[-97.6423,26.0227],[-97.6139,25.9962],[-97.5951,25.9666],[-97.566,25.955],[-97.521,25.913],[-97.503,25.9021],[-97.4491,25.8925],[-97.4263,25.8552],[-97.3907,25.8658],[-97.3768,25.847],[-97.3668,25.8442],[-97.3465,25.8524],[-97.3519,25.9186],[-97.3293,25.9335],[-97.3118,25.9223],[-97.2884,25.9289],[-97.2539,25.9637],[-97.25,25.95],[-97.0,25.95]]}},
{"type":"Feature","properties":{"id":"nuevoleon-mexico","nations":"nuevoleon | mexico","follows":"the western edge of the Bolson de Mapimi, the Sierra de Parras and the crest of the Sierra Madre Oriental to the Panuco's mouth"},"geometry":{"type":"LineString","coordinates":[[-104.6391,26.9813],[-104.1926,26.8647],[-103.9722,26.7856],[-103.9,26.75],[-103.7311,26.6495],[-103.4757,26.4634],[-103.2378,26.2496],[-103.1,26.1],[-103.0443,26.0264],[-102.9521,25.8667],[-102.7963,25.5302],[-102.705,25.3723],[-102.5877,25.2301],[-102.4525,25.097],[-102.2277,24.9139],[-102.0668,24.8026],[-101.9,24.7],[-101.8073,24.6517],[-101.7091,24.6099],[-101.2903,24.4727],[-101.0858,24.3977],[-100.9898,24.3526],[-100.9,24.3],[-100.8188,24.2427],[-100.7405,24.1803],[-100.5918,24.0437],[-100.3868,23.8219],[-100.1495,23.5348],[-100.0613,23.3985],[-99.9414,23.1924],[-99.8545,23.0638],[-99.75,22.95],[-99.6187,22.8482],[-99.4714,22.7581],[-99.3148,22.6788],[-99.0768,22.5788],[-98.8608,22.5059],[-98.651,22.4589],[-98.2302,22.388],[-97.6,22.3]]}},
{"type":"Feature","properties":{"id":"mississippi-atlantica","nations":"mississippi | atlantica","follows":"the eastern rim of the Mississippi's basin: the Allegheny Plateau, the Blue Ridge and the hills above the Tombigbee and the Pearl; then the Amite, Lake Pontchartrain and the Rigolets"},"geometry":{"type":"LineString","coordinates":[[-79.9,42.45],[-79.7609,42.4067],[-79.723,42.3848],[-79.7093,42.3694],[-79.7,42.35],[-79.7001,42.2758],[-79.733,42.173],[-79.7928,42.0467],[-79.8738,41.9018],[-80.2942,41.2382],[-80.4812,40.9266],[-80.4437,40.8938],[-80.4156,40.8516],[-80.4016,40.8023],[-80.3922,40.7141],[-80.3836,40.7023],[-80.3617,40.693],[-80.3523,40.6648],[-80.35,40.6156],[-80.3594,40.5734],[-80.3828,40.5523],[-80.4172,40.5461],[-80.4406,40.5109],[-80.45,40.4094],[-80.4453,40.3586],[-80.4344,40.3234],[-80.4172,40.3039],[-80.3937,40.3],[-80.3734,40.2883],[-80.3594,40.2609],[-80.3516,40.218],[-80.3508,40.1312],[-80.3617,40.05],[-80.3875,40.0031],[-80.3828,39.9844],[-80.3625,39.9547],[-80.3836,39.9477],[-80.3922,39.9359],[-80.4047,39.8234],[-80.4117,39.807],[-80.4328,39.7984],[-80.4375,39.7906],[-80.418,39.7313],[-80.4172,39.7063],[-80.4258,39.6812],[-80.4563,39.6438],[-80.4789,39.5977],[-80.507,39.4758],[-80.5328,39.2305],[-80.5359,39.0758],[-80.5281,39.05],[-80.5117,39.0453],[-80.5047,39.0344],[-80.4969,38.9828],[-80.4812,38.9656],[-80.4531,38.9547],[-80.3648,38.9453],[-80.3445,38.9359],[-80.3109,38.9031],[-80.2867,38.8516],[-80.2648,38.7477],[-80.2391,38.6703],[-80.218,38.6383],[-80.1734,38.6023],[-80.1594,38.5734],[-80.15,38.5125],[-80.157,38.4375],[-80.1852,38.3625],[-80.2156,38.3125],[-80.257,38.2633],[-80.3141,38.2172],[-80.3867,38.1742],[-80.5703,38.0969],[-80.6781,38.0406],[-80.7266,38.0031],[-80.7695,37.9492],[-80.8141,37.9141],[-80.8477,37.9023],[-80.9008,37.8977],[-80.9359,37.8766],[-80.9477,37.8508],[-80.9547,37.7852],[-80.9656,37.7641],[-80.9828,37.7523],[-81.0289,37.743],[-81.0484,37.7266],[-81.1062,37.6141],[-81.2125,37.5117],[-81.2312,37.4461],[-81.2164,37.3063],[-81.2203,37.2656],[-81.2336,37.2375],[-81.2766,37.207],[-81.2906,37.1891],[-81.3,37.1437],[-81.3164,37.1211],[-81.3547,37.1016],[-81.4148,37.0852],[-81.5359,37.068],[-81.6,37.0672],[-81.6609,37.0836],[-81.6953,37.1266],[-81.7188,37.1406],[-81.7656,37.15],[-81.8148,37.1477],[-81.843,37.1383],[-81.85,37.1219],[-81.8602,37.1148],[-81.9109,37.0984],[-82.3984,37.0109],[-82.4898,36.9852],[-82.5117,36.9664],[-82.5586,36.9758],[-82.6695,37.0148],[-82.7422,37.0172],[-82.7789,36.9992],[-82.8203,36.9492],[-82.8719,36.9141],[-82.9141,36.9023],[-83.0234,36.8906],[-83.0523,36.8766],[-83.0867,36.8336],[-83.1109,36.8203],[-83.1648,36.818],[-83.2375,36.8305],[-83.2875,36.8234],[-83.3375,36.8008],[-83.4375,36.7156],[-83.5125,36.6687],[-83.5625,36.6531],[-83.6352,36.6484],[-83.6891,36.6344],[-83.7133,36.6172],[-83.743,36.5758],[-83.7609,36.5672],[-83.782,36.568],[-83.818,36.582],[-83.8484,36.5797],[-83.8648,36.5664],[-83.8867,36.5328],[-83.9109,36.5156],[-83.9445,36.5047],[-84.0359,36.4984],[-84.0969,36.4844],[-84.1297,36.4672],[-84.1937,36.4156],[-84.2188,36.4047],[-84.2664,36.3969],[-84.2797,36.3812],[-84.2836,36.3531],[-84.2641,36.2445],[-84.2641,36.1977],[-84.2719,36.1781],[-84.2953,36.1617],[-84.3484,36.1508],[-84.4148,36.1547],[-84.443,36.1734],[-84.45,36.2063],[-84.4711,36.2266],[-84.5203,36.2406],[-84.5977,36.2484],[-84.7523,36.2492],[-84.8578,36.2422],[-84.893,36.2336],[-84.9047,36.2117],[-84.9156,36.2047],[-84.9836,36.1906],[-85.0141,36.1688],[-85.0656,36.1125],[-85.1125,36.0469],[-85.1313,36.0094],[-85.1281,36.0],[-85.1094,35.993],[-85.0969,35.9766],[-85.0484,35.8734],[-85.018,35.8523],[-84.9836,35.8461],[-84.9703,35.8266],[-84.9664,35.7914],[-84.9719,35.7406],[-84.9859,35.6812],[-85.0062,35.6344],[-85.0484,35.5875],[-85.1008,35.5648],[-85.1359,35.5391],[-85.1477,35.518],[-85.1539,35.4789],[-85.1734,35.4422],[-85.3703,35.2156],[-85.4289,35.1219],[-85.4938,34.9891],[-85.5188,34.9617],[-85.568,34.9461],[-85.5891,34.9266],[-85.6148,34.868],[-85.6453,34.7563],[-85.6688,34.7156],[-85.6984,34.6875],[-85.7516,34.6641],[-85.7937,34.6312],[-85.8141,34.6016],[-85.843,34.5352],[-85.8609,34.5141],[-85.882,34.5023],[-85.9164,34.4984],[-85.9297,34.4906],[-85.9336,34.4766],[-85.9219,34.4438],[-85.9211,34.4141],[-85.9492,34.3578],[-86.0367,34.2664],[-86.1047,34.2266],[-86.1461,34.2195],[-86.2359,34.2375],[-86.2477,34.2328],[-86.2539,34.2164],[-86.2891,34.2047],[-86.418,34.2016],[-86.4766,34.2156],[-86.4961,34.2328],[-86.5,34.2563],[-86.5102,34.2664],[-86.5609,34.2797],[-86.7133,34.282],[-86.9367,34.268],[-87.0484,34.2672],[-87.1195,34.2758],[-87.15,34.2937],[-87.15,34.3062],[-87.1594,34.3172],[-87.2063,34.3344],[-87.2438,34.3406],[-87.3469,34.3484],[-87.6562,34.3547],[-87.7406,34.3664],[-87.7641,34.3922],[-87.8516,34.4023],[-87.8813,34.4141],[-87.9141,34.4492],[-87.9375,34.5016],[-87.9844,34.5437],[-88.0312,34.5641],[-88.118,34.5859],[-88.1609,34.6062],[-88.1766,34.6187],[-88.1961,34.6484],[-88.2016,34.7],[-88.2156,34.7281],[-88.2328,34.7313],[-88.2789,34.7164],[-88.2984,34.7203],[-88.3148,34.7336],[-88.3516,34.7844],[-88.3937,34.8],[-88.4406,34.7922],[-88.4523,34.7656],[-88.4734,34.7469],[-88.5648,34.7141],[-88.593,34.7141],[-88.607,34.7383],[-88.6352,34.7477],[-88.6844,34.75],[-88.7172,34.7406],[-88.7547,34.7031],[-88.793,34.5969],[-88.8109,34.5687],[-88.832,34.5531],[-88.8672,34.5477],[-88.8844,34.5359],[-88.8984,34.5008],[-88.9094,34.4141],[-88.9234,34.3836],[-88.9664,34.3281],[-88.9797,34.2875],[-88.9836,34.2344],[-88.968,34.0977],[-88.9703,34.0203],[-88.9836,33.9883],[-89.018,33.9617],[-89.0391,33.9297],[-89.0648,33.8523],[-89.1031,33.6781],[-89.1156,33.6547],[-89.1359,33.6406],[-89.1359,33.6031],[-89.118,33.5148],[-89.1172,33.4766],[-89.1336,33.4367],[-89.1562,33.4219],[-89.1742,33.3977],[-89.1836,33.332],[-89.1719,33.2312],[-89.1625,33.1984],[-89.1344,33.1469],[-89.0938,33.1141],[-89.0688,33.1047],[-89.0094,33.1],[-88.9563,33.0812],[-88.9156,33.0375],[-88.9,33.0062],[-88.8781,32.925],[-88.868,32.8312],[-88.8672,32.7625],[-88.8703,32.7375],[-88.8836,32.7063],[-88.9289,32.6953],[-88.9484,32.6844],[-88.9859,32.6328],[-89.0062,32.6156],[-89.0328,32.6047],[-89.1023,32.5953],[-89.1195,32.5859],[-89.1664,32.5297],[-89.225,32.3992],[-89.25,32.3727],[-89.2812,32.3516],[-89.3625,32.3258],[-89.4688,32.3219],[-89.6766,32.3516],[-89.7586,32.382],[-89.7859,32.4164],[-89.8187,32.4328],[-89.8484,32.432],[-89.9359,32.4125],[-89.9477,32.4172],[-89.9539,32.4336],[-89.9734,32.4422],[-90.0906,32.45],[-90.1609,32.4406],[-90.1883,32.4266],[-90.1961,32.4172],[-90.2023,32.3813],[-90.2141,32.3562],[-90.3016,32.2727],[-90.3312,32.2047],[-90.3641,32.0383],[-90.4016,31.7016],[-90.432,31.6102],[-90.4437,31.6],[-90.468,31.5969],[-90.4891,31.5812],[-90.5148,31.5344],[-90.5375,31.4648],[-90.5844,31.4109],[-90.6312,31.3867],[-90.7195,31.3641],[-90.7703,31.3438],[-90.8289,31.3016],[-90.8695,31.2492],[-90.8984,31.2234],[-90.9305,31.207],[-91.0016,31.1969],[-91.0312,31.1812],[-91.0641,31.1344],[-91.1,31.025],[-90.9852,30.7222],[-90.8911,30.5383],[-90.8014,30.3955],[-90.7488,30.3406],[-90.72,30.32],[-90.6923,30.3064],[-90.6318,30.2915],[-90.4,30.28],[-90.08,30.2],[-89.7237,30.1659],[-89.15,30.05]]}},
{"type":"Feature","properties":{"id":"ohio-mississippi","nations":"ohio | mississippi","follows":"the rim of the Mississippi's basin around the Great Lakes: the waters that run to the lakes are the Ohio Region's"},"geometry":{"type":"LineString","coordinates":[[-92.9225,47.48],[-92.8797,47.5172],[-92.8469,47.5344],[-92.7859,47.5484],[-92.6813,47.5547],[-92.6594,47.5617],[-92.65,47.5781],[-92.6289,47.5859],[-92.5445,47.5859],[-92.2422,47.5625],[-92.207,47.5672],[-92.1961,47.5836],[-92.1766,47.5922],[-91.9844,47.6047],[-91.9375,47.6164],[-91.9117,47.6336],[-91.9023,47.6242],[-91.8906,47.5609],[-91.8766,47.543],[-91.8438,47.5219],[-91.8211,47.5164],[-91.8016,47.5203],[-91.7852,47.5336],[-91.7484,47.5844],[-91.718,47.5984],[-91.6937,47.6],[-91.6562,47.5859],[-91.6313,47.5648],[-91.5938,47.5156],[-91.5883,47.4992],[-91.5984,47.4734],[-91.6367,47.457],[-91.7875,47.4461],[-91.825,47.4383],[-91.8906,47.4109],[-91.9438,47.368],[-92.0242,47.2563],[-92.0898,47.2],[-92.2281,47.1437],[-92.2797,47.1016],[-92.3219,47.0484],[-92.3875,47.0062],[-92.4469,46.9859],[-92.5547,46.9625],[-92.6219,46.9344],[-92.7109,46.8688],[-92.7875,46.7813],[-92.8625,46.7156],[-92.9125,46.6875],[-92.9844,46.6648],[-93.0312,46.6391],[-93.0469,46.618],[-93.0516,46.582],[-93.0656,46.5516],[-93.118,46.5117],[-93.1391,46.4797],[-93.1648,46.4023],[-93.1781,46.3312],[-93.1766,46.268],[-93.1562,46.2203],[-93.1391,46.2023],[-93.0906,46.1781],[-93.0086,46.1641],[-92.9617,46.1641],[-92.9406,46.1883],[-92.9187,46.1953],[-92.7688,46.2078],[-92.7531,46.2164],[-92.7438,46.2344],[-92.6875,46.2531],[-92.3875,46.3031],[-92.3562,46.3156],[-92.3453,46.3336],[-92.3219,46.3422],[-92.0781,46.3578],[-92.0547,46.3664],[-92.0477,46.3836],[-92.0359,46.3922],[-91.9234,46.4047],[-91.907,46.4117],[-91.8969,46.4344],[-91.8688,46.4531],[-91.7875,46.4781],[-91.7422,46.4836],[-91.6859,46.4742],[-91.6297,46.4336],[-91.5969,46.4203],[-91.5359,46.418],[-91.4641,46.4305],[-91.4219,46.4234],[-91.3859,46.4008],[-91.3703,46.3836],[-91.3305,46.3156],[-91.2859,46.2688],[-91.2523,46.2531],[-91.1734,46.2406],[-91.157,46.2266],[-91.1445,46.1836],[-91.0953,46.1672],[-90.8328,46.1875],[-90.8055,46.1828],[-90.7961,46.1664],[-90.7609,46.1547],[-90.6086,46.1523],[-90.5617,46.1617],[-90.5469,46.1836],[-90.5188,46.1953],[-90.3812,46.2047],[-90.3594,46.2117],[-90.35,46.2281],[-90.3352,46.2328],[-90.2016,46.2375],[-89.9344,46.2281],[-89.6227,46.207],[-89.4445,46.1789],[-89.4,46.1562],[-89.407,46.1211],[-89.4234,46.1016],[-89.5312,46.0484],[-89.5641,46.018],[-89.593,45.9734],[-89.632,45.9516],[-89.668,45.9516],[-89.6891,45.9594],[-89.7148,45.9828],[-89.7367,46.0172],[-89.7766,46.0406],[-89.8375,46.05],[-89.9031,46.0406],[-89.9187,46.0312],[-89.9406,46.0031],[-89.9523,45.9148],[-89.9734,45.8609],[-89.9992,45.8367],[-90.0344,45.8219],[-90.0695,45.7812],[-90.1164,45.65],[-90.1695,45.3609],[-90.2141,45.1875],[-90.2477,45.1109],[-90.3148,45.0258],[-90.343,44.9602],[-90.35,44.8875],[-90.3406,44.8266],[-90.3172,44.7867],[-90.2656,44.7484],[-90.2547,44.7289],[-90.25,44.6937],[-90.2656,44.6516],[-90.3172,44.6117],[-90.3344,44.5797],[-90.3453,44.532],[-90.3594,44.3469],[-90.3828,44.3047],[-90.4266,44.2953],[-90.4406,44.2844],[-90.4547,44.2234],[-90.4656,44.2094],[-90.4828,44.2016],[-90.5172,44.1984],[-90.5406,44.1844],[-90.5484,44.1672],[-90.5547,44.1156],[-90.5617,44.1047],[-90.5828,44.0961],[-90.5859,44.0414],[-90.5664,43.9086],[-90.5758,43.8617],[-90.5938,43.85],[-90.618,43.8484],[-90.6484,43.8344],[-90.6859,43.7828],[-90.7062,43.7656],[-90.7328,43.7547],[-90.7844,43.75],[-90.8172,43.7383],[-90.8547,43.6914],[-90.9031,43.5234],[-90.9156,43.5039],[-90.9336,43.4961],[-90.9422,43.4766],[-90.9516,43.3305],[-90.9656,43.2578],[-90.9828,43.2211],[-91.0266,43.1641],[-91.0453,43.1078],[-91.05,43.0375],[-91.0445,43.0156],[-91.0336,42.9969],[-90.9953,42.9688],[-90.968,42.9594],[-90.8969,42.95],[-90.7797,42.9523],[-90.7047,42.9617],[-90.6547,42.9875],[-90.65,42.9719],[-90.6391,42.9664],[-90.5406,42.9547],[-90.1141,42.9523],[-89.9828,42.9617],[-89.95,42.9719],[-89.9383,42.9883],[-89.9109,42.9953],[-89.7234,43.0078],[-89.7039,43.0164],[-89.6906,43.0422],[-89.632,43.0531],[-89.6109,43.0687],[-89.5852,43.1156],[-89.5625,43.1852],[-89.5156,43.2391],[-89.4688,43.2633],[-89.3812,43.2852],[-89.3156,43.3109],[-89.2875,43.332],[-89.2641,43.368],[-89.2313,43.3984],[-89.1484,43.4359],[-89.1187,43.4563],[-89.0859,43.4984],[-89.0484,43.5766],[-89.0289,43.593],[-88.9828,43.6023],[-88.9656,43.6141],[-88.9547,43.6352],[-88.9453,43.7008],[-88.9359,43.7148],[-88.9031,43.7359],[-88.8188,43.75],[-88.6969,43.7406],[-88.6547,43.7172],[-88.6453,43.6734],[-88.6344,43.6594],[-88.6172,43.6516],[-88.5656,43.6453],[-88.5547,43.6383],[-88.55,43.6219],[-88.5406,43.6141],[-88.5031,43.6141],[-88.4375,43.6281],[-88.4148,43.6258],[-88.3945,43.6148],[-88.3766,43.5953],[-88.3609,43.5672],[-88.3367,43.4852],[-88.318,43.3125],[-88.3172,43.2187],[-88.3258,43.15],[-88.3438,43.1062],[-88.3906,43.0437],[-88.4047,42.9781],[-88.4281,42.9375],[-88.4984,42.8531],[-88.625,42.7203],[-88.6562,42.6781],[-88.6625,42.6547],[-88.6328,42.6477],[-88.6156,42.6359],[-88.6047,42.6148],[-88.5906,42.5234],[-88.5672,42.5023],[-88.5438,42.5],[-88.5188,42.4883],[-88.4938,42.4609],[-88.4289,42.3297],[-88.3922,42.275],[-88.3461,42.2266],[-88.232,42.1469],[-88.1734,42.0906],[-88.1539,42.0531],[-88.1477,41.9969],[-88.1266,41.9406],[-88.0187,41.8047],[-87.9953,41.7602],[-87.9484,41.6313],[-87.9289,41.6094],[-87.8828,41.5977],[-87.8594,41.5766],[-87.8453,41.4852],[-87.8266,41.457],[-87.7562,41.4406],[-87.6773,41.3828],[-87.6047,41.3594],[-87.4969,41.35],[-87.3328,41.3578],[-87.3055,41.3664],[-87.293,41.3883],[-87.2766,41.3953],[-87.1641,41.4078],[-87.1313,41.4469],[-86.9812,41.4969],[-86.9594,41.5094],[-86.9461,41.5344],[-86.9266,41.5469],[-86.7805,41.5852],[-86.7078,41.6109],[-86.6117,41.6789],[-86.5703,41.6984],[-86.4594,41.7281],[-86.4305,41.7305],[-86.3797,41.7234],[-86.3578,41.7141],[-86.3211,41.6836],[-86.2805,41.6156],[-86.2359,41.5687],[-86.2023,41.5531],[-86.1484,41.5484],[-86.1062,41.5344],[-86.0484,41.4703],[-86.018,41.468],[-85.982,41.4805],[-85.9609,41.4734],[-85.943,41.4508],[-85.9219,41.3875],[-85.9086,41.3664],[-85.8609,41.3359],[-85.8266,41.3266],[-85.7367,41.3195],[-85.5148,41.3289],[-85.4391,41.3141],[-85.3914,41.2836],[-85.3781,41.2625],[-85.3469,41.1687],[-85.3344,41.1531],[-85.3164,41.1469],[-85.3078,41.1312],[-85.2969,41.0133],[-85.2688,40.9453],[-85.2344,40.9039],[-85.1656,40.8477],[-85.1187,40.7984],[-85.1031,40.7695],[-85.0906,40.7156],[-85.0766,40.7047],[-85.0328,40.6984],[-85.0094,40.6844],[-84.9969,40.632],[-84.9812,40.6109],[-84.9531,40.593],[-84.8656,40.5625],[-84.8312,40.5344],[-84.8187,40.5156],[-84.8031,40.4688],[-84.7984,40.382],[-84.7844,40.3234],[-84.7672,40.3039],[-84.7094,40.2922],[-84.6953,40.2664],[-84.6719,40.2578],[-84.5687,40.25],[-84.4281,40.2578],[-84.4047,40.2664],[-84.3906,40.2883],[-84.3687,40.2953],[-84.2188,40.3078],[-84.2031,40.3164],[-84.1977,40.3344],[-84.1766,40.3531],[-84.1156,40.3781],[-84.0852,40.3812],[-84.057,40.3625],[-84.0453,40.2805],[-84.0266,40.2336],[-83.9937,40.1938],[-83.9516,40.1703],[-83.9023,40.168],[-83.8484,40.1859],[-83.8062,40.2188],[-83.7859,40.2484],[-83.7719,40.2844],[-83.7477,40.3125],[-83.7297,40.3219],[-83.682,40.3313],[-83.5812,40.3219],[-83.4922,40.2984],[-83.4383,40.268],[-83.4141,40.2328],[-83.3938,40.2156],[-83.3516,40.2016],[-83.3156,40.2],[-83.2734,40.2211],[-83.225,40.2703],[-83.1703,40.3477],[-83.0766,40.5023],[-83.0422,40.5445],[-82.9688,40.6078],[-82.8891,40.643],[-82.732,40.6547],[-82.6828,40.6656],[-82.6555,40.6828],[-82.6477,40.7164],[-82.6266,40.7328],[-82.5141,40.7125],[-82.5023,40.7172],[-82.4969,40.7336],[-82.4812,40.7422],[-82.3672,40.7516],[-82.3406,40.7594],[-82.3328,40.7734],[-82.3359,40.7828],[-82.3664,40.8195],[-82.3828,40.8641],[-82.3781,40.9156],[-82.3602,40.9492],[-82.3203,40.9672],[-82.2922,40.9703],[-82.2195,40.9648],[-82.0812,40.9359],[-82.0437,40.9328],[-81.9875,40.9406],[-81.9562,40.9672],[-81.9406,41.0508],[-81.9187,41.0734],[-81.9031,41.0789],[-81.7609,41.0625],[-81.7094,41.0813],[-81.6906,41.0625],[-81.6719,41.0156],[-81.65,40.9852],[-81.5938,40.957],[-81.4156,40.9422],[-81.3875,40.9336],[-81.3578,40.9125],[-81.3508,40.9172],[-81.3453,40.9383],[-81.3344,40.9453],[-81.2828,40.9484],[-81.2594,40.9344],[-81.2477,40.8828],[-81.2266,40.8594],[-81.2008,40.8516],[-81.1234,40.8453],[-81.1023,40.8336],[-81.0906,40.8117],[-81.0531,40.8023],[-80.9656,40.8016],[-80.9188,40.8156],[-80.9031,40.8328],[-80.8953,40.8844],[-80.8781,40.9],[-80.8578,40.8953],[-80.8469,40.8656],[-80.8031,40.8406],[-80.7375,40.8219],[-80.6766,40.8219],[-80.6367,40.85],[-80.607,40.9148],[-80.5789,40.943],[-80.5563,40.95],[-80.5312,40.9484],[-80.4812,40.9266]]}},
{"type":"Feature","properties":{"id":"canada-ohio","nations":"canada | ohio","follows":"the Laurentian Divide to the Pigeon River, the middle of Lakes Superior and Huron, the St Clair and Detroit rivers and the middle of Lake Erie"},"geometry":{"type":"LineString","coordinates":[[-92.9225,47.48],[-92.2,47.65],[-91.3909,47.8787],[-90.9384,47.977],[-90.6668,48.0235],[-90.4881,48.0439],[-90.3187,48.0519],[-90.1597,48.0444],[-89.7649,48.0045],[-89.6,48.0],[-89.4096,48.014],[-88.9153,48.0856],[-88.707,48.1007],[-88.6,48.1],[-88.334,48.0802],[-88.0546,48.0423],[-87.7682,47.9895],[-87.4812,47.9244],[-87.2,47.85],[-86.9128,47.7588],[-86.6233,47.6508],[-86.3374,47.5333],[-85.2842,47.0775],[-85.0954,46.9883],[-84.9258,46.897],[-84.7552,46.7804],[-84.4885,46.532],[-84.3466,46.4207],[-84.2101,46.3236],[-84.008,46.1924],[-83.5256,45.9043],[-83.1901,45.7122],[-83.0211,45.6011],[-82.8673,45.4725],[-82.8,45.4],[-82.6642,45.2128],[-82.6013,45.1077],[-82.4878,44.882],[-82.3943,44.646],[-82.3246,44.4122],[-82.3,44.3],[-82.2777,44.0951],[-82.2766,43.9904],[-82.2889,43.781],[-82.3918,42.9469],[-82.431,42.7958],[-82.4684,42.7138],[-82.5104,42.6471],[-82.5587,42.5866],[-82.7,42.45],[-82.7837,42.3959],[-83.0313,42.2781],[-83.0661,42.2536],[-83.0899,42.2278],[-83.1,42.2],[-83.096,42.1668],[-83.0537,42.0891],[-82.9755,42.006],[-82.9266,41.966],[-82.8166,41.8964],[-82.7,41.85],[-82.5914,41.8344],[-82.4644,41.8377],[-82.3224,41.8566],[-82.0076,41.9283],[-81.3501,42.114],[-79.9,42.45]]}},
{"type":"Feature","properties":{"id":"canada-mississippi","nations":"canada | mississippi","follows":"the rim of the Mississippi's basin: the Missouri Coteau, Lake Traverse and the heights above the Red River of the North"},"geometry":{"type":"LineString","coordinates":[[-100.555,47.6725],[-100.55,47.6438],[-100.5594,47.6109],[-100.5828,47.5852],[-100.6164,47.5641],[-100.6328,47.5312],[-100.6281,47.4844],[-100.6023,47.4375],[-100.5734,47.4219],[-100.5352,47.4187],[-100.4188,47.4375],[-100.4031,47.4328],[-100.3961,47.4164],[-100.3766,47.4078],[-100.1891,47.3906],[-100.1539,47.3672],[-100.1453,47.3234],[-100.1344,47.3094],[-100.1172,47.3016],[-100.0656,47.2953],[-100.0516,47.2836],[-100.0477,47.2672],[-100.0359,47.2625],[-100.0008,47.2672],[-99.9352,47.2906],[-99.907,47.3094],[-99.8977,47.3336],[-99.8859,47.3422],[-99.8508,47.3492],[-99.7992,47.3492],[-99.757,47.3383],[-99.7469,47.3164],[-99.7312,47.3078],[-99.6141,47.2984],[-99.5531,47.2844],[-99.5203,47.2672],[-99.4937,47.2437],[-99.4688,47.2352],[-99.4563,47.2391],[-99.4313,47.2633],[-99.3797,47.3672],[-99.3641,47.3891],[-99.3281,47.4188],[-99.2859,47.4297],[-99.1945,47.4164],[-99.1609,47.4203],[-99.1367,47.4336],[-99.1023,47.4766],[-99.0555,47.4953],[-98.9648,47.4984],[-98.9109,47.4844],[-98.8867,47.4672],[-98.8484,47.4156],[-98.8289,47.4047],[-98.7812,47.3961],[-98.7562,47.3766],[-98.7312,47.3414],[-98.6805,47.2312],[-98.6516,47.1844],[-98.6023,47.1375],[-98.5328,47.1],[-98.5062,47.0656],[-98.4781,46.9906],[-98.4625,46.8891],[-98.4672,46.8539],[-98.4883,46.843],[-98.4977,46.8148],[-98.5,46.7656],[-98.4906,46.7234],[-98.4766,46.707],[-98.432,46.6977],[-98.4016,46.6766],[-98.357,46.5852],[-98.3391,46.5641],[-98.318,46.5523],[-98.2562,46.5406],[-98.1937,46.4937],[-98.1594,46.4359],[-98.1453,46.3305],[-98.1172,46.2695],[-98.0562,46.2156],[-98.0188,46.2016],[-97.9937,46.2],[-97.9758,46.1883],[-97.9664,46.1414],[-97.9781,46.0594],[-97.9766,46.0039],[-97.9563,45.9578],[-97.9391,45.9383],[-97.8906,45.9062],[-97.7734,45.8516],[-97.7539,45.8352],[-97.7477,45.8164],[-97.7359,45.8078],[-97.6484,45.7984],[-97.6062,45.7844],[-97.5859,45.7672],[-97.5633,45.7336],[-97.5391,45.7203],[-97.4852,45.718],[-97.3687,45.7375],[-97.3531,45.7328],[-97.3484,45.7164],[-97.3344,45.7047],[-97.2688,45.6906],[-97.2312,45.6531],[-97.1797,45.5664],[-97.1641,45.5492],[-97.1281,45.5266],[-97.0859,45.5195],[-97.0156,45.5344],[-96.9688,45.5531],[-96.9531,45.5656],[-96.9453,45.5836],[-96.9219,45.5922],[-96.8516,45.5992],[-96.7484,45.5984],[-96.6781,45.5844],[-96.6547,45.5672],[-96.6477,45.5328],[-96.6359,45.5156],[-96.6008,45.5016],[-96.5141,45.4922],[-96.5023,45.4836],[-96.4953,45.4625],[-96.4594,45.4836],[-96.4156,45.4922],[-96.1969,45.5],[-96.1031,45.5141],[-96.0656,45.5281],[-96.0094,45.5703],[-95.9781,45.6313],[-95.9469,45.7719],[-95.9344,45.7953],[-95.9164,45.8047],[-95.9078,45.8281],[-95.8953,46.0531],[-95.8883,46.0859],[-95.8781,46.1],[-95.8672,46.1039],[-95.8625,46.1234],[-95.8812,46.268],[-95.8781,46.3109],[-95.8625,46.3383],[-95.8344,46.35],[-95.8156,46.35],[-95.7687,46.3359],[-95.7359,46.3008],[-95.7141,46.2492],[-95.6937,46.2234],[-95.6516,46.2023],[-95.5641,46.1922],[-95.5523,46.1836],[-95.543,46.1641],[-95.5148,46.1641],[-95.4656,46.1781],[-95.4352,46.2047],[-95.407,46.2797],[-95.3953,46.4727],[-95.3844,46.5328],[-95.3672,46.5773],[-95.3156,46.6484],[-95.3016,46.6977],[-95.3,46.7344],[-95.307,46.7719],[-95.3234,46.8094],[-95.4008,46.9047],[-95.4266,46.95],[-95.4477,47.0297],[-95.4484,47.118],[-95.4406,47.1609],[-95.4266,47.1883],[-95.382,47.2063],[-95.3609,47.2375],[-95.343,47.2938],[-95.3219,47.425],[-95.3023,47.5039],[-95.2891,47.5328],[-95.2555,47.5695],[-95.2125,47.5781],[-95.1109,47.5625],[-95.0867,47.5672],[-95.0656,47.5828],[-95.0469,47.5875],[-95.0219,47.5719],[-95.0047,47.5687],[-94.9672,47.5875],[-94.893,47.6508],[-94.8359,47.6766],[-94.7211,47.6977],[-94.5789,47.7023],[-94.4984,47.7141],[-94.407,47.7492],[-94.3445,47.8008],[-94.2953,47.8266],[-94.2039,47.8477],[-94.0984,47.8492],[-94.0141,47.8383],[-94.0,47.8281],[-93.9961,47.8164],[-93.9766,47.8078],[-93.8328,47.7977],[-93.7937,47.7859],[-93.7734,47.7648],[-93.7703,47.7508],[-93.7836,47.6852],[-93.7742,47.657],[-93.6937,47.6344],[-93.6187,47.5734],[-93.5812,47.5547],[-93.5438,47.55],[-93.5109,47.5641],[-93.493,47.5852],[-93.4609,47.65],[-93.425,47.6719],[-93.3703,47.6813],[-93.2969,47.6781],[-93.2141,47.6633],[-93.15,47.6391],[-93.125,47.6234],[-93.0891,47.5852],[-93.0484,47.4813],[-93.018,47.4531],[-92.9687,47.4547],[-92.9225,47.48]]}},
{"type":"Feature","properties":{"id":"canada-atlantica","nations":"canada | atlantica","follows":"the Niagara, Lake Ontario and the St Lawrence to Lake St Francis, then the watershed between the St Lawrence and the Atlantic, and the St Croix"},"geometry":{"type":"LineString","coordinates":[[-79.9,42.45],[-79.6988,42.5281],[-79.2647,42.6813],[-79.0953,42.7622],[-79.0364,42.8051],[-79.0,42.85],[-78.9911,42.8739],[-78.9896,42.9236],[-79.056,43.1211],[-79.0994,43.2229],[-79.106,43.2811],[-79.0772,43.3342],[-79.0413,43.3685],[-78.9941,43.4027],[-78.8729,43.4687],[-78.6521,43.5554],[-78.5,43.6],[-78.39,43.6199],[-78.2678,43.6286],[-78.1364,43.6292],[-77.7155,43.6111],[-77.4416,43.6118],[-77.3153,43.6247],[-77.2,43.65],[-77.1133,43.6804],[-77.0311,43.7176],[-76.8774,43.8069],[-76.5926,44.0087],[-76.45,44.1],[-75.9958,44.3398],[-75.8,44.45],[-75.6499,44.5491],[-75.3415,44.7745],[-75.1915,44.875],[-75.1194,44.9165],[-74.9524,44.9908],[-74.8089,45.0411],[-74.7191,45.0594],[-74.6372,45.0589],[-74.5685,45.0356],[-74.5125,44.9903],[-74.4633,44.9288],[-74.2981,44.667],[-74.1,44.3],[-73.8,43.85],[-73.7507,43.7521],[-73.6634,43.5418],[-73.613,43.4558],[-73.5835,43.4233],[-73.55,43.4],[-73.4779,43.3773],[-73.4368,43.3728],[-73.3495,43.3763],[-73.2214,43.4103],[-73.15,43.45],[-73.1141,43.4832],[-73.0541,43.5752],[-73.0056,43.6908],[-72.8792,44.0557],[-72.7763,44.4019],[-72.7296,44.5045],[-72.7,44.55],[-72.6364,44.6248],[-72.5643,44.6905],[-72.484,44.7487],[-72.3,44.85],[-72.2326,44.8779],[-72.0803,44.9213],[-71.7423,44.9873],[-71.5772,45.0258],[-71.3613,45.1001],[-71.1581,45.1817],[-71.029,45.2431],[-70.9074,45.3121],[-70.746,45.4281],[-70.647,45.5136],[-70.555,45.6052],[-70.472,45.7012],[-70.4,45.8],[-70.3267,45.9452],[-70.2214,46.2513],[-70.1146,46.4817],[-70.0152,46.6591],[-69.8977,46.8168],[-69.7096,47.0442],[-69.5645,47.1939],[-69.488,47.2607],[-69.4097,47.319],[-69.3301,47.3663],[-69.25,47.4],[-69.1716,47.4191],[-69.0889,47.4277],[-68.9148,47.4197],[-68.6481,47.3666],[-68.0588,47.2148],[-67.937,47.1654],[-67.8841,47.1335],[-67.838,47.0953],[-67.8,47.05],[-67.7687,46.9821],[-67.7536,46.8997],[-67.7511,46.8059],[-67.7576,46.7039],[-67.7941,46.3811],[-67.7999,46.2785],[-67.7964,46.1837],[-67.78,46.1],[-67.7577,46.0409],[-67.6978,45.9333],[-67.5131,45.6962],[-67.45,45.6],[-67.4061,45.5088],[-67.2971,45.2359],[-67.221,45.1073],[-67.1216,44.9861],[-66.9367,44.7906],[-66.5,44.3]]}},
{"type":"Feature","properties":{"id":"canada-cascadia","nations":"canada | cascadia","follows":"the Strait of Juan de Fuca and Haro Strait, the crest between the Fraser and the Skagit, the northern rim of the Columbia's basin, and the northern rim of the Missouri's"},"geometry":{"type":"LineString","coordinates":[[-125.6,48.45],[-124.4605,48.3193],[-124.098,48.2927],[-123.6811,48.2513],[-123.4971,48.2472],[-123.4188,48.2552],[-123.3523,48.2723],[-123.3,48.3],[-123.2757,48.3246],[-123.2473,48.3891],[-123.2138,48.6191],[-123.2,48.65],[-123.1669,48.6972],[-123.1074,48.759],[-122.8933,48.9495],[-122.8515,48.9775],[-122.8,49.0],[-122.7426,49.0137],[-122.5991,49.0235],[-122.0791,48.9992],[-121.7305,49.0151],[-121.1983,49.0688],[-120.8618,49.1183],[-120.8328,49.1359],[-120.8156,49.1562],[-120.8016,49.1984],[-120.8,49.2344],[-120.8117,49.2672],[-120.8586,49.3047],[-120.9688,49.3383],[-120.9937,49.3523],[-121.0344,49.3922],[-121.0625,49.4477],[-121.1031,49.6219],[-121.1156,49.6453],[-121.1328,49.6516],[-121.1375,49.6594],[-121.118,49.718],[-121.1203,49.7484],[-121.1336,49.7648],[-121.1766,49.793],[-121.1906,49.8109],[-121.2094,49.8844],[-121.2328,49.8984],[-121.2672,49.9031],[-121.2844,49.9187],[-121.2984,49.9656],[-121.3023,50.0344],[-121.3234,50.0813],[-121.3492,50.0969],[-121.4023,50.107],[-121.4359,50.1422],[-121.4664,50.2055],[-121.5195,50.4031],[-121.5641,50.5156],[-121.5977,50.5594],[-121.6508,50.5883],[-121.6766,50.6203],[-121.693,50.668],[-121.7,50.7312],[-121.6922,50.8797],[-121.6703,50.9375],[-121.6813,50.9656],[-121.7328,51.0313],[-121.8609,51.1703],[-121.8883,51.2117],[-121.9023,51.2672],[-121.9141,51.2844],[-121.9492,51.2984],[-122.0008,51.3031],[-122.0266,51.3187],[-122.0477,51.3656],[-122.0477,51.4508],[-122.0422,51.4734],[-122.0336,51.4805],[-122.0133,51.4672],[-121.9734,51.4625],[-121.8312,51.4875],[-121.8031,51.4828],[-121.7969,51.4664],[-121.7688,51.4547],[-121.6875,51.45],[-121.6469,51.457],[-121.6094,51.4852],[-121.5953,51.55],[-121.5859,51.5625],[-121.5719,51.5719],[-121.5297,51.5813],[-121.4688,51.5781],[-121.3469,51.5531],[-121.3047,51.5344],[-121.2984,51.5172],[-121.2906,51.5125],[-121.2563,51.5219],[-121.2336,51.5375],[-121.2203,51.5656],[-121.2164,51.6062],[-121.232,51.718],[-121.2297,51.7766],[-121.2164,51.7961],[-121.1656,51.8094],[-121.1516,51.8328],[-121.15,51.8562],[-121.1617,51.8789],[-121.1891,51.8984],[-121.3438,51.9477],[-121.4,51.9945],[-121.4219,52.0375],[-121.4289,52.0852],[-121.4141,52.1234],[-121.3773,52.1523],[-121.2812,52.1781],[-121.1641,52.1859],[-121.1289,52.157],[-121.0445,52.1289],[-120.8969,52.0938],[-120.7703,52.0797],[-120.7211,52.0898],[-120.707,52.1008],[-120.7,52.1156],[-120.6977,52.1625],[-120.6883,52.1813],[-120.657,52.1641],[-120.6391,52.1625],[-120.5594,52.1875],[-120.5516,52.1828],[-120.543,52.1617],[-120.5266,52.1547],[-120.4656,52.15],[-120.4398,52.1617],[-120.4297,52.1891],[-120.4437,52.2594],[-120.4984,52.3766],[-120.5148,52.3961],[-120.5336,52.4047],[-120.4656,52.4984],[-120.4516,52.5477],[-120.4516,52.6008],[-120.4656,52.6359],[-120.4828,52.6477],[-120.5172,52.6555],[-120.5344,52.6828],[-120.5453,52.732],[-120.55,52.8469],[-120.5422,52.8836],[-120.5266,52.9133],[-120.5031,52.9359],[-120.4719,52.9516],[-120.4328,52.9602],[-120.3859,52.9617],[-120.3312,52.9563],[-120.2141,52.9305],[-120.0969,52.8859],[-120.0578,52.8523],[-120.043,52.7828],[-120.0266,52.7562],[-120.0008,52.7359],[-119.9141,52.6969],[-119.9023,52.6844],[-119.9,52.6719],[-119.8883,52.6641],[-119.8414,52.6641],[-119.7086,52.6859],[-119.6617,52.6859],[-119.65,52.6781],[-119.6469,52.6664],[-119.6313,52.6578],[-119.4812,52.6453],[-119.4594,52.6383],[-119.4461,52.6156],[-119.4109,52.5969],[-119.3094,52.5719],[-119.2539,52.5664],[-119.1883,52.5758],[-119.1164,52.6195],[-119.0859,52.6172],[-119.0344,52.5844],[-118.9828,52.5258],[-118.9453,52.4602],[-118.9219,52.3875],[-118.9,52.3469],[-118.8656,52.3187],[-118.8188,52.3031],[-118.732,52.3016],[-118.6891,52.3094],[-118.6617,52.3234],[-118.65,52.3438],[-118.6453,52.3766],[-118.6344,52.3906],[-118.5828,52.4023],[-118.5656,52.4141],[-118.5547,52.4352],[-118.5461,52.5],[-118.5266,52.5219],[-118.468,52.5312],[-118.3234,52.5125],[-118.3039,52.5172],[-118.2953,52.5383],[-118.2844,52.5453],[-118.2437,52.55],[-118.2234,52.543],[-118.2094,52.5266],[-118.1969,52.4492],[-118.1813,52.4234],[-118.1531,52.407],[-118.0648,52.3969],[-118.0266,52.3812],[-117.9977,52.3531],[-117.9719,52.2875],[-117.9547,52.2648],[-117.8875,52.2266],[-117.8375,52.2109],[-117.6219,52.1781],[-117.3172,52.1672],[-117.2703,52.1703],[-117.2117,52.1836],[-117.2,52.1937],[-117.1945,52.2172],[-117.1453,52.2406],[-117.0469,52.25],[-116.9641,52.2469],[-116.9,52.2312],[-116.8547,52.2031],[-116.8281,52.1625],[-116.8094,52.0992],[-116.7906,52.0711],[-116.7781,52.0719],[-116.75,52.0883],[-116.6937,52.0977],[-116.6094,52.1],[-116.5586,52.0859],[-116.5391,52.0719],[-116.5117,52.0297],[-116.5039,52.0016],[-116.4953,51.8656],[-116.4844,51.8125],[-116.4672,51.7719],[-116.432,51.7273],[-116.4109,51.6828],[-116.3523,51.4297],[-116.3234,51.375],[-116.3055,51.3547],[-116.2852,51.3391],[-116.1875,51.3023],[-116.1375,51.2734],[-116.0125,51.1656],[-115.9375,51.1188],[-115.8875,51.1031],[-115.7719,51.0906],[-115.7203,51.0672],[-115.6937,51.0437],[-115.6656,51.0063],[-115.6516,50.9688],[-115.6453,50.9156],[-115.6383,50.9047],[-115.6078,50.8906],[-115.5906,50.8211],[-115.5531,50.793],[-115.4188,50.7469],[-115.4031,50.7344],[-115.3953,50.7141],[-115.3766,50.7141],[-115.3328,50.732],[-115.3156,50.7328],[-115.3016,50.7164],[-115.2969,50.6852],[-115.2812,50.6797],[-115.2344,50.7008],[-115.1422,50.7625],[-115.1031,50.7781],[-115.0563,50.7781],[-115.0234,50.7547],[-115.0047,50.7172],[-114.9906,50.6234],[-114.9766,50.607],[-114.9313,50.5938],[-114.9062,50.5625],[-114.8688,50.4688],[-114.8062,50.2578],[-114.7812,50.207],[-114.732,50.1602],[-114.7109,50.1203],[-114.693,50.0586],[-114.6625,49.8813],[-114.6344,49.8125],[-114.5938,49.7687],[-114.5406,49.75],[-114.4609,49.7406],[-114.4313,49.7188],[-114.4234,49.7031],[-114.4219,49.6625],[-114.4281,49.6375],[-114.4563,49.5812],[-114.4984,49.5531],[-114.5648,49.543],[-114.5859,49.5266],[-114.5977,49.5008],[-114.6,49.4656],[-114.5906,49.4258],[-114.5687,49.3828],[-114.5344,49.3367],[-114.4609,49.2648],[-114.3719,49.2109],[-114.3047,49.1867],[-114.1703,49.157],[-114.1141,49.1289],[-114.1,49.1062],[-114.0984,49.082],[-114.0844,49.0516],[-114.0328,49.0141],[-114.0156,48.9938],[-114.0047,48.9672],[-113.9961,48.8992],[-113.9766,48.8734],[-113.918,48.8523],[-113.8312,48.8461],[-113.7844,48.8266],[-113.75,48.7914],[-113.7281,48.7406],[-113.7125,48.6813],[-113.6844,48.6344],[-113.6656,48.6156],[-113.6188,48.5875],[-113.4174,48.5265],[-113.3984,48.5688],[-113.3789,48.5906],[-113.3297,48.6031],[-113.2969,48.6188],[-113.2578,48.6469],[-113.1617,48.7344],[-113.0797,48.7812],[-113.0211,48.7969],[-112.8844,48.8094],[-112.85,48.8234],[-112.8117,48.8672],[-112.7797,48.8844],[-112.7023,48.8984],[-112.5281,48.9078],[-112.5047,48.9164],[-112.493,48.9383],[-112.4648,48.9477],[-112.4156,48.95],[-112.3734,48.9406],[-112.357,48.9266],[-112.3422,48.8828],[-112.3031,48.8656],[-112.1859,48.8516],[-111.8969,48.8422],[-111.8578,48.8336],[-111.8406,48.8078],[-111.8063,48.8],[-111.7812,48.8023],[-111.7438,48.8234],[-111.6805,48.9008],[-111.6516,48.9266],[-111.6195,48.943],[-111.5844,48.95],[-111.5477,48.9484],[-111.4984,48.9344],[-111.4281,48.8828],[-111.3625,48.8594],[-111.2313,48.85],[-111.1422,48.8641],[-111.1203,48.8734],[-111.0883,48.8992],[-111.0633,48.9508],[-111.0234,48.9859],[-110.9852,48.9977],[-110.8945,49.007],[-110.8609,49.0234],[-110.8367,49.0492],[-110.8023,49.1148],[-110.7734,49.1359],[-110.7352,49.1477],[-110.6469,49.1547],[-110.6094,49.1734],[-110.5906,49.2344],[-110.5672,49.2484],[-110.5328,49.2531],[-110.5094,49.2812],[-110.493,49.4125],[-110.4766,49.4625],[-110.4508,49.5125],[-110.3828,49.6008],[-110.3562,49.6234],[-110.3359,49.6305],[-110.3109,49.6164],[-110.275,49.6078],[-110.1031,49.6],[-109.975,49.6078],[-109.9391,49.6164],[-109.9047,49.6375],[-109.8977,49.6156],[-109.8766,49.5969],[-109.8156,49.5719],[-109.7805,49.5664],[-109.7336,49.5758],[-109.6562,49.6297],[-109.6188,49.632],[-109.5594,49.6125],[-109.5516,49.6172],[-109.5469,49.6336],[-109.5312,49.6422],[-109.3812,49.6547],[-109.3531,49.6664],[-109.35,49.6781],[-109.3219,49.6859],[-109.2094,49.6859],[-109.0125,49.6719],[-108.8438,49.6484],[-108.7781,49.6289],[-108.7594,49.618],[-108.75,49.6062],[-108.7453,49.582],[-108.7219,49.5609],[-108.6516,49.5352],[-108.4781,49.4969],[-108.4547,49.4844],[-108.4453,49.4578],[-108.4281,49.45],[-108.4117,49.4547],[-108.4047,49.4656],[-108.3977,49.5242],[-108.3883,49.5336],[-108.3594,49.5164],[-108.3156,49.5078],[-107.9656,49.4953],[-107.8906,49.4836],[-107.8594,49.4664],[-107.8406,49.4758],[-107.8141,49.5172],[-107.7937,49.5344],[-107.7672,49.5453],[-107.7156,49.55],[-107.6805,49.543],[-107.6484,49.5266],[-107.6195,49.5008],[-107.5781,49.4484],[-107.5125,49.4062],[-107.4531,49.3859],[-107.318,49.357],[-107.2703,49.3391],[-107.2383,49.318],[-107.2141,49.2828],[-107.1813,49.2594],[-107.0734,49.2453],[-107.0523,49.2336],[-107.05,49.2219],[-107.0359,49.2172],[-106.9656,49.2125],[-106.5438,49.2281],[-106.3609,49.243],[-106.2344,49.2609],[-106.1641,49.282],[-106.15,49.2937],[-106.1461,49.3172],[-106.1383,49.3266],[-106.1109,49.3406],[-105.9828,49.3523],[-105.9438,49.3641],[-105.9234,49.3852],[-105.9203,49.3992],[-105.9273,49.4508],[-105.9195,49.4648],[-105.8828,49.4859],[-105.818,49.4977],[-105.6797,49.5016],[-105.5719,49.5156],[-105.5234,49.5328],[-105.4766,49.5672],[-105.3969,49.5906],[-105.3203,49.5984],[-105.1805,49.5984],[-105.1078,49.5906],[-105.057,49.5766],[-105.0398,49.5672],[-105.0125,49.532],[-104.9844,49.5109],[-104.9188,49.4852],[-104.8312,49.4633],[-104.7844,49.4391],[-104.7375,49.3852],[-104.7219,49.3375],[-104.7,49.2992],[-104.6656,49.2766],[-104.6188,49.2695],[-104.5086,49.2859],[-104.4617,49.2859],[-104.4438,49.2656],[-104.4125,49.2531],[-104.1391,49.2047],[-104.0453,49.1672],[-104.0063,49.1344],[-103.9664,49.0852],[-103.9359,49.0641],[-103.9023,49.0523],[-103.8484,49.0469],[-103.8187,49.0312],[-103.7859,48.9844],[-103.7617,48.9156],[-103.7297,48.8813],[-103.682,48.8594],[-103.6523,48.8531],[-103.5203,48.8406],[-103.4781,48.8188],[-103.4547,48.7844],[-103.443,48.6969],[-103.4148,48.6594],[-103.3141,48.6406],[-103.2695,48.6172],[-103.2312,48.5828],[-103.1938,48.5594],[-103.1109,48.5406],[-103.0852,48.5172],[-103.057,48.4734],[-103.0289,48.4547],[-102.9937,48.45],[-102.9672,48.4578],[-102.9922,48.5156],[-103.0,48.6406],[-102.9922,48.6672],[-102.9766,48.6891],[-102.9531,48.7063],[-102.9219,48.7188],[-102.8359,48.7297],[-102.7188,48.7219],[-102.6172,48.7023],[-102.5469,48.6734],[-102.5078,48.6352],[-102.5,48.6125],[-102.4906,48.5312],[-102.4672,48.5031],[-102.4328,48.5016],[-102.4094,48.5156],[-102.3953,48.5766],[-102.3766,48.5953],[-102.3438,48.6],[-102.3094,48.5922],[-102.2969,48.5656],[-102.2812,48.5531],[-102.1617,48.5125],[-102.0797,48.4656],[-101.8656,48.2797],[-101.7719,48.2211],[-101.6203,48.1469],[-101.5648,48.1078],[-101.4641,48.0156],[-101.4031,47.9688],[-101.3703,47.9531],[-101.332,47.9484],[-101.3016,47.9344],[-101.2641,47.8836],[-101.2438,47.8703],[-101.2016,47.868],[-101.1352,47.8859],[-101.107,47.8859],[-101.0937,47.8648],[-101.0625,47.8484],[-100.7625,47.7609],[-100.7063,47.7352],[-100.6977,47.7164],[-100.6859,47.7078],[-100.5852,47.6953],[-100.5641,47.6844],[-100.555,47.6725]]}},
{"type":"Feature","properties":{"id":"cascadia-mississippi","nations":"cascadia | mississippi","follows":"the Missouri Coteau to the river at Pierre, then the southern rim of the upper Missouri: the divide above the White, the Niobrara and the North Platte, to the Wind River Range"},"geometry":{"type":"LineString","coordinates":[[-100.555,47.6725],[-100.55,47.6438],[-100.5594,47.6109],[-100.5828,47.5852],[-100.6164,47.5641],[-100.6328,47.5312],[-100.632,47.5016],[-100.6219,47.4656],[-100.5891,47.4281],[-100.5352,47.4187],[-100.4188,47.4375],[-100.4031,47.4328],[-100.3961,47.4164],[-100.3766,47.4078],[-100.1891,47.3906],[-100.1539,47.3672],[-100.1453,47.3234],[-100.1344,47.3094],[-100.1172,47.3016],[-100.0656,47.2953],[-100.0516,47.2836],[-100.0477,47.2672],[-100.0359,47.2625],[-100.0008,47.2672],[-99.9352,47.2906],[-99.907,47.3094],[-99.893,47.3383],[-99.8766,47.3453],[-99.8344,47.35],[-99.7734,47.3453],[-99.757,47.3383],[-99.7469,47.3164],[-99.7312,47.3078],[-99.6148,47.2984],[-99.5609,47.2844],[-99.5367,47.2672],[-99.5133,47.232],[-99.4891,47.2109],[-99.4352,47.1852],[-99.3648,47.1641],[-99.3109,47.1312],[-99.2867,47.1016],[-99.2484,47.0188],[-99.218,46.9859],[-99.1937,46.9719],[-99.1781,46.9477],[-99.1781,46.882],[-99.2156,46.7484],[-99.225,46.6781],[-99.2156,46.6547],[-99.1836,46.6477],[-99.1672,46.6266],[-99.1875,46.5141],[-99.1828,46.5023],[-99.1617,46.493],[-99.1547,46.4766],[-99.1523,46.3828],[-99.1664,46.3359],[-99.1875,46.3164],[-99.2563,46.3023],[-99.4109,46.2953],[-99.4461,46.2836],[-99.4484,46.2648],[-99.4266,46.2289],[-99.3937,46.1937],[-99.3547,46.1711],[-99.2609,46.143],[-99.0813,46.1148],[-99.0125,46.0984],[-98.9688,46.0789],[-98.95,46.0563],[-98.95,46.0437],[-98.9641,46.0016],[-99.0156,45.9344],[-99.1016,45.8641],[-99.1305,45.8523],[-99.168,45.8477],[-99.1891,45.8359],[-99.2148,45.8008],[-99.2359,45.75],[-99.2562,45.7281],[-99.2984,45.7188],[-99.3516,45.732],[-99.3938,45.7297],[-99.4141,45.7164],[-99.4516,45.6656],[-99.4711,45.6547],[-99.5063,45.65],[-99.5266,45.6406],[-99.5453,45.6031],[-99.5547,45.5164],[-99.5781,45.4859],[-99.5969,45.4766],[-99.6484,45.4695],[-99.7797,45.4859],[-99.8359,45.4859],[-99.85,45.4781],[-99.8523,45.4656],[-99.8641,45.4531],[-99.9516,45.4133],[-99.9938,45.3734],[-100.0219,45.3125],[-100.0375,45.2188],[-100.0328,45.2031],[-100.0164,45.1977],[-100.0078,45.1859],[-100.0,45.1156],[-99.9859,45.0828],[-99.9297,45.0453],[-99.8313,45.0219],[-99.7203,45.0125],[-99.6883,45.0172],[-99.6648,45.032],[-99.6391,45.0297],[-99.6063,45.0063],[-99.5844,44.9812],[-99.575,44.9563],[-99.5781,44.9312],[-99.6063,44.8938],[-99.6484,44.8656],[-99.6977,44.8516],[-99.7859,44.8422],[-99.7977,44.8336],[-99.8023,44.8164],[-99.8234,44.8047],[-99.9359,44.7906],[-99.9805,44.7672],[-100.0437,44.7156],[-100.1266,44.6906],[-100.1453,44.6531],[-100.1516,44.5656],[-100.1656,44.5188],[-100.1828,44.5031],[-100.2312,44.4953],[-100.2688,44.4766],[-100.3063,44.4437],[-100.3242,44.4141],[-100.3336,44.3578],[-100.3141,44.2469],[-100.3141,44.2094],[-100.3406,44.1906],[-100.3531,44.1688],[-100.3852,44.0656],[-100.4016,44.0312],[-100.432,44.0031],[-100.468,43.9984],[-100.4984,43.9844],[-100.5281,43.9437],[-100.5594,43.9234],[-100.6531,43.9047],[-100.8531,43.9008],[-100.9906,43.9117],[-101.0219,43.9219],[-101.0453,43.9375],[-101.0531,43.9164],[-101.0687,43.9078],[-101.2188,43.8953],[-101.2406,43.8883],[-101.25,43.8719],[-101.2641,43.8664],[-101.4609,43.8523],[-102.0094,43.8547],[-102.1359,43.8664],[-102.15,43.8719],[-102.157,43.8883],[-102.1852,43.8977],[-102.2344,43.9],[-102.2812,43.8906],[-102.3047,43.8766],[-102.3367,43.8328],[-102.3609,43.8156],[-102.3945,43.8047],[-102.4859,43.7961],[-102.5078,43.7883],[-102.5469,43.7609],[-102.5797,43.718],[-102.6336,43.6062],[-102.6641,43.5656],[-102.6977,43.5375],[-102.7344,43.5219],[-102.7812,43.5125],[-102.8141,43.5172],[-102.8367,43.5312],[-102.8609,43.5281],[-102.8945,43.5125],[-102.9625,43.4656],[-103.0312,43.3984],[-103.0469,43.3695],[-103.0523,43.3328],[-103.0641,43.3156],[-103.0852,43.3047],[-103.1508,43.2961],[-103.1766,43.2766],[-103.1977,43.218],[-103.2055,43.1305],[-103.2164,43.1039],[-103.2547,43.0578],[-103.3148,43.0211],[-103.4367,42.9789],[-103.5047,42.9422],[-103.5328,42.9203],[-103.5773,42.8695],[-103.6211,42.7813],[-103.6578,42.7344],[-103.7305,42.6875],[-103.7906,42.6719],[-103.8883,42.6641],[-103.9,42.6719],[-103.9094,42.6906],[-103.9313,42.7031],[-104.0687,42.7469],[-104.0906,42.7594],[-104.1,42.7781],[-104.1352,42.7859],[-104.2758,42.7859],[-104.6039,42.768],[-104.7328,42.7672],[-104.7797,42.7703],[-104.8383,42.7836],[-104.85,42.7937],[-104.8594,42.8242],[-104.8812,42.8328],[-105.0312,42.8125],[-105.0469,42.8172],[-105.0617,42.8383],[-105.0891,42.8453],[-105.2437,42.8547],[-105.3,42.8734],[-105.3453,42.9266],[-105.3687,42.9406],[-105.4672,42.9547],[-105.4938,42.9656],[-105.5141,42.9828],[-105.5359,43.0172],[-105.5687,43.0406],[-105.6766,43.0547],[-105.693,43.0617],[-105.7023,43.0828],[-105.7141,43.0875],[-105.8023,43.068],[-105.8516,43.0703],[-105.8805,43.0836],[-105.918,43.1164],[-105.9484,43.1328],[-105.9648,43.132],[-105.9977,43.1141],[-106.0266,43.1125],[-106.1813,43.1375],[-106.1969,43.1328],[-106.2039,43.1164],[-106.2234,43.1078],[-106.3406,43.1],[-106.4266,43.1078],[-106.4461,43.1164],[-106.4539,43.1336],[-106.4891,43.1453],[-106.618,43.1492],[-106.6883,43.1383],[-106.7188,43.1031],[-106.8344,43.0641],[-106.8688,43.0437],[-106.8969,43.0016],[-106.9016,42.9492],[-106.9156,42.9141],[-106.9328,42.9023],[-106.9836,42.8906],[-107.0141,42.8687],[-107.1172,42.7492],[-107.1547,42.7211],[-107.1719,42.7219],[-107.2047,42.7383],[-107.2797,42.7477],[-107.4727,42.7453],[-107.557,42.7266],[-107.6531,42.6656],[-107.7375,42.65],[-107.8312,42.6578],[-107.8469,42.6664],[-107.8539,42.6836],[-107.8891,42.6953],[-107.9906,42.7],[-108.0461,42.693],[-108.1117,42.6648],[-108.2141,42.5562],[-108.3266,42.4984],[-108.3477,42.468],[-108.3531,42.432],[-108.3812,42.4016],[-108.4375,42.3781],[-108.4867,42.3695],[-108.5328,42.3766],[-108.5758,42.3992],[-108.6539,42.4844],[-108.7172,42.5312],[-108.7633,42.5469],[-108.8734,42.5594],[-108.9133,42.5828],[-108.9359,42.6172],[-108.9563,42.6344],[-108.9984,42.6484],[-109.0523,42.6531],[-109.1016,42.6812],[-109.1305,42.7156],[-109.1813,42.8031],[-109.2063,42.8313],[-109.2312,42.8469],[-109.2812,42.857],[-109.3062,42.8734],[-109.3813,42.9648],[-109.4062,42.9859],[-109.4313,42.9977],[-109.468,43.0023],[-109.4891,43.0141],[-109.507,43.0352],[-109.5516,43.1266],[-109.5711,43.143],[-109.6172,43.1523],[-109.6344,43.1641],[-109.6453,43.1852],[-109.6523,43.2523],[-109.6641,43.2859],[-109.6992,43.3305],[-109.7736,43.3906],[-109.7599,43.4035]]}},
{"type":"Feature","properties":{"id":"cascadia-colorado","nations":"cascadia | colorado","follows":"the northern rim of the Green River's basin: the Wind River Range"},"geometry":{"type":"LineString","coordinates":[[-109.7599,43.4035],[-109.8328,43.4359],[-109.8961,43.4477],[-109.9688,43.45],[-110.0344,43.4313],[-110.0875,43.3875],[-110.1094,43.3563],[-110.1281,43.3187],[-110.1734,43.1797],[-110.2219,43.1031],[-110.2891,43.0453],[-110.3297,43.0234],[-110.4687,42.9758],[-110.5062,42.9523],[-110.5375,42.9234],[-110.5625,42.8891],[-110.5937,42.8039],[-110.6078,42.5422],[-110.6164,42.507],[-110.6336,42.4945],[-110.6383,42.4836],[-110.6485,42.3999]]}},
{"type":"Feature","properties":{"id":"cascadia-aztlan","nations":"cascadia | aztlan","follows":"the divide between the Snake and the Great Basin, from the Bear River's bend to the Warner Mountains and the Medicine Lake Highland"},"geometry":{"type":"LineString","coordinates":[[-110.6485,42.3999],[-111.3145,42.4571],[-111.6467,42.5116],[-111.7767,42.518],[-111.8394,42.5127],[-111.9,42.5],[-111.9588,42.4773],[-112.0143,42.4452],[-112.1191,42.3608],[-112.2745,42.2159],[-112.3877,42.1319],[-112.45,42.1],[-112.6039,42.048],[-112.771,42.0123],[-113.0351,41.9776],[-113.4781,41.9349],[-114.1101,41.9085],[-114.4709,41.8668],[-114.7415,41.8251],[-115.0107,41.7712],[-115.1905,41.7234],[-115.7267,41.5026],[-115.817,41.4758],[-115.908,41.4575],[-116.0,41.45],[-116.0979,41.4549],[-116.197,41.4712],[-116.2972,41.4966],[-116.4991,41.5663],[-116.9015,41.7208],[-117.3542,41.8463],[-117.6182,41.9088],[-117.9,41.95],[-118.1467,41.9601],[-118.4101,41.9528],[-119.0758,41.9067],[-120.0987,41.8568],[-120.3083,41.8401],[-120.8628,41.7625],[-121.0838,41.7443],[-121.1927,41.7434],[-121.4028,41.7641],[-121.605,41.8112],[-122.3,42.05]]}},
{"type":"Feature","properties":{"id":"oregon-cascadia","nations":"oregon | cascadia","follows":"the crest of the Cascades from the Siskiyous to the Columbia, then the Columbia to the sea"},"geometry":{"type":"LineString","coordinates":[[-122.3,42.05],[-122.0609,43.3852],[-121.9852,43.7722],[-121.85,44.4],[-121.7428,45.0408],[-121.7004,45.2307],[-121.6945,45.3359],[-121.7,45.37],[-121.7246,45.4351],[-121.7633,45.4969],[-121.9037,45.6762],[-121.9712,45.6423],[-122.2612,45.5661],[-122.3417,45.5869],[-122.4262,45.588],[-122.5397,45.6216],[-122.595,45.6142],[-122.6732,45.6256],[-122.698,45.6355],[-122.7389,45.6627],[-122.7482,45.6793],[-122.7594,45.7408],[-122.7532,45.7821],[-122.78,45.8196],[-122.7742,45.8812],[-122.7926,45.9161],[-122.8066,45.978],[-122.8501,46.0113],[-122.8609,46.0495],[-122.8742,46.0718],[-122.9103,46.1077],[-122.9357,46.1221],[-122.9996,46.1454],[-123.0301,46.1492],[-123.0925,46.1826],[-123.1119,46.1863],[-123.1801,46.1791],[-123.95,46.25],[-124.4,46.27]]}},
{"type":"Feature","properties":{"id":"oregon-aztlan","nations":"oregon | aztlan","follows":"the crest of the Siskiyous"},"geometry":{"type":"LineString","coordinates":[[-122.3,42.05],[-122.8599,41.9902],[-123.1391,41.9739],[-123.7778,41.9701],[-124.5,41.98]]}},
{"type":"Feature","properties":{"id":"colorado-mississippi","nations":"colorado | mississippi","follows":"the narrows of the South Platte, the Chalk Bluffs, the Laramie Range, and the Continental Divide around the springs of the North Platte"},"geometry":{"type":"LineString","coordinates":[[-103.0594,40.4726],[-103.2485,40.7367],[-103.4352,40.9544],[-103.5624,41.0716],[-103.7178,41.1783],[-103.8539,41.2568],[-104.0011,41.3312],[-104.1522,41.3971],[-104.3,41.45],[-104.5887,41.5278],[-104.735,41.5531],[-104.8743,41.5622],[-105.0,41.55],[-105.0474,41.5377],[-105.1391,41.5015],[-105.2651,41.4249],[-105.3382,41.3642],[-105.4,41.3],[-105.4228,41.2696],[-105.4578,41.2024],[-105.5196,41.0192],[-105.568,40.9181],[-105.75,40.65],[-105.8803,40.4409],[-105.9047,40.4266],[-105.9281,40.3938],[-105.9734,40.3758],[-106.0625,40.3672],[-106.2781,40.3719],[-106.4539,40.3875],[-106.5242,40.4],[-106.6297,40.4344],[-106.6648,40.4562],[-106.6883,40.4812],[-106.7,40.5094],[-106.6953,40.6109],[-106.6836,40.6461],[-106.6672,40.6562],[-106.6625,40.7125],[-106.6781,40.875],[-106.7023,40.9586],[-106.7203,40.9922],[-106.768,41.043],[-106.7977,41.0602],[-106.9297,41.093],[-106.9859,41.1211],[-106.9953,41.132],[-107.0023,41.168],[-107.0141,41.1891],[-107.0352,41.207],[-107.1016,41.2359],[-107.1313,41.2563],[-107.1547,41.2828],[-107.1859,41.3508],[-107.2063,41.3766],[-107.2328,41.393],[-107.3016,41.4023],[-107.3312,41.4141],[-107.3547,41.4352],[-107.3898,41.5016],[-107.4297,41.5312],[-107.4914,41.5547],[-107.575,41.5719],[-107.7625,41.5875],[-107.7937,41.5828],[-107.8047,41.5664],[-107.8281,41.5578],[-108.0797,41.5422],[-108.1117,41.5336],[-108.1453,41.5125],[-108.1531,41.5336],[-108.1688,41.5422],[-108.2844,41.5516],[-108.3312,41.5656],[-108.3469,41.5828],[-108.3531,41.6172],[-108.3812,41.6406],[-108.4156,41.6484],[-108.4844,41.6516],[-108.5312,41.6656],[-108.5469,41.6828],[-108.5523,41.718],[-108.5734,41.7484],[-108.6766,41.7969],[-108.693,41.8094],[-108.7047,41.8328],[-108.7469,41.8375],[-108.932,41.8188],[-108.9797,41.8281],[-109.0117,41.85],[-109.0219,41.8656],[-109.0312,41.9023],[-109.0219,41.9516],[-109.0,41.9805],[-108.9352,42.0336],[-108.9141,42.0641],[-108.9023,42.0977],[-108.8953,42.1766],[-108.8883,42.193],[-108.8664,42.2055],[-108.8578,42.2328],[-108.8508,42.3148],[-108.8516,42.4367],[-108.8656,42.5328],[-108.8828,42.5773],[-108.9062,42.6062],[-108.9484,42.6344],[-108.9977,42.6484],[-109.0523,42.6531],[-109.0859,42.6687],[-109.1305,42.7156],[-109.1688,42.7844],[-109.2063,42.8313],[-109.2312,42.8469],[-109.2812,42.857],[-109.3062,42.8734],[-109.3813,42.9648],[-109.4062,42.9859],[-109.4313,42.9977],[-109.468,43.0023],[-109.4891,43.0141],[-109.507,43.0352],[-109.5516,43.1266],[-109.5711,43.143],[-109.6172,43.1523],[-109.6344,43.1641],[-109.6484,43.1992],[-109.657,43.2719],[-109.6734,43.3094],[-109.7156,43.3656],[-109.7599,43.4035]]}},
{"type":"Feature","properties":{"id":"colorado-aztlan-north","nations":"colorado | aztlan","follows":"the rim of the Green River's basin above the Bear"},"geometry":{"type":"LineString","coordinates":[[-110.6485,42.3999],[-110.6453,42.2047],[-110.6383,42.1664],[-110.6281,42.15],[-110.6172,42.1461],[-110.6125,42.1266],[-110.6375,41.9234],[-110.6328,41.9039],[-110.6117,41.8953],[-110.6047,41.8844],[-110.6023,41.8234],[-110.6117,41.8047],[-110.6422,41.7906],[-110.6539,41.732],[-110.6734,41.7109],[-110.7086,41.693],[-110.7906,41.6719],[-110.8164,41.6586],[-110.8367,41.6383],[-110.8609,41.5766],[-110.8648,41.5352],[-110.8563,41.4312],[-110.8062,41.2234],[-110.7688,41.1414],[-110.7234,41.1047],[-110.7094,41.0813],[-110.6922,40.9641],[-110.6836,40.9523],[-110.6594,40.943],[-110.6469,40.9266],[-110.6219,40.8656],[-110.6211,40.8328],[-110.6266,40.8187],[-110.6492,40.7953],[-110.7812,40.7469],[-110.7969,40.7344],[-110.8047,40.7141],[-110.8234,40.7141],[-110.868,40.7297],[-110.8891,40.7188],[-110.9077,40.6871]]}},
{"type":"Feature","properties":{"id":"colorado-california","nations":"colorado | california","follows":"the Wasatch Plateau and the High Plateaus: the crest between the Colorado and the Great Basin"},"geometry":{"type":"LineString","coordinates":[[-110.9077,40.6871],[-111.066,40.348],[-111.12,40.2],[-111.1526,40.0517],[-111.1918,39.75],[-111.2482,39.4015],[-111.2838,39.2509],[-111.3219,39.1409],[-111.4362,38.8976],[-111.6292,38.5475],[-111.9287,38.0526],[-112.065,37.8105],[-112.1269,37.7235],[-112.2,37.65],[-112.3347,37.5636],[-112.4891,37.4996],[-112.5956,37.4696],[-112.7,37.45],[-112.7496,37.4456],[-112.8504,37.4492],[-113.2,37.5],[-113.6035,37.4975]]}},
{"type":"Feature","properties":{"id":"colorado-aztlan","nations":"colorado | aztlan","follows":"the valley of the Virgin, then the Colorado from Black Canyon to the mouth of the Gila"},"geometry":{"type":"LineString","coordinates":[[-113.6035,37.4975],[-113.8536,37.2256],[-113.9195,37.1433],[-113.9796,37.0537],[-114.0343,36.9563],[-114.1082,36.8033],[-114.3973,36.1429],[-114.4288,36.1284],[-114.4507,36.1284],[-114.492,36.1468],[-114.5455,36.1596],[-114.6369,36.1412],[-114.7029,36.1119],[-114.7212,36.0926],[-114.72,36.0388],[-114.7414,36.0135],[-114.7397,35.9857],[-114.7293,35.9592],[-114.6754,35.8941],[-114.6669,35.8738],[-114.6936,35.8223],[-114.6946,35.767],[-114.6868,35.7193],[-114.6452,35.6306],[-114.6528,35.6088],[-114.6466,35.5654],[-114.6677,35.517],[-114.6324,35.4287],[-114.591,35.3528],[-114.5899,35.3004],[-114.572,35.2125],[-114.5819,35.1512],[-114.6356,35.1371],[-114.6343,35.1142],[-114.6156,35.0964],[-114.6155,35.0731],[-114.639,35.0477],[-114.6294,35.0153],[-114.617,34.8792],[-114.6101,34.8675],[-114.5801,34.8568],[-114.5687,34.843],[-114.5571,34.815],[-114.5551,34.7869],[-114.5424,34.7678],[-114.5213,34.7569],[-114.4944,34.7535],[-114.4212,34.6342],[-114.4198,34.5959],[-114.3837,34.561],[-114.377,34.5397],[-114.3673,34.5301],[-114.3761,34.4901],[-114.369,34.4715],[-114.3314,34.4605],[-114.279,34.4207],[-114.1688,34.3558],[-114.125,34.3172],[-114.1191,34.2931],[-114.1275,34.2796],[-114.1927,34.2321],[-114.2244,34.198],[-114.2439,34.1936],[-114.3459,34.1331],[-114.3822,34.1236],[-114.4087,34.091],[-114.417,34.0484],[-114.4287,34.0291],[-114.4608,33.9994],[-114.516,33.9636],[-114.5223,33.9414],[-114.4898,33.8906],[-114.5142,33.8539],[-114.514,33.8282],[-114.5104,33.8041],[-114.498,33.7933],[-114.4935,33.7762],[-114.5033,33.7542],[-114.4881,33.725],[-114.5174,33.6846],[-114.5216,33.6387],[-114.5257,33.6226],[-114.5345,33.6167],[-114.5291,33.5817],[-114.5359,33.5618],[-114.5794,33.52],[-114.6259,33.437],[-114.6438,33.4257],[-114.727,33.4114],[-114.7042,33.379],[-114.702,33.3597],[-114.714,33.3489],[-114.7236,33.3212],[-114.7214,33.3062],[-114.6833,33.2627],[-114.6731,33.2049],[-114.6968,33.0892],[-114.6669,33.0541],[-114.6274,33.0409],[-114.5366,33.0353],[-114.5018,33.0193],[-114.4699,32.9725],[-114.4739,32.9405],[-114.4581,32.8767],[-114.4608,32.8548],[-114.5223,32.8071],[-114.5262,32.7531],[-114.5471,32.7307]]}},
{"type":"Feature","properties":{"id":"california-aztlan-east-basin","nations":"california | aztlan","follows":"the desert ranges west of the Sevier and the south shore of the Great Salt Lake, closing on the Wasatch north of the lake city"},"geometry":{"type":"LineString","coordinates":[[-113.6035,37.4975],[-113.7215,37.9841],[-113.7474,38.144],[-113.7523,38.2226],[-113.75,38.3],[-113.7277,38.4449],[-113.6617,38.657],[-113.5693,38.8641],[-113.4594,39.0723],[-113.3652,39.2144],[-113.0989,39.5615],[-112.9568,39.766],[-112.6,40.35],[-112.4555,40.6298],[-112.3796,40.7474],[-112.3238,40.8046],[-112.2689,40.848],[-112.2107,40.8846],[-112.1169,40.9278],[-112.01,40.9605],[-111.9258,40.9763],[-111.8369,40.9847],[-111.7442,40.9852],[-111.6,40.97],[-111.4697,40.9357],[-111.3322,40.8819],[-110.9077,40.6871]]}},
{"type":"Feature","properties":{"id":"california-aztlan-strip","nations":"california | aztlan","follows":"the crests of the Santa Monica, San Gabriel, Santa Ana and Laguna mountains, which shut the coastal plain off from the desert"},"geometry":{"type":"LineString","coordinates":[[-119.4,34.0],[-119.1546,34.0662],[-119.0369,34.1048],[-118.9377,34.154],[-118.7659,34.272],[-118.7,34.3],[-118.6098,34.3207],[-118.4072,34.3356],[-118.0426,34.3229],[-117.8834,34.3074],[-117.7407,34.2698],[-117.6669,34.229],[-117.5776,34.1488],[-117.5269,34.0853],[-117.466,33.9838],[-117.4389,33.917],[-117.4308,33.8455],[-117.4307,33.6975],[-117.416,33.63],[-117.4,33.6],[-117.3716,33.5679],[-117.292,33.515],[-117.0884,33.4281],[-116.9914,33.3791],[-116.9146,33.3197],[-116.848,33.2545],[-116.7292,33.1117],[-116.6264,32.9637],[-116.5637,32.851],[-116.45,32.62]]}},
{"type":"Feature","properties":{"id":"california-mexico","nations":"california | mexico","follows":"the ridge above the Tijuana River"},"geometry":{"type":"LineString","coordinates":[[-116.45,32.62],[-116.6891,32.5823],[-116.8499,32.5666],[-117.35,32.56]]}},
{"type":"Feature","properties":{"id":"aztlan-mexico","nations":"aztlan | mexico","follows":"the Sierra Juarez and the crest of the delta cone, which parts the Salton Sink from the Gulf"},"geometry":{"type":"LineString","coordinates":[[-116.45,32.62],[-116.1698,32.5658],[-115.9617,32.5135],[-115.7068,32.4357],[-115.4767,32.3475],[-115.3419,32.3071],[-115.2679,32.2972],[-115.2062,32.2976],[-115.0001,32.3231]]}},
{"type":"Feature","properties":{"id":"mexico-south","nations":"mexico | ","follows":"the Suchiate, the Cuchumatanes, the Usumacinta and the Hondo: Central America, beyond it, carries Central Asia"},"geometry":{"type":"LineString","coordinates":[[-92.45,14.35],[-92.2254,14.5832],[-92.172,14.6585],[-92.15,14.7],[-92.1301,14.7512],[-92.1055,14.863],[-92.0827,15.1099],[-92.0649,15.2371],[-91.9693,15.6287],[-91.917,15.7968],[-91.8845,15.8739],[-91.8465,15.9433],[-91.802,16.0027],[-91.75,16.05],[-91.6856,16.0828],[-91.6092,16.1005],[-91.5237,16.1064],[-91.4317,16.104],[-91.055,16.0769],[-90.9724,16.0826],[-90.9,16.1],[-90.7442,16.1653],[-90.6471,16.2199],[-90.5669,16.2842],[-90.5135,16.3587],[-90.5,16.4],[-90.5054,16.4665],[-90.5405,16.5442],[-90.5979,16.6305],[-90.9021,17.008],[-90.9596,17.0971],[-90.9947,17.1786],[-91.0,17.25],[-90.9837,17.3013],[-90.9552,17.3497],[-90.8689,17.4385],[-90.8146,17.4792],[-90.6921,17.5536],[-90.5,17.65],[-90.4227,17.682],[-90.2501,17.7298],[-89.7771,17.8096],[-89.6,17.85],[-89.2359,17.9612],[-89.0305,18.039],[-88.9,18.1],[-88.8405,18.135],[-88.7264,18.2221],[-88.5105,18.4045],[-88.404,18.465],[-88.35,18.48],[-88.3046,18.4835],[-88.2143,18.471],[-87.9,18.35]]}}]}
