{"type":"FeatureCollection","name":"solms-america-frontiers","crs":{"type":"name","properties":{"name":"urn:ogc:def:crs:OGC:1.3:CRS84"}},"features":[
{"type":"Feature","properties":{"id":"kansa-wichita","nations":"kansa | wichita","follows":"the divide between the Smoky Hill and the Arkansas"},"geometry":{"type":"LineString","coordinates":[[-103.6,39.35],[-103.5617,39.3211],[-103.5203,39.3016],[-103.3812,39.2641],[-103.3344,39.2437],[-103.2875,39.2016],[-103.2719,39.1656],[-103.25,39.1352],[-103.2156,39.1141],[-103.1688,39.1023],[-103.0234,39.0922],[-103.0039,39.0836],[-102.9969,39.0672],[-102.9812,39.0625],[-102.8648,39.082],[-102.8109,39.0797],[-102.7867,39.0664],[-102.7633,39.0328],[-102.7391,39.0156],[-102.7055,39.0047],[-102.6141,38.9953],[-102.5922,38.9859],[-102.5719,38.9719],[-102.5359,38.9297],[-102.4781,38.7984],[-102.4594,38.7703],[-102.4125,38.7281],[-102.3844,38.7141],[-102.3188,38.7],[-102.2469,38.6984],[-102.1625,38.6844],[-102.1219,38.6672],[-102.0781,38.6336],[-102.0375,38.6203],[-101.9531,38.618],[-101.8203,38.6359],[-101.7641,38.6359],[-101.75,38.6281],[-101.7477,38.6164],[-101.7359,38.6078],[-101.6141,38.5906],[-101.5195,38.5336],[-101.4359,38.5203],[-101.2227,38.518],[-100.7828,38.5469],[-100.6633,38.5656],[-100.65,38.5719],[-100.6445,38.5836],[-100.5953,38.5953],[-100.3328,38.6078],[-100.3055,38.6164],[-100.2906,38.6422],[-100.2563,38.65],[-100.2094,38.6422],[-100.1953,38.6125],[-100.1586,38.6336],[-100.0766,38.6453],[-99.8688,38.65],[-99.7234,38.6406],[-99.6414,38.6172],[-99.6117,38.5828],[-99.5797,38.5656],[-99.532,38.5547],[-99.4688,38.55],[-99.3281,38.5578],[-99.3047,38.5664],[-99.2953,38.5828],[-99.2719,38.5875],[-99.0969,38.568],[-99.0125,38.5703],[-98.9719,38.5836],[-98.9211,38.6242],[-98.9016,38.6328],[-98.8852,38.632],[-98.8656,38.6172],[-98.8469,38.6125],[-98.7937,38.6422],[-98.7156,38.65],[-98.6641,38.6422],[-98.6523,38.6336],[-98.6461,38.6172],[-98.6266,38.6125],[-98.4797,38.6313],[-98.4,38.6219],[-98.3547,38.6],[-98.2711,38.5328],[-98.2172,38.5063],[-98.1539,38.4859],[-98.018,38.457],[-97.9703,38.4391],[-97.9383,38.418],[-97.9094,38.3758],[-97.8969,38.3672],[-97.8844,38.368],[-97.8602,38.3836],[-97.8203,38.3922],[-97.675,38.4],[-97.4797,38.3922],[-97.4398,38.3836],[-97.4156,38.3695],[-97.3969,38.3859],[-97.3594,38.4844],[-97.3156,38.5187],[-97.2469,38.5406],[-97.0437,38.5547],[-96.9469,38.5781],[-96.8625,38.6203],[-96.825,38.6484],[-96.725,38.7508],[-96.6469,38.7984],[-96.5563,38.8242],[-96.5063,38.8289],[-96.2703,38.8125],[-96.2211,38.8141],[-96.2,38.8219]]}},
{"type":"Feature","properties":{"id":"wichita-rotland","nations":"wichita | rotland","follows":"the Canadian to its mouth, and the Arkansas to the narrows"},"geometry":{"type":"LineString","coordinates":[[-100.9235,35.9736],[-100.8572,35.989],[-100.5431,35.9862],[-100.2455,35.9195],[-100.1799,35.8838],[-100.1111,35.8558],[-100.0851,35.8675],[-100.0288,35.8749],[-100.0012,35.89],[-99.9358,35.9007],[-99.9083,35.9262],[-99.905,35.98],[-99.8923,36.0028],[-99.8748,36.015],[-99.8336,36.0209],[-99.8123,36.0143],[-99.8037,35.9974],[-99.8025,35.9527],[-99.7884,35.9187],[-99.7557,35.8941],[-99.6729,35.8633],[-99.6262,35.8564],[-99.5848,35.8639],[-99.5497,35.8832],[-99.522,35.9117],[-99.4834,35.9797],[-99.4582,36.0069],[-99.4183,36.0209],[-99.3287,36.0205],[-99.2861,36.0111],[-99.2545,35.9937],[-99.2412,35.9746],[-99.2278,35.9326],[-99.1987,35.8998],[-99.1548,35.8799],[-99.131,35.8776],[-99.0824,35.8895],[-99.054,35.9174],[-99.0083,36.0331],[-98.9767,36.0551],[-98.9076,36.0488],[-98.8881,36.0242],[-98.8462,35.9976],[-98.7965,35.9282],[-98.7815,35.8906],[-98.7269,35.8497],[-98.6717,35.7869],[-98.6228,35.7548],[-98.5774,35.6774],[-98.5624,35.6641],[-98.5549,35.6419],[-98.4835,35.5837],[-98.4526,35.5685],[-98.3227,35.5574],[-98.2818,35.5411],[-98.2345,35.4879],[-98.1748,35.4678],[-98.0597,35.3995],[-97.9802,35.3699],[-97.9455,35.3699],[-97.9123,35.358],[-97.7158,35.3289],[-97.686,35.3409],[-97.6625,35.3404],[-97.6496,35.3265],[-97.6231,35.3162],[-97.5519,35.3153],[-97.5389,35.2526],[-97.5278,35.2333],[-97.4223,35.1719],[-97.3974,35.1365],[-97.3973,35.1083],[-97.3769,35.0887],[-97.354,35.0936],[-97.3467,35.0685],[-97.3496,35.003],[-97.3397,34.9777],[-97.3154,34.9661],[-97.0972,34.9326],[-97.0327,34.9168],[-97.0138,34.9174],[-96.9919,34.9269],[-96.9787,34.9345],[-96.9489,34.9732],[-96.9283,34.9752],[-96.907,34.9515],[-96.8115,34.9447],[-96.7668,34.9037],[-96.7198,34.8782],[-96.6948,34.8777],[-96.6774,34.8969],[-96.6925,34.9156],[-96.6985,34.9379],[-96.6827,34.9446],[-96.6216,34.9161],[-96.575,34.9242],[-96.5204,34.8997],[-96.4826,34.9194],[-96.4242,34.9174],[-96.3945,34.9422],[-96.3755,34.9803],[-96.3518,35.0093],[-96.3081,35.0068],[-96.2895,34.991],[-96.2672,34.9832],[-96.175,34.9811],[-96.1573,34.9863],[-96.1287,35.0152],[-96.104,35.0274],[-96.0899,35.0607],[-96.062,35.0729],[-96.0331,35.1135],[-96.0064,35.1234],[-95.9922,35.1502],[-95.9819,35.157],[-95.9136,35.1502],[-95.897,35.1569],[-95.8556,35.1979],[-95.8385,35.2029],[-95.7864,35.2076],[-95.7473,35.192],[-95.5851,35.2384],[-95.5336,35.2592],[-95.5244,35.2821],[-95.4943,35.2993],[-95.4522,35.3018],[-95.4156,35.3118],[-95.369,35.3078],[-95.2728,35.2805],[-95.2418,35.2774],[-95.223,35.2878],[-95.1874,35.3323],[-95.1499,35.3562],[-95.1325,35.3941],[-95.1019,35.418],[-95.076,35.4539],[-95.0552,35.4586],[-95.0102,35.4248],[-94.8606,35.3643],[-94.8449,35.3528],[-94.8268,35.3478],[-94.7521,35.3624],[-94.7081,35.3504],[-94.6733,35.3252],[-94.6592,35.2875],[-94.6298,35.301],[-94.6028,35.3327],[-94.5853,35.3392],[-94.5292,35.3038],[-94.4982,35.3215],[-94.4975,35.3635],[-94.4893,35.3784],[-94.4391,35.3911],[-94.4295,35.4077],[-94.4,35.4]]}},
{"type":"Feature","properties":{"id":"wichita-hochebene","nations":"wichita | hochebene","follows":"the Canadian and its breaks, the northern wall of the Staked Plain"},"geometry":{"type":"LineString","coordinates":[[-103.75,34.8],[-103.6109,35.0939],[-103.55,35.2],[-103.5055,35.2578],[-103.4001,35.3691],[-103.4139,35.3699],[-103.3727,35.3699],[-103.3529,35.3978],[-103.3328,35.4063],[-103.2406,35.398],[-103.1902,35.4081],[-103.1466,35.4088],[-103.0794,35.3786],[-103.0636,35.3819],[-103.0233,35.4108],[-102.9756,35.4174],[-102.9439,35.4083],[-102.9215,35.4334],[-102.9066,35.4382],[-102.9111,35.4569],[-102.9002,35.4723],[-102.8816,35.4827],[-102.8625,35.4866],[-102.8145,35.4791],[-102.7837,35.4996],[-102.7018,35.517],[-102.6887,35.5278],[-102.6124,35.5275],[-102.4377,35.5532],[-102.407,35.548],[-102.3597,35.5585],[-102.3346,35.5411],[-102.2828,35.5411],[-102.1028,35.5113],[-102.0911,35.507],[-102.05,35.4661],[-102.0224,35.4587],[-101.9055,35.4584],[-101.877,35.4637],[-101.7611,35.512],[-101.7231,35.5883],[-101.6501,35.6407],[-101.6345,35.6647],[-101.5799,35.7132],[-101.2865,35.7866],[-101.1581,35.848],[-101.1208,35.8981],[-101.0389,35.9512],[-100.9988,35.9644],[-100.9235,35.9736]]}},
{"type":"Feature","properties":{"id":"rotland-hochebene","nations":"rotland | hochebene","follows":"the Caprock Escarpment across the canyons of the Red"},"geometry":{"type":"LineString","coordinates":[[-100.9235,35.9736],[-100.8476,35.4905],[-100.8439,35.361],[-100.85,35.3],[-100.8745,35.2027],[-100.9126,35.1118],[-101.1885,34.5814],[-101.2404,34.4458],[-101.2546,34.3557],[-101.2524,34.2663],[-101.2,33.95]]}},
{"type":"Feature","properties":{"id":"rotland-dreifurt","nations":"rotland | dreifurt","follows":"the divide between the Red and the Brazos, along the heads of the Wichita and the Pease"},"geometry":{"type":"LineString","coordinates":[[-101.2,33.95],[-100.7779,33.8933],[-100.6,33.85],[-100.4785,33.7996],[-100.1813,33.6316],[-100.0611,33.5728],[-99.8201,33.4981],[-99.6978,33.4717],[-99.5763,33.4543],[-99.4576,33.4482],[-99.3478,33.4569],[-99.2461,33.4873],[-98.9991,33.5855],[-98.9,33.6],[-98.8,33.5841],[-98.4998,33.4644],[-98.4,33.45],[-98.3,33.4673],[-98.0007,33.5965],[-97.9,33.62],[-97.8003,33.6186],[-97.4985,33.5583],[-97.4,33.55],[-97.2624,33.5649],[-96.9939,33.6171],[-96.826,33.6206],[-96.6639,33.6072],[-96.5869,33.591],[-96.516,33.567],[-96.4202,33.5149],[-96.2375,33.3906]]}},
{"type":"Feature","properties":{"id":"rotland-ostmark","nations":"rotland | ostmark","follows":"the low divide south of the Red, above the Sulphur"},"geometry":{"type":"LineString","coordinates":[[-96.2375,33.3906],[-95.6458,33.4823],[-95.4,33.5],[-95.1818,33.4867],[-94.765,33.4263],[-94.4898,33.4066],[-94.1625,33.4006],[-93.85,33.42]]}},
{"type":"Feature","properties":{"id":"dreifurt-ostmark","nations":"dreifurt | ostmark","follows":"the divide between the Trinity and the Neches, then down to the Trinity at Riverside"},"geometry":{"type":"LineString","coordinates":[[-96.2375,33.3906],[-96.2281,33.3812],[-96.2188,33.3531],[-96.2281,33.2875],[-96.2609,33.2109],[-96.3289,33.15],[-96.357,33.0938],[-96.382,32.982],[-96.3828,32.9391],[-96.3742,32.9117],[-96.3563,32.9],[-96.332,32.8984],[-96.3016,32.8844],[-96.2633,32.832],[-96.2234,32.8016],[-96.0812,32.7531],[-96.0531,32.7344],[-96.0406,32.7078],[-95.982,32.6969],[-95.9609,32.6813],[-95.9352,32.6344],[-95.8969,32.5187],[-95.8641,32.4906],[-95.8641,32.4531],[-95.8812,32.3633],[-95.8719,32.2953],[-95.8344,32.2344],[-95.7805,32.1852],[-95.7336,32.157],[-95.6937,32.15],[-95.6758,32.1383],[-95.6664,32.0914],[-95.6859,31.9586],[-95.6859,31.9117],[-95.6578,31.8859],[-95.6477,31.7984],[-95.6359,31.7688],[-95.6008,31.7359],[-95.5352,31.7023],[-95.5141,31.6734],[-95.5023,31.6352],[-95.4977,31.5648],[-95.4766,31.5109],[-95.4508,31.4867],[-95.3992,31.4648],[-95.3641,31.4391],[-95.3523,31.418],[-95.3477,31.3828],[-95.3359,31.3656],[-95.3148,31.3547],[-95.2484,31.3453],[-95.2187,31.3219],[-95.1859,31.2516],[-95.1547,31.1203],[-95.1172,31.0641],[-95.0844,31.05],[-95.0234,31.0406],[-95.007,31.0266],[-94.9969,30.982],[-94.9812,30.9609],[-94.9344,30.9352],[-94.8656,30.9133],[-95.0284,30.9228],[-95.1,30.92],[-95.1825,30.905],[-95.38,30.85]]}},
{"type":"Feature","properties":{"id":"dreifurt-hochebene","nations":"dreifurt | hochebene","follows":"the Caprock Escarpment, the eastern wall of the Staked Plain"},"geometry":{"type":"LineString","coordinates":[[-101.2,33.95],[-101.1833,33.4176],[-101.2,33.2],[-101.2275,33.0736],[-101.2654,32.951],[-101.4,32.6],[-101.5093,32.2931],[-101.6,32.1],[-101.6617,32.002],[-101.7702,31.8559],[-101.9709,31.6289],[-102.1469,31.4828]]}},
{"type":"Feature","properties":{"id":"hochebene-pecos","nations":"hochebene | pecos","follows":"the Mescalero Ridge: the eastern rim of the Pecos"},"geometry":{"type":"LineString","coordinates":[[-103.75,34.8],[-103.7188,34.7953],[-103.6813,34.7766],[-103.6437,34.7437],[-103.6328,34.7141],[-103.6516,34.6578],[-103.7344,34.5617],[-103.7812,34.4797],[-103.7969,34.4211],[-103.8078,34.2734],[-103.8164,34.2539],[-103.8375,34.2453],[-103.8164,34.2117],[-103.8078,34.1797],[-103.7977,33.9961],[-103.7859,33.9328],[-103.7508,33.8555],[-103.7156,33.8156],[-103.6922,33.75],[-103.6875,33.7031],[-103.6922,33.5812],[-103.7437,33.2453],[-103.7437,33.1734],[-103.7344,33.1125],[-103.7156,33.0625],[-103.6875,33.0234],[-103.65,32.9953],[-103.6031,32.9781],[-103.4945,32.9633],[-103.4016,32.9391],[-103.3242,32.9055],[-103.2914,32.8852],[-103.2375,32.8375],[-103.1969,32.7898],[-103.1688,32.7453],[-103.1531,32.7039],[-103.1461,32.6461],[-103.1109,32.5828],[-102.9234,32.4031],[-102.9039,32.3703],[-102.8906,32.3156],[-102.8766,32.3047],[-102.8211,32.2906],[-102.793,32.2531],[-102.7719,32.1875],[-102.7625,32.1187],[-102.7672,32.1031],[-102.7883,32.0953],[-102.7953,32.0844],[-102.8,32.0437],[-102.793,32.0164],[-102.7648,31.9695],[-102.7156,31.9156],[-102.6641,31.8734],[-102.6195,31.8523],[-102.5687,31.843],[-102.5437,31.8266],[-102.4805,31.7492],[-102.4516,31.7234],[-102.4023,31.7023],[-102.3281,31.693],[-102.2906,31.6766],[-102.2531,31.6508],[-102.1734,31.5641],[-102.1523,31.5195],[-102.1469,31.4828]]}},
{"type":"Feature","properties":{"id":"dreifurt-pecos","nations":"dreifurt | pecos","follows":"the eastern rim of the Pecos across the Edwards Plateau"},"geometry":{"type":"LineString","coordinates":[[-102.1469,31.4828],[-102.1188,31.4594],[-101.9898,31.443],[-101.9453,31.4266],[-101.9039,31.4008],[-101.8656,31.3656],[-101.8187,31.3094],[-101.7523,31.1828],[-101.7055,31.1453],[-101.6625,31.1281],[-101.5812,31.1125],[-101.5531,31.1172],[-101.5469,31.1336],[-101.5188,31.1453],[-101.4625,31.15],[-101.3969,31.1453],[-101.3594,31.1266],[-101.3453,31.0734],[-101.3344,31.0594],[-101.2938,31.05],[-101.2758,31.0359],[-101.2664,30.9797],[-101.2875,30.7703],[-101.2828,30.7383],[-101.2625,30.7047],[-101.2836,30.6977],[-101.2922,30.6859],[-101.3047,30.5734],[-101.3164,30.5523],[-101.3281,30.55],[-101.3359,30.5289],[-101.3359,30.4445],[-101.3195,30.2453],[-101.3266,30.1562],[-101.3359,30.1188],[-101.3664,30.0578],[-101.4531,29.9781],[-101.4812,29.9406],[-101.4969,29.9031],[-101.5012,29.8585]]}},
{"type":"Feature","properties":{"id":"wichita-pecos","nations":"wichita | pecos","follows":"the divide between the Canadian and the Pecos"},"geometry":{"type":"LineString","coordinates":[[-103.75,34.8],[-103.7906,34.7922],[-103.8039,34.7672],[-103.8234,34.7625],[-103.882,34.7672],[-103.9688,34.7859],[-104.0344,34.8187],[-104.0625,34.8484],[-104.0914,34.9016],[-104.1391,34.9313],[-104.2633,34.9641],[-104.4359,34.9875],[-104.4828,35.0],[-104.5531,35.0344],[-104.5766,35.0563],[-104.5922,35.0812],[-104.6,35.1094],[-104.6031,35.168],[-104.6187,35.2109],[-104.6312,35.2266],[-104.6656,35.2461],[-104.7531,35.2547],[-104.7906,35.2734],[-104.8094,35.3359],[-104.8312,35.3719],[-104.9344,35.4859],[-104.9812,35.5469],[-104.9969,35.5797],[-105.0047,35.6266],[-105.0156,35.6406],[-105.0695,35.6531],[-105.0984,35.6687],[-105.1477,35.7156],[-105.2031,35.7844],[-105.2594,35.8312],[-105.2969,35.8469],[-105.3859,35.8578],[-105.3977,35.8664],[-105.4047,35.8883],[-105.4156,35.8953],[-105.495,35.91]]}},
{"type":"Feature","properties":{"id":"wichita-oberland","nations":"wichita | oberland","follows":"the crest of the Sangre de Cristo"},"geometry":{"type":"LineString","coordinates":[[-105.2416,37.0069],[-105.2516,36.8484],[-105.2656,36.7781],[-105.2828,36.7547],[-105.3438,36.7406],[-105.3812,36.7172],[-105.4062,36.6938],[-105.4242,36.6547],[-105.4336,36.5609],[-105.4141,36.3438],[-105.4141,36.2687],[-105.4172,36.2563],[-105.443,36.2359],[-105.4609,36.2031],[-105.5148,36.0477],[-105.5172,35.9703],[-105.4992,35.9383],[-105.4844,35.9281],[-105.495,35.91]]}},
{"type":"Feature","properties":{"id":"oberland-pecos","nations":"oberland | pecos","follows":"the Sandia, Manzano and Sacramento crests: the western rim of the Pecos; then the Hueco Bolson to the Pass"},"geometry":{"type":"LineString","coordinates":[[-105.495,35.91],[-105.5703,35.9641],[-105.6031,35.9656],[-105.6219,35.9594],[-105.6641,35.9328],[-105.7125,35.8875],[-105.7508,35.8328],[-105.7641,35.8031],[-105.7734,35.7719],[-105.7805,35.7047],[-105.7648,35.5969],[-105.7289,35.4906],[-105.6844,35.4312],[-105.675,35.4062],[-105.6844,35.3687],[-105.7406,35.2937],[-105.7562,35.2336],[-105.7875,35.2203],[-105.8437,35.2164],[-106.0211,35.2313],[-106.1016,35.2281],[-106.1664,35.2125],[-106.2156,35.1844],[-106.2508,35.1461],[-106.2859,35.0828],[-106.2977,35.0367],[-106.3047,34.9422],[-106.3156,34.9031],[-106.3328,34.8703],[-106.3766,34.8141],[-106.3906,34.7781],[-106.4,34.7125],[-106.3977,34.6648],[-106.3859,34.6266],[-106.3648,34.5977],[-106.2828,34.5547],[-106.2562,34.5312],[-106.2023,34.4375],[-106.1555,34.4187],[-106.0648,34.4312],[-106.0109,34.4219],[-105.9867,34.4],[-105.9648,34.3492],[-105.9391,34.3141],[-105.918,34.3023],[-105.8641,34.293],[-105.8078,34.2648],[-105.7375,34.2156],[-105.6969,34.1664],[-105.6813,34.1359],[-105.6594,34.0633],[-105.65,33.975],[-105.6578,33.7875],[-105.6664,33.7563],[-105.6828,33.7461],[-105.6875,33.7266],[-105.6688,33.5563],[-105.6875,33.5],[-105.7156,33.4781],[-105.75,33.4633],[-105.7719,33.4391],[-105.7812,33.3852],[-105.7719,33.3375],[-105.7484,33.2766],[-105.718,33.2367],[-105.6937,33.2219],[-105.6781,33.193],[-105.6781,33.1086],[-105.7062,32.975],[-105.707,32.9289],[-105.6961,32.8867],[-105.6734,32.8484],[-105.6391,32.8141],[-105.593,32.7836],[-105.4656,32.7344],[-105.2523,32.6781],[-105.1609,32.6406],[-105.1305,32.6219],[-105.1,32.5844],[-105.0883,32.5281],[-105.0609,32.4906],[-105.018,32.4531],[-104.9086,32.3805],[-104.8734,32.3484],[-104.8539,32.3195],[-104.8422,32.2594],[-104.8219,32.25],[-104.8141,32.2336],[-104.8141,32.168],[-104.8336,31.982],[-104.8269,31.9244],[-106.5026,31.7671]]}},
{"type":"Feature","properties":{"id":"pecos-chihuahua","nations":"pecos | chihuahua","follows":"the Rio Grande from the Pass to the Big Bend"},"geometry":{"type":"LineString","coordinates":[[-106.5026,31.7671],[-106.474,31.7552],[-106.4298,31.7587],[-106.3926,31.7462],[-106.3593,31.7178],[-106.3131,31.6489],[-106.2756,31.5629],[-106.2334,31.5201],[-106.2183,31.489],[-106.1651,31.448],[-106.1002,31.4291],[-106.0471,31.4049],[-106.0056,31.3972],[-105.9621,31.3712],[-105.9494,31.3614],[-105.9289,31.3267],[-105.8628,31.2886],[-105.7857,31.2112],[-105.769,31.1802],[-105.6688,31.128],[-105.6446,31.1039],[-105.6067,31.0821],[-105.5794,31.0523],[-105.5568,31.0028],[-105.5317,30.992],[-105.4976,30.9568],[-105.4164,30.9027],[-105.377,30.8597],[-105.2778,30.8196],[-105.2499,30.7991],[-105.2302,30.8104],[-105.2058,30.8026],[-105.1961,30.7882],[-105.1681,30.7814],[-105.1617,30.7643],[-105.0879,30.71],[-105.0288,30.6903],[-105.0093,30.6772],[-104.9966,30.6619],[-104.9899,30.6298],[-104.9419,30.6143],[-104.899,30.5696],[-104.8874,30.5521],[-104.883,30.5212],[-104.8639,30.5026],[-104.8653,30.4623],[-104.8555,30.4489],[-104.8458,30.4012],[-104.825,30.3875],[-104.8086,30.3466],[-104.7896,30.3361],[-104.7502,30.2647],[-104.7161,30.2442],[-104.6824,30.1932],[-104.6813,30.1343],[-104.7024,30.0555],[-104.6813,29.9767],[-104.6813,29.9426],[-104.6384,29.8881],[-104.6246,29.8417],[-104.5711,29.7877],[-104.5623,29.7457],[-104.5379,29.7023],[-104.5316,29.6681],[-104.4561,29.6136],[-104.4448,29.5894],[-104.3499,29.5378],[-104.3394,29.5242],[-104.3214,29.5325],[-104.268,29.5268],[-104.2518,29.5088],[-104.2131,29.4849],[-104.1954,29.4491],[-104.1625,29.417],[-104.1063,29.3859],[-104.0582,29.3392],[-104.02,29.3206],[-103.929,29.2933],[-103.7845,29.275],[-103.7751,29.2677],[-103.7786,29.2355],[-103.7034,29.1881],[-103.674,29.1738],[-103.5858,29.1549],[-103.5588,29.1564],[-103.5426,29.149],[-103.5306,29.127],[-103.4793,29.0823],[-103.4244,29.0581],[-103.3875,29.029],[-103.3614,29.03],[-103.3434,29.0414],[-103.3313,29.0239],[-103.3256,29.027],[-103.3024,29.0026],[-103.2426,29.0037],[-103.1489,28.9853],[-103.1236,28.9967],[-103.11,29.0236],[-103.1055,29.0581],[-103.0734,29.0916],[-103.0251,29.1163],[-102.9892,29.1774],[-102.9706,29.1931],[-102.9483,29.1822],[-102.8978,29.2205],[-102.9088,29.2132]]}},
{"type":"Feature","properties":{"id":"oberland-chihuahua","nations":"oberland | chihuahua","follows":"the low divide south of the Mimbres"},"geometry":{"type":"LineString","coordinates":[[-106.5026,31.7671],[-106.95,31.8],[-107.4,31.78]]}},
{"type":"Feature","properties":{"id":"oberland-paquime","nations":"oberland | paquime","follows":"the low divide between the Mimbres and the lakes of Guzman"},"geometry":{"type":"LineString","coordinates":[[-107.4,31.78],[-107.85,31.72],[-108.3822,31.6279]]}},
{"type":"Feature","properties":{"id":"oberland-chukson","nations":"oberland | chukson","follows":"the Continental Divide"},"geometry":{"type":"LineString","coordinates":[[-107.85,33.4],[-107.8531,33.3289],[-107.8687,33.2484],[-107.8812,33.2141],[-107.9156,33.157],[-108.0055,33.0781],[-108.0391,33.0406],[-108.0633,33.0031],[-108.0859,32.9492],[-108.1062,32.9234],[-108.1484,32.9023],[-108.2195,32.8953],[-108.2664,32.8766],[-108.3172,32.8297],[-108.3406,32.7781],[-108.3547,32.6312],[-108.3617,32.6094],[-108.3805,32.5969],[-108.3641,32.5687],[-108.2656,32.4594],[-108.2312,32.3937],[-108.2031,32.2719],[-108.2,32.175],[-108.2117,32.0914],[-108.2391,32.0297],[-108.282,31.9898],[-108.3914,31.95],[-108.4109,31.9344],[-108.4383,31.8938],[-108.45,31.8406],[-108.4406,31.7297],[-108.4172,31.6711],[-108.3822,31.6279]]}},
{"type":"Feature","properties":{"id":"chukson-paquime","nations":"chukson | paquime","follows":"the Continental Divide in the Animas country"},"geometry":{"type":"LineString","coordinates":[[-108.3822,31.6279],[-108.3656,31.5922],[-108.3547,31.5461],[-108.3516,31.4312],[-108.3594,31.3844],[-108.3734,31.35],[-108.4062,31.3219],[-108.4406,31.3125],[-108.4641,31.3383],[-108.5203,31.3477],[-108.6797,31.3453],[-108.7359,31.3266],[-108.75,31.3062],[-108.7578,31.2594],[-108.7781,31.25],[-108.8031,31.2656],[-108.8516,31.3344],[-108.8711,31.3453],[-108.9172,31.3516],[-108.9359,31.3609]]}},
{"type":"Feature","properties":{"id":"chukson-bergland","nations":"chukson | bergland","follows":"the rim between the Gila and the Yaqui"},"geometry":{"type":"LineString","coordinates":[[-108.9359,31.3609],[-108.9484,31.3828],[-108.9523,31.4195],[-108.9641,31.4484],[-109.0344,31.5344],[-109.1094,31.5859],[-109.2016,31.607],[-109.2313,31.6422],[-109.2641,31.7477],[-109.2977,31.9469],[-109.3266,32.0156],[-109.3445,32.0406],[-109.3875,32.0719],[-109.4578,32.0953],[-109.4969,32.1187],[-109.5984,32.2266],[-109.6477,32.2477],[-109.7008,32.2539],[-109.7266,32.2734],[-109.7477,32.332],[-109.7516,32.4195],[-109.7656,32.4922],[-109.7828,32.5289],[-109.8344,32.5938],[-109.8453,32.6187],[-109.8531,32.6672],[-109.8687,32.6844],[-109.8969,32.6953],[-109.9844,32.6977],[-110.0188,32.6859],[-110.0406,32.6648],[-110.0547,32.5852],[-110.0656,32.5641],[-110.0828,32.5523],[-110.118,32.5484],[-110.1484,32.5344],[-110.1719,32.5063],[-110.1875,32.4656],[-110.1828,32.4516],[-110.1664,32.4484],[-110.1547,32.4344],[-110.1484,32.3828],[-110.1406,32.3656],[-110.1266,32.3547],[-110.0836,32.3461],[-110.0703,32.3266],[-110.068,32.268],[-110.0836,32.1539],[-110.0742,32.0883],[-110.0234,32.0164],[-110.0094,31.9859],[-109.9906,31.8734],[-109.9766,31.857],[-109.9336,31.8438],[-109.9203,31.8125],[-109.918,31.7188],[-109.9375,31.4875],[-109.9328,31.4562],[-109.9117,31.4406],[-109.9047,31.4187],[-109.9016,31.3156],[-109.9094,31.2813],[-109.9234,31.2594],[-109.9664,31.2461],[-109.9803,31.2236],[-109.9953,31.2266]]}},
{"type":"Feature","properties":{"id":"chukson-kuestenland","nations":"chukson | kuestenland","follows":"the southern rim of the Gila across the Papagueria"},"geometry":{"type":"LineString","coordinates":[[-109.9953,31.2266],[-109.9803,31.2236],[-109.982,31.168],[-109.9688,31.0609],[-109.9781,31.0312],[-110.0,31.0203],[-110.0859,31.0375],[-110.0977,31.0328],[-110.1039,31.0164],[-110.1391,31.0047],[-110.2406,31.0],[-110.2937,31.0094],[-110.3344,31.0313],[-110.35,31.0469],[-110.3719,31.0875],[-110.3867,31.1344],[-110.4109,31.1687],[-110.4445,31.1906],[-110.4875,31.2],[-110.5359,31.1977],[-110.5969,31.1766],[-110.6297,31.1508],[-110.6688,31.0992],[-110.7063,31.0641],[-110.7437,31.05],[-110.7766,31.0547],[-110.7953,31.0734],[-110.8016,31.1187],[-110.8156,31.1562],[-110.8563,31.2063],[-110.9141,31.2406],[-111.0195,31.2547],[-111.0805,31.2828],[-111.1344,31.3437],[-111.1453,31.3688],[-111.1531,31.4172],[-111.1688,31.4344],[-111.2156,31.4484],[-111.3234,31.4594],[-111.3633,31.4828],[-111.3867,31.5172],[-111.4109,31.5344],[-111.4648,31.5484],[-111.5125,31.55],[-111.5508,31.5641],[-111.5734,31.5969],[-111.5805,31.6484],[-111.5641,31.7797],[-111.5641,31.8359],[-111.5719,31.85],[-111.5922,31.8594],[-111.6023,31.918],[-111.6234,31.9484],[-111.7313,32.0016],[-111.7547,32.0211],[-111.7891,32.0672],[-111.825,32.0844],[-111.9141,32.0984],[-112.0727,32.1047],[-112.1328,32.1156],[-112.1773,32.1328],[-112.2062,32.1562],[-112.2344,32.2031],[-112.2484,32.2641],[-112.2523,32.3344],[-112.2641,32.3687],[-112.2992,32.3969],[-112.3508,32.4016],[-112.3859,32.4156],[-112.3977,32.4328],[-112.4031,32.4664],[-112.4313,32.4828],[-112.5125,32.4719],[-112.5336,32.4617],[-112.5641,32.4297],[-112.5789,32.382],[-112.5805,32.3523],[-112.5687,32.2133],[-112.5875,32.1289],[-112.6156,32.0844],[-112.6547,32.05],[-112.7,32.0281],[-112.7516,32.0187],[-112.9344,32.0375],[-112.9625,32.0328],[-112.9953,32.0125],[-113.0039,32.0344],[-113.0234,32.0469],[-113.168,32.0859],[-113.2109,32.1062],[-113.2383,32.1328],[-113.2461,32.1484],[-113.25,32.1844],[-113.2688,32.2172],[-113.3125,32.2437],[-113.3812,32.2641],[-113.5203,32.282],[-113.6281,32.2797],[-113.6766,32.2664],[-113.718,32.2344],[-113.7484,32.225],[-113.7648,32.2344],[-113.7875,32.2672],[-113.8344,32.2906],[-113.9711,32.3031],[-114.0297,32.3187],[-114.1117,32.3656],[-114.1922,32.4336],[-114.2266,32.4508],[-114.3094,32.4734],[-114.4109,32.4805],[-114.6328,32.4641],[-114.7422,32.4672],[-114.8,32.3]]}},
{"type":"Feature","properties":{"id":"kuestenland-bergland","nations":"kuestenland | bergland","follows":"the western rim of the Yaqui"},"geometry":{"type":"LineString","coordinates":[[-109.9953,31.2266],[-110.0,31.2063],[-109.9953,31.1656],[-109.9883,31.1547],[-109.9664,31.1461],[-109.9578,31.1266],[-109.9469,30.9789],[-109.9313,30.9203],[-109.8844,30.8383],[-109.7812,30.7172],[-109.7594,30.6742],[-109.75,30.6344],[-109.7523,30.5984],[-109.7734,30.5562],[-109.7992,30.5359],[-109.8516,30.5125],[-109.8938,30.4656],[-109.9141,30.4187],[-109.9531,30.2812],[-109.9656,30.2703],[-109.993,30.2859],[-110.0109,30.2875],[-110.0563,30.2719],[-110.0844,30.2391],[-110.0984,30.1852],[-110.0992,30.1156],[-110.0922,30.0687],[-110.0836,30.0531],[-110.0664,30.0477],[-110.0578,30.0359],[-110.0406,29.9141],[-110.0266,29.8836],[-109.9836,29.8258],[-109.9703,29.7734],[-109.968,29.6539],[-109.982,29.4969],[-109.9828,29.4156],[-109.9664,29.3406],[-109.9328,29.3109],[-109.9094,29.25],[-109.9,29.1469],[-109.9094,29.0273],[-109.9313,28.9672],[-109.9469,28.943],[-109.9656,28.9227],[-110.0336,28.875],[-110.0641,28.8187],[-110.0789,28.7375],[-110.0805,28.6875],[-110.0711,28.4695],[-110.0859,28.4047],[-110.0992,28.3852],[-110.1164,28.3742],[-110.1375,28.3719],[-110.2031,28.3859],[-110.2406,28.3859],[-110.257,28.3594],[-110.2734,28.3469],[-110.3648,28.3047],[-110.393,28.2672],[-110.4,28.2156],[-110.3922,28.1641],[-110.3531,28.1312],[-110.3219,28.0375],[-110.2977,27.9969],[-110.5937,27.7432],[-110.75,27.6]]}},
{"type":"Feature","properties":{"id":"paquime-bergland","nations":"paquime | bergland","follows":"the crest of the Sierra Madre: the eastern rim of the Yaqui"},"geometry":{"type":"LineString","coordinates":[[-108.9359,31.3609],[-108.9148,31.343],[-108.8352,31.3047],[-108.8141,31.2812],[-108.8,31.2344],[-108.8016,31.1977],[-108.8156,31.1484],[-108.8672,31.0781],[-108.8906,31.0125],[-108.9,30.8812],[-108.8883,30.7641],[-108.8781,30.75],[-108.8578,30.7406],[-108.8477,30.6828],[-108.8359,30.6656],[-108.8008,30.6516],[-108.7141,30.6422],[-108.7023,30.6336],[-108.6977,30.6156],[-108.6859,30.6031],[-108.6156,30.5719],[-108.5875,30.5523],[-108.5687,30.5055],[-108.5875,30.3687],[-108.5828,30.3531],[-108.5664,30.3484],[-108.5547,30.3344],[-108.543,30.2734],[-108.5148,30.2547],[-108.4484,30.2445],[-108.4188,30.2172],[-108.3859,30.1352],[-108.3547,29.9773],[-108.3172,29.893],[-108.2141,29.7937],[-108.2023,29.7687],[-108.1977,29.732],[-108.1859,29.7109],[-108.1508,29.6852],[-108.1,29.6633],[-108.0719,29.6234],[-108.0719,29.5625],[-108.093,29.4922],[-108.1211,29.4359],[-108.1648,29.3828],[-108.1672,29.3594],[-108.1492,29.3516],[-108.0805,29.343],[-108.0484,29.3266],[-108.0195,29.3008],[-107.9789,29.2492],[-107.9422,29.2234],[-107.8961,29.207],[-107.7812,29.1937],[-107.7344,29.1625],[-107.7156,29.1375],[-107.6875,29.0687],[-107.6719,28.975],[-107.6477,28.8914],[-107.6078,28.8297],[-107.582,28.807],[-107.5187,28.7781],[-107.418,28.757],[-107.3703,28.7391],[-107.3383,28.718],[-107.3047,28.6734],[-107.2672,28.6547],[-107.2026,28.6466],[-107.1834,28.7202]]}},
{"type":"Feature","properties":{"id":"bergland-chihuahua","nations":"bergland | chihuahua","follows":"the divide between the Papigochi and the Conchos"},"geometry":{"type":"LineString","coordinates":[[-107.1834,28.7202],[-107.1742,28.6406],[-107.1016,28.5281],[-107.0719,28.4375],[-107.0687,28.3922],[-107.0875,28.3359],[-107.1508,28.2797],[-107.1859,28.2281],[-107.1977,28.1859],[-107.2023,28.1156],[-107.2141,28.0812],[-107.2492,28.0531],[-107.3195,28.0453],[-107.3516,28.0344],[-107.4313,27.9734],[-107.4812,27.9516],[-107.5172,27.9516],[-107.5344,27.9594],[-107.5453,27.9734],[-107.55,28.0],[-107.62,27.93],[-107.72,27.85]]}},
{"type":"Feature","properties":{"id":"paquime-chihuahua","nations":"paquime | chihuahua","follows":"the Sierra del Nido and the northern rim of the Conchos"},"geometry":{"type":"LineString","coordinates":[[-107.4,31.78],[-107.1448,31.2324],[-107.05,31.0],[-107.0043,30.8584],[-106.8955,30.4383],[-106.8224,30.2295],[-106.7285,30.0199],[-106.5243,29.6041],[-106.5453,29.5203],[-106.5687,29.4781],[-106.5984,29.4547],[-106.6648,29.443],[-106.6859,29.4266],[-106.6977,29.4008],[-106.7,29.3656],[-106.6906,29.3187],[-106.6672,29.2859],[-106.6328,29.2617],[-106.6094,29.2078],[-106.6,29.0812],[-106.6039,29.0484],[-106.6234,28.9969],[-106.6586,28.9641],[-106.7094,28.95],[-106.8266,28.9578],[-106.8461,28.9664],[-106.8523,28.9859],[-106.8578,28.9875],[-106.8875,28.9664],[-106.9156,28.9578],[-107.0406,28.95],[-107.0938,28.9359],[-107.1344,28.9031],[-107.1625,28.8516],[-107.1781,28.7812],[-107.1834,28.7202]]}}]}
